{
  "type": "FeatureCollection",
  "name": "CHARLEROI TMA TWO B",
  "features": [
    {
      "type": "Feature",
      "properties": {
        "name": "CHARLEROI TMA TWO B",
        "upperLimit": "2500FT AMSL",
        "lowerLimit": "2000FT AMSL",
        "airspaceClass": "C",
        "aipSource": "Belgium AIP ENR 2.1, AMDT 012/2025, effective 27-NOV-2025",
        "aipPage": "ENR 2.1-11",
        "geometryNote": "Published endpoints retained exactly; circle arcs sampled at maximum 1 degree; international-border segments use Eurostat/GISCO Countries 2024 CNTR_BN_01M."
      },
      "geometry": {
        "type": "Polygon",
        "coordinates": [
          [
            [
              4.48805556,
              50.63972222
            ],
            [
              4.48666667,
              50.60638889
            ],
            [
              4.54111111,
              50.5625
            ],
            [
              4.71333333,
              50.58388889
            ],
            [
              4.48805556,
              50.63972222
            ]
          ]
        ]
      }
    }
  ]
}
