{
  "type": "FeatureCollection",
  "name": "LIEGE TMA TWO",
  "features": [
    {
      "type": "Feature",
      "properties": {
        "name": "LIEGE TMA TWO",
        "upperLimit": "2500FT AMSL",
        "lowerLimit": "2000FT AMSL",
        "airspaceClass": "C",
        "aipSource": "Belgium AIP ENR 2.1, AMDT 012/2025, effective 27-NOV-2025",
        "aipPage": "ENR 2.1-13",
        "geometryNote": "Published endpoints retained exactly; circle arcs sampled at maximum 1 degree; international-border segments use Eurostat/GISCO Countries 2024 CNTR_BN_01M.",
        "sharedBoundaryNote": "The straight boundary 504611N 0054446E - 504724N 0054146E is stored with identical exact AIP endpoints in Maastricht TMA 1 and Liège TMA 1/2."
      },
      "geometry": {
        "type": "Polygon",
        "coordinates": [
          [
            [
              5.62666667,
              50.63388889
            ],
            [
              5.62810663,
              50.63503387
            ],
            [
              5.62970512,
              50.63607508
            ],
            [
              5.6312748,
              50.6371338
            ],
            [
              5.63281517,
              50.63820971
            ],
            [
              5.63432578,
              50.63930248
            ],
            [
              5.63580617,
              50.64041178
            ],
            [
              5.63725587,
              50.64153729
            ],
            [
              5.63867445,
              50.64267864
            ],
            [
              5.64006148,
              50.64383551
            ],
            [
              5.64141652,
              50.64500753
            ],
            [
              5.64273918,
              50.64619435
            ],
            [
              5.64402904,
              50.64739561
            ],
            [
              5.64528572,
              50.64861095
            ],
            [
              5.64650881,
              50.64984
            ],
            [
              5.64769796,
              50.65108237
            ],
            [
              5.6488528,
              50.65233771
            ],
            [
              5.64997297,
              50.65360562
            ],
            [
              5.65105814,
              50.65488572
            ],
            [
              5.65210796,
              50.65617763
            ],
            [
              5.65312212,
              50.65748094
            ],
            [
              5.65410031,
              50.65879526
            ],
            [
              5.65504222,
              50.6601202
            ],
            [
              5.65594757,
              50.66145535
            ],
            [
              5.65681608,
              50.6628003
            ],
            [
              5.65764748,
              50.66415465
            ],
            [
              5.65844151,
              50.66551798
            ],
            [
              5.65919794,
              50.66688989
            ],
            [
              5.65991652,
              50.66826994
            ],
            [
              5.66059704,
              50.66965773
            ],
            [
              5.66123928,
              50.67105284
            ],
            [
              5.66184305,
              50.67245483
            ],
            [
              5.66240816,
              50.67386328
            ],
            [
              5.66293443,
              50.67527776
            ],
            [
              5.6634217,
              50.67669784
            ],
            [
              5.66386983,
              50.6781231
            ],
            [
              5.66427866,
              50.67955309
            ],
            [
              5.66464807,
              50.68098739
            ],
            [
              5.66497794,
              50.68242555
            ],
            [
              5.66526818,
              50.68386714
            ],
            [
              5.66551869,
              50.68531171
            ],
            [
              5.66572938,
              50.68675884
            ],
            [
              5.6659002,
              50.68820807
            ],
            [
              5.66603108,
              50.68965898
            ],
            [
              5.66612198,
              50.6911111
            ],
            [
              5.66617288,
              50.69256402
            ],
            [
              5.66618374,
              50.69401727
            ],
            [
              5.66615457,
              50.69547042
            ],
            [
              5.66608537,
              50.69692303
            ],
            [
              5.66597616,
              50.69837465
            ],
            [
              5.66582696,
              50.69982485
            ],
            [
              5.66563782,
              50.70127317
            ],
            [
              5.66540879,
              50.70271918
            ],
            [
              5.66513994,
              50.70416244
            ],
            [
              5.66483134,
              50.70560251
            ],
            [
              5.6644831,
              50.70703895
            ],
            [
              5.6640953,
              50.70847132
            ],
            [
              5.66366806,
              50.70989918
            ],
            [
              5.66320152,
              50.71132211
            ],
            [
              5.6626958,
              50.71273966
            ],
            [
              5.66215107,
              50.7141514
            ],
            [
              5.66156748,
              50.71555691
            ],
            [
              5.6609452,
              50.71695575
            ],
            [
              5.66028443,
              50.7183475
            ],
            [
              5.65958535,
              50.71973173
            ],
            [
              5.65884819,
              50.72110802
            ],
            [
              5.65807316,
              50.72247596
            ],
            [
              5.6572605,
              50.72383512
            ],
            [
              5.65641045,
              50.72518508
            ],
            [
              5.65552326,
              50.72652545
            ],
            [
              5.65459921,
              50.7278558
            ],
            [
              5.65363858,
              50.72917574
            ],
            [
              5.65264164,
              50.73048486
            ],
            [
              5.65160871,
              50.73178275
            ],
            [
              5.6505401,
              50.73306903
            ],
            [
              5.64943612,
              50.7343433
            ],
            [
              5.64829712,
              50.73560517
            ],
            [
              5.64712344,
              50.73685426
            ],
            [
              5.64591544,
              50.73809019
            ],
            [
              5.64467347,
              50.73931257
            ],
            [
              5.64339793,
              50.74052103
            ],
            [
              5.64208918,
              50.74171522
            ],
            [
              5.64074764,
              50.74289475
            ],
            [
              5.63937371,
              50.74405927
            ],
            [
              5.63796781,
              50.74520843
            ],
            [
              5.63653036,
              50.74634187
            ],
            [
              5.6350618,
              50.74745924
            ],
            [
              5.63356258,
              50.74856022
            ],
            [
              5.63203315,
              50.74964445
            ],
            [
              5.63047398,
              50.75071161
            ],
            [
              5.62888555,
              50.75176137
            ],
            [
              5.62726833,
              50.75279341
            ],
            [
              5.62562282,
              50.75380742
            ],
            [
              5.62394952,
              50.75480308
            ],
            [
              5.62224894,
              50.75578009
            ],
            [
              5.6205216,
              50.75673816
            ],
            [
              5.61876803,
              50.75767698
            ],
            [
              5.61698875,
              50.75859628
            ],
            [
              5.61518432,
              50.75949576
            ],
            [
              5.61335528,
              50.76037517
            ],
            [
              5.61150219,
              50.76123422
            ],
            [
              5.60962562,
              50.76207265
            ],
            [
              5.60772614,
              50.76289021
            ],
            [
              5.60580432,
              50.76368665
            ],
            [
              5.60386076,
              50.76446173
            ],
            [
              5.60189605,
              50.7652152
            ],
            [
              5.59991079,
              50.76594683
            ],
            [
              5.59790558,
              50.76665641
            ],
            [
              5.59588105,
              50.76734372
            ],
            [
              5.59383779,
              50.76800854
            ],
            [
              5.59177645,
              50.76865067
            ],
            [
              5.58969766,
              50.76926992
            ],
            [
              5.58760203,
              50.76986609
            ],
            [
              5.58549023,
              50.77043901
            ],
            [
              5.58336289,
              50.77098849
            ],
            [
              5.58122066,
              50.77151437
            ],
            [
              5.5790642,
              50.7720165
            ],
            [
              5.57689417,
              50.77249471
            ],
            [
              5.57471123,
              50.77294885
            ],
            [
              5.57251605,
              50.7733788
            ],
            [
              5.5703093,
              50.77378442
            ],
            [
              5.56809166,
              50.77416557
            ],
            [
              5.56586381,
              50.77452216
            ],
            [
              5.56362642,
              50.77485407
            ],
            [
              5.56138018,
              50.77516119
            ],
            [
              5.55912578,
              50.77544343
            ],
            [
              5.55686391,
              50.77570071
            ],
            [
              5.55459527,
              50.77593295
            ],
            [
              5.55232053,
              50.77614007
            ],
            [
              5.55004042,
              50.77632202
            ],
            [
              5.54775561,
              50.77647873
            ],
            [
              5.54546681,
              50.77661017
            ],
            [
              5.54317472,
              50.77671628
            ],
            [
              5.54088004,
              50.77679704
            ],
            [
              5.53858348,
              50.77685242
            ],
            [
              5.53628574,
              50.77688241
            ],
            [
              5.53398751,
              50.77688699
            ],
            [
              5.53168951,
              50.77686616
            ],
            [
              5.52939245,
              50.77681994
            ],
            [
              5.52709701,
              50.77674833
            ],
            [
              5.52480391,
              50.77665136
            ],
            [
              5.52251384,
              50.77652905
            ],
            [
              5.52022751,
              50.77638145
            ],
            [
              5.51794562,
              50.7762086
            ],
            [
              5.51566886,
              50.77601055
            ],
            [
              5.51339794,
              50.77578736
            ],
            [
              5.51113355,
              50.7755391
            ],
            [
              5.50887638,
              50.77526585
            ],
            [
              5.50662712,
              50.77496769
            ],
            [
              5.50438646,
              50.77464471
            ],
            [
              5.50215509,
              50.77429701
            ],
            [
              5.49993368,
              50.7739247
            ],
            [
              5.49772293,
              50.77352789
            ],
            [
              5.4955235,
              50.77310671
            ],
            [
              5.49333607,
              50.77266127
            ],
            [
              5.49116131,
              50.77219172
            ],
            [
              5.48899988,
              50.77169821
            ],
            [
              5.48685244,
              50.77118087
            ],
            [
              5.48471965,
              50.77063988
            ],
            [
              5.48260217,
              50.7700754
            ],
            [
              5.48050064,
              50.76948759
            ],
            [
              5.4784157,
              50.76887664
            ],
            [
              5.47634799,
              50.76824274
            ],
            [
              5.47429814,
              50.76758608
            ],
            [
              5.47226679,
              50.76690686
            ],
            [
              5.47025454,
              50.76620529
            ],
            [
              5.46826201,
              50.76548158
            ],
            [
              5.46628982,
              50.76473596
            ],
            [
              5.46433857,
              50.76396865
            ],
            [
              5.46240884,
              50.76317989
            ],
            [
              5.46050124,
              50.76236991
            ],
            [
              5.45861633,
              50.76153898
            ],
            [
              5.45675471,
              50.76068733
            ],
            [
              5.45491693,
              50.75981524
            ],
            [
              5.45310356,
              50.75892296
            ],
            [
              5.45131515,
              50.75801078
            ],
            [
              5.44955225,
              50.75707897
            ],
            [
              5.44781538,
              50.75612781
            ],
            [
              5.44610509,
              50.75515759
            ],
            [
              5.4444219,
              50.75416862
            ],
            [
              5.4425,
              50.75333333
            ],
            [
              5.60416667,
              50.85527778
            ],
            [
              5.64833333,
              50.83333333
            ],
            [
              5.64916667,
              50.82638889
            ],
            [
              5.6375,
              50.81416667
            ],
            [
              5.69611111,
              50.79
            ],
            [
              5.74611111,
              50.76972222
            ],
            [
              5.80666667,
              50.75527778
            ],
            [
              5.82388889,
              50.75444444
            ],
            [
              5.62666667,
              50.63388889
            ]
          ]
        ]
      }
    }
  ]
}
