{
  "type": "FeatureCollection",
  "name": "LILLE TMA NINE",
  "features": [
    {
      "type": "Feature",
      "properties": {
        "id": "LILLE-TMA-9",
        "name": "LILLE TMA NINE",
        "upperLimit": "4500FT AMSL",
        "lowerLimit": "2000FT AMSL",
        "airspaceClass": "E",
        "controlUnit": "Lille APP",
        "aipSource": "Belgium AIP ENR 2.1",
        "aipPage": "ENR 2.1-15",
        "remarks": "For details, see AIP France.",
        "geometryNote": "Published non-border anchors retained. The segment described as following the Belgian-French border uses the identical Brussels FIR boundary coordinates.",
        "borderGeometrySource": "Shared Brussels FIR boundary; Belgium AIP ENR 2.1 and Eurostat/GISCO Countries 2024, EPSG:4326",
        "publishedLateralLimits": "505038N 0024816E - 504302N 0025517E - 504148N 0025346E - along the Belgian-French border - 504901N 0023756E - 505038N 0024816E."
      },
      "geometry": {
        "type": "Polygon",
        "coordinates": [
          [
            [2.8044444444, 50.8438888889],
            [2.9213888889, 50.7172222222],
            [2.896111111111111, 50.696666666666665],
            [2.886375194000038, 50.70537534300007],
            [2.870144239000069, 50.70290001700005],
            [2.86434913100004, 50.707492942000044],
            [2.846892586000024, 50.72172952300008],
            [2.827538079000021, 50.718970994000074],
            [2.813247005000051, 50.716934138000056],
            [2.790973727000051, 50.72614058600004],
            [2.782974529000057, 50.74127680700008],
            [2.782804767000073, 50.74504603200006],
            [2.78256327400004, 50.750407917000075],
            [2.776256316000058, 50.752675554000064],
            [2.764204372000052, 50.75700877300005],
            [2.762785204000068, 50.76176971400008],
            [2.757669250000049, 50.76343699100005],
            [2.758829954000021, 50.766299023000045],
            [2.760702799000057, 50.77091703000008],
            [2.754281089000074, 50.774589485000035],
            [2.748155793000024, 50.77903923300005],
            [2.741082479000056, 50.78017353000007],
            [2.738531241000032, 50.78058265400006],
            [2.733054977000052, 50.78626749500006],
            [2.725846011000044, 50.793751033000035],
            [2.722233384000049, 50.80197856600006],
            [2.722579696000025, 50.80315621900007],
            [2.724343701000066, 50.80915481400007],
            [2.712383045000024, 50.81499510400005],
            [2.681924894000076, 50.813591761000055],
            [2.680621674000065, 50.81353171600006],
            [2.680481325000073, 50.813638627000046],
            [2.678669988000024, 50.815018413000075],
            [2.670140407000076, 50.82151582400007],
            [2.662292183000034, 50.81627247200004],
            [2.658694423000043, 50.81434594800004],
            [2.657241843000065, 50.81356812200005],
            [2.634949827000071, 50.81274384800008],
            [2.632222222222222, 50.816944444444445],
            [2.8044444444, 50.8438888889]
          ]
        ]
      }
    }
  ]
}
