{
  "type": "FeatureCollection",
  "name": "LILLE TMA TWO",
  "features": [
    {
      "type": "Feature",
      "properties": {
        "id": "LILLE-TMA-2",
        "name": "LILLE TMA TWO",
        "upperLimit": "4500FT AMSL",
        "lowerLimit": "1500FT AMSL",
        "airspaceClass": "D",
        "controlUnit": "Lille APP",
        "aipSource": "Belgium AIP ENR 2.1, AMDT 012/2023, effective 30-NOV-2023",
        "aipPage": "ENR 2.1-14",
        "remarks": "For details, see AIP France.",
        "geometryNote": "Published AIP anchors retained exactly. The segment described as following the Belgian-French border uses the identical Brussels FIR boundary coordinates.",
        "borderGeometrySource": "Shared Brussels FIR boundary; Belgium AIP ENR 2.1 and Eurostat/GISCO Countries 2024, EPSG:4326",
        "publishedLateralLimits": "504115N 0032525E - 504009N 0032825E - 503146N 0032916E - along the Belgian-French border - 504048N 0031537E - 504115N 0032525E."
      },
      "geometry": {
        "type": "Polygon",
        "coordinates": [
          [
            [3.423611111111111, 50.6875],
            [3.473611111111111, 50.66916666666667],
            [3.4877777777777776, 50.529444444444444],
            [3.485245422000048, 50.52966513400003],
            [3.470356068000058, 50.532615434000036],
            [3.454618709000044, 50.51861400900003],
            [3.452720516000056, 50.51388432400006],
            [3.450041835000036, 50.50720991700007],
            [3.439774653000029, 50.50723633400003],
            [3.439474278000034, 50.50723710700004],
            [3.436091483000041, 50.50952555400005],
            [3.428238304000047, 50.50466950400005],
            [3.424923, 50.50380851400007],
            [3.405514238000023, 50.49876802400007],
            [3.401655335000044, 50.498438244000056],
            [3.39141991200006, 50.497563531000026],
            [3.385060018000047, 50.49460798000007],
            [3.377232933000073, 50.490970599000036],
            [3.370154419000073, 50.496329004000074],
            [3.360534605000055, 50.50361116100004],
            [3.343485245000068, 50.50643125800008],
            [3.334672132000037, 50.507889015000046],
            [3.328822188000061, 50.508110085000055],
            [3.327144069000042, 50.50938788700006],
            [3.327632764000043, 50.51243616000005],
            [3.327655496000034, 50.51257795400005],
            [3.319426714000031, 50.51839410600007],
            [3.317616970000074, 50.51861400900003],
            [3.308351591000076, 50.51973984700004],
            [3.305371433000062, 50.52010196700007],
            [3.286492129000067, 50.527569079000045],
            [3.28026288600006, 50.53936521800006],
            [3.280831513000066, 50.54842181200007],
            [3.281263988000035, 50.55530989400006],
            [3.280148819000033, 50.55527014300003],
            [3.278994032000071, 50.55522897900005],
            [3.276016868000056, 50.55825413000008],
            [3.279690199000072, 50.55987071200008],
            [3.283798270000034, 50.56167861800003],
            [3.27918586200002, 50.564929876000065],
            [3.278654800000027, 50.56530421900004],
            [3.279026659000067, 50.56652690200008],
            [3.281785091000074, 50.57559671700005],
            [3.277682887000026, 50.58000671800005],
            [3.276133238000057, 50.58167264100007],
            [3.276999881000052, 50.58685818200007],
            [3.278312153000059, 50.59471014300004],
            [3.275859315000048, 50.59829957300008],
            [3.270942056000024, 50.60549538300006],
            [3.269386854000061, 50.61018953700005],
            [3.268600783000068, 50.61256218200003],
            [3.267685504000042, 50.613298816000054],
            [3.256381902000044, 50.622396165000055],
            [3.258668811000064, 50.62815507600004],
            [3.250621829000067, 50.636127499000054],
            [3.245405383000048, 50.640740736000055],
            [3.248720954000021, 50.64774829900006],
            [3.245047077000038, 50.65140900100005],
            [3.246176926000032, 50.65260650400006],
            [3.246314157000029, 50.652751952000074],
            [3.24569974700006, 50.653478567000036],
            [3.241166079000038, 50.65884018100007],
            [3.242077905000031, 50.66666812300008],
            [3.249058264000041, 50.672396853000066],
            [3.25803634500005, 50.675048926000045],
            [3.264019176000033, 50.676816220000035],
            [3.2602777777777776, 50.68],
            [3.423611111111111, 50.6875]
          ]
        ]
      }
    }
  ]
}
