{
  "type": "FeatureCollection",
  "name": "LUXEMBOURG TMA ONE B",
  "features": [
    {
      "type": "Feature",
      "properties": {
        "name": "LUXEMBOURG TMA ONE B",
        "upperLimit": "FL145",
        "lowerLimit": "3500FT AMSL",
        "airspaceClass": "C/D",
        "aipSource": "Belgium AIP ENR 2.1, AMDT 006/2025, effective 12-JUN-2025",
        "aipPage": "ENR 2.1-15",
        "geometryNote": "Published endpoints retained exactly; circle arcs sampled at maximum 1 degree; international-border segments use Eurostat/GISCO Countries 2024 CNTR_BN_01M."
      },
      "geometry": {
        "type": "Polygon",
        "coordinates": [
          [
            [
              6.13777778,
              50.13
            ],
            [
              6.128407131000074,
              50.11718512900006
            ],
            [
              6.132849682000028,
              50.11370710700004
            ],
            [
              6.133802464000041,
              50.112961185000074
            ],
            [
              6.131854825000062,
              50.10838182700007
            ],
            [
              6.134398346000069,
              50.10398861300007
            ],
            [
              6.129276184000048,
              50.10164510300007
            ],
            [
              6.126520052000046,
              50.10038410700008
            ],
            [
              6.128091702000063,
              50.09764699600004
            ],
            [
              6.130591667000033,
              50.09329317500004
            ],
            [
              6.126554914000053,
              50.09245971400003
            ],
            [
              6.120632494000063,
              50.091236922000064
            ],
            [
              6.121198097000047,
              50.08143282200007
            ],
            [
              6.117300476000025,
              50.07509414500004
            ],
            [
              6.119905646000063,
              50.07296873000007
            ],
            [
              6.120932754000023,
              50.073482643000034
            ],
            [
              6.125548088000073,
              50.07579192400004
            ],
            [
              6.127898333000076,
              50.07286138900008
            ],
            [
              6.119829591000041,
              50.06558297600003
            ],
            [
              6.118498645000045,
              50.06526653900005
            ],
            [
              6.113851444000034,
              50.06416164900003
            ],
            [
              6.113128063000033,
              50.05978443500004
            ],
            [
              6.116835600000059,
              50.05671084200003
            ],
            [
              6.119586551000054,
              50.05790505700003
            ],
            [
              6.122698028000059,
              50.05925577900007
            ],
            [
              6.122481686000071,
              50.053741391000074
            ],
            [
              6.133468459000028,
              50.04191802200006
            ],
            [
              6.132476461000067,
              50.03774695000004
            ],
            [
              6.13062151400004,
              50.029947425000046
            ],
            [
              6.140336382000044,
              50.02545507600007
            ],
            [
              6.145436546000042,
              50.02309665800004
            ],
            [
              6.142430294000064,
              50.020505667000066
            ],
            [
              6.136217786000032,
              50.01515130900003
            ],
            [
              6.132677898000054,
              50.02018710700003
            ],
            [
              6.128348222000056,
              50.01863186400004
            ],
            [
              6.132894497000052,
              50.01494362500006
            ],
            [
              6.135533033000058,
              50.015108516000055
            ],
            [
              6.135895285000061,
              50.01480697800008
            ],
            [
              6.137515423000025,
              50.01172397500005
            ],
            [
              6.144130737000069,
              50.00961998000008
            ],
            [
              6.147107361000053,
              50.00867326700006
            ],
            [
              6.145563229000061,
              50.00436991300006
            ],
            [
              6.145136582000021,
              50.00318088600005
            ],
            [
              6.14293849400002,
              49.99705501600005
            ],
            [
              6.153522484000064,
              49.989421366000045
            ],
            [
              6.15927040300005,
              49.987940656000035
            ],
            [
              6.167516889000069,
              49.98581629600005
            ],
            [
              6.168425282000044,
              49.980691344000036
            ],
            [
              6.167507804000024,
              49.97906832900003
            ],
            [
              6.166236235000042,
              49.97681892700007
            ],
            [
              6.166425408000066,
              49.96850972900006
            ],
            [
              6.174564282000063,
              49.96234458100008
            ],
            [
              6.175964333000024,
              49.961284051000064
            ],
            [
              6.177060579000056,
              49.95822694600008
            ],
            [
              6.17843562500002,
              49.95439235200007
            ],
            [
              6.184150232000036,
              49.954293162000056
            ],
            [
              6.186195453000039,
              49.95636088100008
            ],
            [
              6.184023601000035,
              49.962133605000076
            ],
            [
              6.182917062000058,
              49.96507475400006
            ],
            [
              6.191297629000076,
              49.96786782500004
            ],
            [
              6.194990730000029,
              49.95662423600004
            ],
            [
              6.197729315000061,
              49.948286659000075
            ],
            [
              6.201093230000026,
              49.95156098600006
            ],
            [
              6.20222222,
              49.95388889
            ],
            [
              6.20111111,
              49.93555556
            ],
            [
              6.22194444,
              49.92666667
            ],
            [
              6.218166036000071,
              49.92297204100004
            ],
            [
              6.222997923000037,
              49.921927338000046
            ],
            [
              6.228916412000046,
              49.920647700000075
            ],
            [
              6.23382398800004,
              49.91418847700004
            ],
            [
              6.229972021000037,
              49.910880716000065
            ],
            [
              6.229292947000033,
              49.910297581000066
            ],
            [
              6.235510598000076,
              49.899188339000034
            ],
            [
              6.241225426000028,
              49.89706636900007
            ],
            [
              6.245090861000051,
              49.895631097000035
            ],
            [
              6.250995611000064,
              49.89056180000006
            ],
            [
              6.25911364500007,
              49.883592374000045
            ],
            [
              6.273595629000056,
              49.87759902600004
            ],
            [
              6.276460991000022,
              49.87767119800003
            ],
            [
              6.282961588000035,
              49.87783493200004
            ],
            [
              6.290993851000053,
              49.87385789700005
            ],
            [
              6.291978012000072,
              49.872700638000026
            ],
            [
              6.29682262700004,
              49.86700393400008
            ],
            [
              6.305325452000034,
              49.86842505900006
            ],
            [
              6.310746349000055,
              49.869331084000066
            ],
            [
              6.31444444,
              49.86444444
            ],
            [
              6.16666667,
              49.80638889
            ],
            [
              5.79138889,
              49.79388889
            ],
            [
              5.781006669000021,
              49.79303913700005
            ],
            [
              5.77777522100007,
              49.79283669700004
            ],
            [
              5.755377693000071,
              49.791433563000055
            ],
            [
              5.750735880000036,
              49.81119009000008
            ],
            [
              5.75037707000007,
              49.812717262000035
            ],
            [
              5.750130608000063,
              49.813059630000055
            ],
            [
              5.745434248000038,
              49.819583487000045
            ],
            [
              5.746368356000062,
              49.82468031900004
            ],
            [
              5.746658700000069,
              49.82626454200005
            ],
            [
              5.74500689100006,
              49.828885556000046
            ],
            [
              5.741244336000022,
              49.83485580300004
            ],
            [
              5.749228294000034,
              49.84277806400007
            ],
            [
              5.754770969000049,
              49.84827790700007
            ],
            [
              5.746363995000024,
              49.85361445400008
            ],
            [
              5.758766898000033,
              49.856502266000064
            ],
            [
              5.75509831200003,
              49.865631267000026
            ],
            [
              5.753748193000035,
              49.86899093800008
            ],
            [
              5.755290009000021,
              49.87193962600003
            ],
            [
              5.763707411000041,
              49.871613618000026
            ],
            [
              5.769475064000062,
              49.871390235000035
            ],
            [
              5.774566640000046,
              49.868380098000046
            ],
            [
              5.782818140000074,
              49.87584190800004
            ],
            [
              5.777458239000055,
              49.88388178100007
            ],
            [
              5.760633908000045,
              49.88929085600006
            ],
            [
              5.737032083000031,
              49.89687891500006
            ],
            [
              5.739336613000035,
              49.90293283300008
            ],
            [
              5.748185754000076,
              49.90947188400003
            ],
            [
              5.75540559600006,
              49.912303773000076
            ],
            [
              5.763349260000041,
              49.91541957100003
            ],
            [
              5.762165196000069,
              49.91815221100006
            ],
            [
              5.761635023000053,
              49.919375771000034
            ],
            [
              5.764102364000053,
              49.929926411000054
            ],
            [
              5.766948382000066,
              49.93099807200008
            ],
            [
              5.770011576000059,
              49.93215150900005
            ],
            [
              5.774371496000072,
              49.93851479400007
            ],
            [
              5.772300248000022,
              49.945371195000064
            ],
            [
              5.771329971000057,
              49.94858307900006
            ],
            [
              5.776485267000055,
              49.96095083600005
            ],
            [
              5.788999723000074,
              49.96155068000007
            ],
            [
              5.795344546000024,
              49.96513519900003
            ],
            [
              5.803164391000053,
              49.964420518000054
            ],
            [
              5.810162794000064,
              49.96378091100007
            ],
            [
              5.811076573000037,
              49.96774058700004
            ],
            [
              5.811915277000026,
              49.97137494200007
            ],
            [
              5.821376373000021,
              49.97406921800007
            ],
            [
              5.832160481000074,
              49.97714025400006
            ],
            [
              5.838419326000064,
              49.98250532900005
            ],
            [
              5.840232595000032,
              49.98937255800007
            ],
            [
              5.832389553000041,
              49.99119850900007
            ],
            [
              5.830796702000043,
              49.992432302000054
            ],
            [
              5.822752026000046,
              49.99866356200005
            ],
            [
              5.821609479000074,
              50.00436991300006
            ],
            [
              5.819999606000067,
              50.01241027800006
            ],
            [
              5.834714710000071,
              50.01706591200008
            ],
            [
              5.849810727000033,
              50.021842062000076
            ],
            [
              5.852742508000063,
              50.02653028200007
            ],
            [
              5.85295583900006,
              50.02687142000008
            ],
            [
              5.854845085000022,
              50.027634109000076
            ],
            [
              5.858817436000038,
              50.02923774800007
            ],
            [
              5.858268573000032,
              50.03219193400008
            ],
            [
              5.857525447000057,
              50.03619172200007
            ],
            [
              5.863572194000028,
              50.041412886000046
            ],
            [
              5.86920974700007,
              50.04628072400004
            ],
            [
              5.864303595000024,
              50.05034120700003
            ],
            [
              5.856065765000039,
              50.057159091000074
            ],
            [
              5.856644202000041,
              50.06163296700004
            ],
            [
              5.861147632000041,
              50.06892125200005
            ],
            [
              5.877125807000027,
              50.07591704200007
            ],
            [
              5.886524778000023,
              50.080032233000054
            ],
            [
              5.886706343000071,
              50.08696594000003
            ],
            [
              5.886803901000064,
              50.090691529000026
            ],
            [
              5.890897877000043,
              50.09673104400008
            ],
            [
              5.894260875000043,
              50.10169220600005
            ],
            [
              5.894615185000021,
              50.105391335000036
            ],
            [
              5.895268914000042,
              50.112216499000056
            ],
            [
              5.918461993000051,
              50.12200097700003
            ],
            [
              5.941847206000034,
              50.12737164100008
            ],
            [
              5.954155419000074,
              50.13019835400007
            ],
            [
              5.960302041000034,
              50.13245901300007
            ],
            [
              5.960128506000046,
              50.14224989400003
            ],
            [
              5.959984464000058,
              50.150376820000076
            ],
            [
              5.963682480000045,
              50.15331112700005
            ],
            [
              5.966173314000059,
              50.155287558000055
            ],
            [
              5.964985990000059,
              50.15736811700003
            ],
            [
              5.962894575000064,
              50.16103292300005
            ],
            [
              5.965429841000059,
              50.17203718800005
            ],
            [
              5.97329626800007,
              50.17496342100003
            ],
            [
              5.984906661000025,
              50.175505145000045
            ],
            [
              6.002551874000062,
              50.176328444000035
            ],
            [
              6.022467916000039,
              50.18207744700004
            ],
            [
              6.024899634000064,
              50.18277939200004
            ],
            [
              6.031074271000023,
              50.16546065600005
            ],
            [
              6.04569323000004,
              50.15780489700006
            ],
            [
              6.063621780000062,
              50.15395964500004
            ],
            [
              6.078753916000039,
              50.157715901000074
            ],
            [
              6.081305315000066,
              50.17107473600004
            ],
            [
              6.10386683400003,
              50.16992417700004
            ],
            [
              6.119217113000047,
              50.16235125700007
            ],
            [
              6.116138447000026,
              50.15621970900003
            ],
            [
              6.122080160000053,
              50.15006385800007
            ],
            [
              6.115865645000042,
              50.144967758000064
            ],
            [
              6.112317663000056,
              50.13612005700003
            ],
            [
              6.13777778,
              50.13
            ]
          ]
        ]
      }
    }
  ]
}
