{
  "type": "FeatureCollection",
  "name": "MAASTRICHT TMA 1",
  "features": [
    {
      "type": "Feature",
      "properties": {
        "name": "MAASTRICHT TMA 1",
        "upperLimit": "FL095",
        "lowerLimit": "1500FT AMSL",
        "airspaceClass": "D",
        "aipSource": "Belgium AIP ENR 2.1, AMDT 006/2025, effective 12-JUN-2025",
        "aipPage": "ENR 2.1-16",
        "geometryNote": "Published endpoints retained exactly; circle arcs sampled at maximum 1 degree; international-border segments use Eurostat/GISCO Countries 2024 CNTR_BN_01M."
      },
      "geometry": {
        "type": "MultiPolygon",
        "coordinates": [
          [
            [
              [
                5.64916667,
                50.82638889
              ],
              [
                5.6375,
                50.81416667
              ],
              [
                5.69611111,
                50.79
              ],
              [
                5.694594814000027,
                50.79414395500004
              ],
              [
                5.69397600800005,
                50.79663602800008
              ],
              [
                5.693544491000068,
                50.80011536300003
              ],
              [
                5.693788718000064,
                50.80972401500003
              ],
              [
                5.687622129000033,
                50.81192397800004
              ],
              [
                5.655683399000054,
                50.81971852500004
              ],
              [
                5.655059165000068,
                50.82352668100003
              ],
              [
                5.64916667,
                50.82638889
              ]
            ]
          ],
          [
            [
              [
                5.74611111,
                50.76972222
              ],
              [
                5.765056306000076,
                50.781874378000055
              ],
              [
                5.771372547000055,
                50.78301767100004
              ],
              [
                5.776582520000034,
                50.78144356900003
              ],
              [
                5.784332200000051,
                50.76855900400005
              ],
              [
                5.793819054000039,
                50.769184358000075
              ],
              [
                5.808849452000061,
                50.75628551400007
              ],
              [
                5.830421998000077,
                50.75877718000004
              ],
              [
                5.844916845000057,
                50.76538490400003
              ],
              [
                5.849429458000031,
                50.75466896200004
              ],
              [
                5.862913774000049,
                50.76312286900003
              ],
              [
                5.885941317000061,
                50.76936443400007
              ],
              [
                5.892072996000024,
                50.75523758400004
              ],
              [
                5.901031698000054,
                50.752160581000055
              ],
              [
                5.913142078000021,
                50.75527418300004
              ],
              [
                5.918461993000051,
                50.75091105300004
              ],
              [
                5.936111141000026,
                50.756801891000066
              ],
              [
                5.959681167000042,
                50.76197552000008
              ],
              [
                5.971311266000043,
                50.75977706700007
              ],
              [
                5.975517545000059,
                50.755226709000056
              ],
              [
                5.99888889,
                50.75361111
              ],
              [
                5.99888889,
                50.75222222
              ],
              [
                5.915,
                50.74972222
              ],
              [
                5.80666667,
                50.75527778
              ],
              [
                5.74611111,
                50.76972222
              ]
            ]
          ]
        ]
      }
    }
  ]
}
