{
  "type": "FeatureCollection",
  "name": "CHARLEROI TMA THREE A",
  "features": [
    {
      "type": "Feature",
      "properties": {
        "name": "CHARLEROI TMA THREE A",
        "upperLimit": "FL055",
        "lowerLimit": "3500FT AMSL",
        "airspaceClass": "C",
        "aipSource": "Belgium AIP ENR 2.1, AMDT 012/2025, effective 27-NOV-2025",
        "aipPage": "ENR 2.1-11",
        "geometryNote": "Published endpoints retained exactly; circle arcs sampled at maximum 1 degree; international-border segments use Eurostat/GISCO Countries 2024 CNTR_BN_01M."
      },
      "geometry": {
        "type": "Polygon",
        "coordinates": [
          [
            [
              4.48805556,
              50.63972222
            ],
            [
              4.63361111,
              50.68
            ],
            [
              4.94138889,
              50.61111111
            ],
            [
              4.96194444,
              50.51472222
            ],
            [
              4.85166667,
              50.48333333
            ],
            [
              4.84694444,
              50.505
            ],
            [
              4.84640695,
              50.50655226
            ],
            [
              4.84599824,
              50.50811548
            ],
            [
              4.84554704,
              50.50967397
            ],
            [
              4.84505348,
              50.51122726
            ],
            [
              4.84451771,
              50.51277489
            ],
            [
              4.84393989,
              50.51431639
            ],
            [
              4.84332017,
              50.5158513
            ],
            [
              4.84265876,
              50.51737916
            ],
            [
              4.84195583,
              50.51889951
            ],
            [
              4.84121159,
              50.5204119
            ],
            [
              4.84042627,
              50.52191587
            ],
            [
              4.8396001,
              50.52341098
            ],
            [
              4.83873332,
              50.52489677
            ],
            [
              4.83782618,
              50.52637279
            ],
            [
              4.83687895,
              50.52783861
            ],
            [
              4.83589193,
              50.52929379
            ],
            [
              4.83486538,
              50.53073789
            ],
            [
              4.83379963,
              50.53217047
            ],
            [
              4.83269499,
              50.53359111
            ],
            [
              4.83155178,
              50.53499938
            ],
            [
              4.83037035,
              50.53639486
            ],
            [
              4.82915105,
              50.53777713
            ],
            [
              4.82789423,
              50.53914577
            ],
            [
              4.82660028,
              50.54050037
            ],
            [
              4.82526957,
              50.54184053
            ],
            [
              4.82390251,
              50.54316585
            ],
            [
              4.8224995,
              50.54447592
            ],
            [
              4.82106096,
              50.54577035
            ],
            [
              4.81958732,
              50.54704876
            ],
            [
              4.81807901,
              50.54831076
            ],
            [
              4.8165365,
              50.54955598
            ],
            [
              4.81496024,
              50.55078403
            ],
            [
              4.81335069,
              50.55199454
            ],
            [
              4.81170835,
              50.55318717
            ],
            [
              4.8100337,
              50.55436154
            ],
            [
              4.80832724,
              50.5555173
            ],
            [
              4.80658949,
              50.55665411
            ],
            [
              4.80482096,
              50.55777163
            ],
            [
              4.80302218,
              50.55886952
            ],
            [
              4.80119369,
              50.55994744
            ],
            [
              4.79933605,
              50.56100508
            ],
            [
              4.79744979,
              50.56204212
            ],
            [
              4.7955355,
              50.56305825
            ],
            [
              4.79359374,
              50.56405315
            ],
            [
              4.79162509,
              50.56502654
            ],
            [
              4.78963015,
              50.56597811
            ],
            [
              4.78760952,
              50.56690759
            ],
            [
              4.78556379,
              50.56781469
            ],
            [
              4.78349359,
              50.56869914
            ],
            [
              4.78139954,
              50.56956068
            ],
            [
              4.77928225,
              50.57039904
            ],
            [
              4.77714238,
              50.57121397
            ],
            [
              4.77498056,
              50.57200524
            ],
            [
              4.77279743,
              50.57277259
            ],
            [
              4.77059367,
              50.5735158
            ],
            [
              4.76836992,
              50.57423465
            ],
            [
              4.76612686,
              50.57492892
            ],
            [
              4.76386516,
              50.5755984
            ],
            [
              4.76158549,
              50.57624288
            ],
            [
              4.75928856,
              50.57686218
            ],
            [
              4.75697503,
              50.57745612
            ],
            [
              4.75464562,
              50.5780245
            ],
            [
              4.75230102,
              50.57856716
            ],
            [
              4.74994194,
              50.57908394
            ],
            [
              4.74756908,
              50.57957467
            ],
            [
              4.74518316,
              50.58003922
            ],
            [
              4.7427849,
              50.58047745
            ],
            [
              4.74037501,
              50.58088921
            ],
            [
              4.73795423,
              50.58127439
            ],
            [
              4.73552328,
              50.58163288
            ],
            [
              4.73308289,
              50.58196455
            ],
            [
              4.7306338,
              50.58226932
            ],
            [
              4.72817674,
              50.5825471
            ],
            [
              4.72571246,
              50.58279779
            ],
            [
              4.72324169,
              50.58302132
            ],
            [
              4.72076518,
              50.58321763
            ],
            [
              4.71828367,
              50.58338665
            ],
            [
              4.71579792,
              50.58352834
            ],
            [
              4.71333333,
              50.58388889
            ],
            [
              4.48805556,
              50.63972222
            ]
          ]
        ]
      }
    }
  ]
}
