{
  "type": "FeatureCollection",
  "name": "BRUSSELS TMA SEVEN",
  "features": [
    {
      "type": "Feature",
      "properties": {
        "name": "BRUSSELS TMA SEVEN",
        "upperLimit": "FL095",
        "lowerLimit": "FL055",
        "airspaceClass": "C",
        "aipSource": "Belgium AIP ENR 2.1, AMDT 012/2025, effective 27-NOV-2025",
        "aipPage": "ENR 2.1-10",
        "geometryNote": "The published circular arc is sampled at maximum 1 degree. The segment described as following the Belgian-Dutch border uses the identical Amsterdam/Brussels FIR boundary coordinates; its published anchors are retained in publishedLateralLimits.",
        "publishedLateralLimits": "511938N 0044052E - 511938N 0050800E - along the Belgian-Dutch border - 511845N 0051000E - 510605N 0051000E - 511332N 0045955E - an arc of circle, 26 NM radius, centred on 505408N 0043217E and traced counterclockwise to 511938N 0044052E.",
        "borderGeometrySource": "Shared Amsterdam/Brussels FIR boundary; Belgium AIP ENR 2.1 and Eurostat/GISCO Countries 2024, EPSG:4326"
      },
      "geometry": {
        "type": "Polygon",
        "coordinates": [
          [
            [
              4.68111111,
              51.32722222
            ],
            [
              5.132513399000061,
              51.333728561000044
            ],
            [
              5.13446456500003,
              51.31549060100008
            ],
            [
              5.162679369000045,
              51.31081328600004
            ],
            [
              5.16666667,
              51.3125
            ],
            [
              5.16666667,
              51.10138889
            ],
            [
              4.99861111,
              51.22555556
            ],
            [
              4.98866374,
              51.22984889
            ],
            [
              4.97955493,
              51.23472247
            ],
            [
              4.97031073,
              51.23949579
            ],
            [
              4.96093394,
              51.24416739
            ],
            [
              4.95142739,
              51.24873583
            ],
            [
              4.94179397,
              51.25319971
            ],
            [
              4.93203659,
              51.25755766
            ],
            [
              4.92215821,
              51.26180834
            ],
            [
              4.91216183,
              51.26595045
            ],
            [
              4.9020505,
              51.26998271
            ],
            [
              4.8918273,
              51.27390388
            ],
            [
              4.88149533,
              51.27771276
            ],
            [
              4.87105774,
              51.28140818
            ],
            [
              4.86051773,
              51.284989
            ],
            [
              4.8498785,
              51.28845411
            ],
            [
              4.83914332,
              51.29180246
            ],
            [
              4.82831546,
              51.29503301
            ],
            [
              4.81739824,
              51.29814477
            ],
            [
              4.80639501,
              51.30113677
            ],
            [
              4.79530912,
              51.30400811
            ],
            [
              4.78414399,
              51.30675788
            ],
            [
              4.77290304,
              51.30938525
            ],
            [
              4.76158972,
              51.31188941
            ],
            [
              4.7502075,
              51.31426958
            ],
            [
              4.73875989,
              51.31652503
            ],
            [
              4.7272504,
              51.31865507
            ],
            [
              4.71568257,
              51.32065903
            ],
            [
              4.70405996,
              51.32253631
            ],
            [
              4.69238616,
              51.32428631
            ],
            [
              4.68111111,
              51.32722222
            ]
          ]
        ]
      }
    }
  ]
}
