{
  "type": "FeatureCollection",
  "name": "BRUSSELS TMA FOUR",
  "features": [
    {
      "type": "Feature",
      "properties": {
        "name": "BRUSSELS TMA FOUR",
        "upperLimit": "FL145",
        "lowerLimit": "2500FT AMSL",
        "airspaceClass": "C",
        "aipSource": "Belgium AIP ENR 2.1, AMDT 012/2025, effective 27-NOV-2025",
        "aipPage": "ENR 2.1-9",
        "geometryNote": "Circle arcs sampled at maximum 1 degree; published endpoints retained exactly."
      },
      "geometry": {
        "type": "Polygon",
        "coordinates": [
          [
            [
              4.55694444,
              51.30972222
            ],
            [
              4.68111111,
              51.32722222
            ],
            [
              4.69238616,
              51.32428631
            ],
            [
              4.70405996,
              51.32253631
            ],
            [
              4.71568257,
              51.32065903
            ],
            [
              4.7272504,
              51.31865507
            ],
            [
              4.73875989,
              51.31652503
            ],
            [
              4.7502075,
              51.31426958
            ],
            [
              4.76158972,
              51.31188941
            ],
            [
              4.77290304,
              51.30938525
            ],
            [
              4.78414399,
              51.30675788
            ],
            [
              4.79530912,
              51.30400811
            ],
            [
              4.80639501,
              51.30113677
            ],
            [
              4.81739824,
              51.29814477
            ],
            [
              4.82831546,
              51.29503301
            ],
            [
              4.83914332,
              51.29180246
            ],
            [
              4.8498785,
              51.28845411
            ],
            [
              4.86051773,
              51.284989
            ],
            [
              4.87105774,
              51.28140818
            ],
            [
              4.88149533,
              51.27771276
            ],
            [
              4.8918273,
              51.27390388
            ],
            [
              4.9020505,
              51.26998271
            ],
            [
              4.91216183,
              51.26595045
            ],
            [
              4.92215821,
              51.26180834
            ],
            [
              4.93203659,
              51.25755766
            ],
            [
              4.94179397,
              51.25319971
            ],
            [
              4.95142739,
              51.24873583
            ],
            [
              4.96093394,
              51.24416739
            ],
            [
              4.97031073,
              51.23949579
            ],
            [
              4.97955493,
              51.23472247
            ],
            [
              4.98866374,
              51.22984889
            ],
            [
              4.99861111,
              51.22555556
            ],
            [
              4.99861111,
              51.0475
            ],
            [
              4.55694444,
              51.30972222
            ]
          ]
        ]
      }
    }
  ]
}
