{
  "type": "FeatureCollection",
  "name": "BRUSSELS TMA THREE B",
  "features": [
    {
      "type": "Feature",
      "properties": {
        "name": "BRUSSELS TMA THREE B",
        "upperLimit": "FL195",
        "lowerLimit": "3500FT AMSL",
        "airspaceClass": "C",
        "aipSource": "Belgium AIP ENR 2.1, AMDT 012/2025, effective 27-NOV-2025",
        "aipPage": "ENR 2.1-9",
        "geometryNote": "Circle arcs sampled at maximum 1 degree; published endpoints retained exactly."
      },
      "geometry": {
        "type": "Polygon",
        "coordinates": [
          [
            [
              4.50305556,
              51.47888889
            ],
            [
              4.50305556,
              51.30194444
            ],
            [
              4.42277778,
              51.29055556
            ],
            [
              4.24194444,
              51.35388889
            ],
            [
              4.243657894000023,
              51.37473701400006
            ],
            [
              4.279565169000023,
              51.376017380000064
            ],
            [
              4.332711816000028,
              51.37740342600006
            ],
            [
              4.33563947600004,
              51.37115376600008
            ],
            [
              4.341665024000065,
              51.358291060000056
            ],
            [
              4.368138903000045,
              51.35603364500008
            ],
            [
              4.394777548000036,
              51.35580440500007
            ],
            [
              4.409600931000057,
              51.36098185000003
            ],
            [
              4.419809495000038,
              51.36454745100008
            ],
            [
              4.422493448000068,
              51.36453698100007
            ],
            [
              4.429957333000061,
              51.36450786300003
            ],
            [
              4.42634580400005,
              51.37064386600008
            ],
            [
              4.426078025000038,
              51.37109882400006
            ],
            [
              4.426335423000069,
              51.37136221600008
            ],
            [
              4.430247509000026,
              51.375365413000054
            ],
            [
              4.420233172000053,
              51.38400724300004
            ],
            [
              4.390423174000034,
              51.409731656000076
            ],
            [
              4.384403330000055,
              51.42063511100008
            ],
            [
              4.391536957000028,
              51.42478189000008
            ],
            [
              4.395133649000059,
              51.42687264800003
            ],
            [
              4.397589808000021,
              51.43410273200004
            ],
            [
              4.395901040000069,
              51.440893697000035
            ],
            [
              4.39113554100004,
              51.44397964400008
            ],
            [
              4.385487238000053,
              51.44763726100007
            ],
            [
              4.391183077000051,
              51.451370111000074
            ],
            [
              4.441115803000059,
              51.468206499000075
            ],
            [
              4.457768611000063,
              51.47039838500007
            ],
            [
              4.464163995000035,
              51.47124016200007
            ],
            [
              4.469626755000036,
              51.474222171000065
            ],
            [
              4.476027571000031,
              51.47771624500007
            ],
            [
              4.50305556,
              51.47888889
            ]
          ]
        ]
      }
    }
  ]
}
