{
  "type": "FeatureCollection",
  "name": "MAASTRICHT TMA 1",
  "features": [
    {
      "type": "Feature",
      "properties": {
        "id": "EHBK1",
        "name": "MAASTRICHT TMA 1",
        "upperLimit": "FL095",
        "lowerLimit": "1500FT AMSL",
        "airspaceClass": "D",
        "aipSource": "Netherlands AIP ENR 2.1, A 01/2025, effective 04-SEP-2025",
        "aipPage": "ENR 2.1-8",
        "borderGeometrySource": "Eurostat/GISCO Countries 2024, CNTR_BN_01M, EPSG:4326",
        "geometryNote": "Straight AIP segments retained; every segment described as following an international border uses the identical Amsterdam FIR boundary coordinates.",
        "publishedLateralLimits": "510941N 0055000E - 511100N 0055000E - 511100N 0055825E - 511455N 0055708E - 511446N 0060454E along Dutch-German border - 504515N 0060116E along Dutch-Belgian border - 504611N 0054446E - 504724N 0054146E along Dutch-Belgian border - 510941N 0055000E.",
        "sharedBoundaryNote": "The straight boundary 504611N 0054446E - 504724N 0054146E is stored with identical exact AIP endpoints in Maastricht TMA 1 and Liège TMA 1/2."
      },
      "geometry": {
        "type": "Polygon",
        "coordinates": [
          [
            [
              5.837530919000073,
              51.15695214800007
            ],
            [
              5.8333333333,
              51.1833333333
            ],
            [
              5.9736111111,
              51.1833333333
            ],
            [
              5.9522222222,
              51.2486111111
            ],
            [
              6.0811676,
              51.2458626
            ],
            [
              6.078998,
              51.244996
            ],
            [
              6.0770762,
              51.2442284
            ],
            [
              6.0726571,
              51.2425876
            ],
            [
              6.0811436,
              51.2302871
            ],
            [
              6.0827743,
              51.227922
            ],
            [
              6.0845465,
              51.2230249
            ],
            [
              6.0781341,
              51.2224514
            ],
            [
              6.0722058,
              51.2219212
            ],
            [
              6.0682752,
              51.2188664
            ],
            [
              6.0735661,
              51.1826923
            ],
            [
              6.0828265,
              51.1720112
            ],
            [
              6.0991166,
              51.1704721
            ],
            [
              6.1071694,
              51.1741505
            ],
            [
              6.1229576,
              51.1813625
            ],
            [
              6.1637234,
              51.1933314
            ],
            [
              6.1769536,
              51.1881733
            ],
            [
              6.1748121,
              51.1845134
            ],
            [
              6.1475241,
              51.174066
            ],
            [
              6.1616938,
              51.164905
            ],
            [
              6.1716851,
              51.1584455
            ],
            [
              6.1634192,
              51.1505927
            ],
            [
              6.1545908,
              51.1481081
            ],
            [
              6.1401185,
              51.1464424
            ],
            [
              6.1269826,
              51.1449305
            ],
            [
              6.120109,
              51.1410843
            ],
            [
              6.1184278,
              51.1401436
            ],
            [
              6.1083383,
              51.1379324
            ],
            [
              6.0924874,
              51.1344586
            ],
            [
              6.0877507,
              51.1296384
            ],
            [
              6.0804464,
              51.1222054
            ],
            [
              6.0721208,
              51.1196423
            ],
            [
              6.0619081,
              51.1164982
            ],
            [
              6.0531134,
              51.107486
            ],
            [
              6.0518784,
              51.1062205
            ],
            [
              6.036585,
              51.0965789
            ],
            [
              6.0247121,
              51.0938946
            ],
            [
              6.0094818,
              51.0904513
            ],
            [
              5.9811944,
              51.0724245
            ],
            [
              5.9805804,
              51.0705903
            ],
            [
              5.9796371,
              51.0677723
            ],
            [
              5.9750864,
              51.0640159
            ],
            [
              5.9708653,
              51.0605315
            ],
            [
              5.9702642,
              51.057179
            ],
            [
              5.9686137,
              51.0479735
            ],
            [
              5.9564873,
              51.0357645
            ],
            [
              5.9385788,
              51.0358687
            ],
            [
              5.9262046,
              51.0487802
            ],
            [
              5.9254734,
              51.0502249
            ],
            [
              5.918462,
              51.064079
            ],
            [
              5.9119088,
              51.0656715
            ],
            [
              5.9048891,
              51.0615122
            ],
            [
              5.8900801,
              51.0527375
            ],
            [
              5.8769768,
              51.0516186
            ],
            [
              5.867367,
              51.050798
            ],
            [
              5.8678753,
              51.046206
            ],
            [
              5.8741136,
              51.0401381
            ],
            [
              5.8772947,
              51.037044
            ],
            [
              5.87722222,
              51.03361111
            ],
            [
              5.8770557,
              51.0320597
            ],
            [
              5.8755265,
              51.0278397
            ],
            [
              5.880425,
              51.0167611
            ],
            [
              5.8941604,
              51.0113147
            ],
            [
              5.896577,
              51.0047533
            ],
            [
              5.9016786,
              51.0025506
            ],
            [
              5.9048247,
              51.0011922
            ],
            [
              5.9032344,
              50.9876748
            ],
            [
              5.8996239,
              50.9847652
            ],
            [
              5.8938015,
              50.9800731
            ],
            [
              5.8971978,
              50.9748454
            ],
            [
              5.918462,
              50.9777698
            ],
            [
              5.9309952,
              50.9834537
            ],
            [
              5.9352608,
              50.9853882
            ],
            [
              5.9534997,
              50.9878065
            ],
            [
              5.955399,
              50.986372
            ],
            [
              5.957233,
              50.9849869
            ],
            [
              5.9683062,
              50.9799865
            ],
            [
              5.9803515,
              50.9826178
            ],
            [
              6.0113208,
              50.9826326
            ],
            [
              6.0257443,
              50.9826395
            ],
            [
              6.0161169,
              50.9636684
            ],
            [
              6.0113249,
              50.9607537
            ],
            [
              6.0060872,
              50.9575679
            ],
            [
              6.0109569,
              50.9549986
            ],
            [
              6.0155297,
              50.9525859
            ],
            [
              6.0150871,
              50.9477855
            ],
            [
              6.0156293,
              50.9454294
            ],
            [
              6.0161834,
              50.9430219
            ],
            [
              6.0181114,
              50.9345161
            ],
            [
              6.0428396,
              50.9306195
            ],
            [
              6.0518708,
              50.9291964
            ],
            [
              6.0524444,
              50.9283164
            ],
            [
              6.0565323,
              50.922045
            ],
            [
              6.073561,
              50.9227515
            ],
            [
              6.0808801,
              50.9214979
            ],
            [
              6.0920361,
              50.919587
            ],
            [
              6.0869476,
              50.913135
            ],
            [
              6.085,
              50.91166667
            ],
            [
              6.0797418,
              50.9054578
            ],
            [
              6.0759391,
              50.8912821
            ],
            [
              6.0852374,
              50.8795713
            ],
            [
              6.0870503,
              50.8708202
            ],
            [
              6.0774892,
              50.8600564
            ],
            [
              6.0735187,
              50.8477296
            ],
            [
              6.0577823,
              50.8509929
            ],
            [
              6.054343,
              50.8565239
            ],
            [
              6.0179849,
              50.8437965
            ],
            [
              6.0173118,
              50.8327689
            ],
            [
              6.0233453,
              50.826236
            ],
            [
              6.0238318,
              50.8182765
            ],
            [
              6.021966,
              50.8128463
            ],
            [
              6.00461,
              50.8020474
            ],
            [
              5.9831929,
              50.8096297
            ],
            [
              5.9767276,
              50.8035364
            ],
            [
              5.9771772,
              50.7968195
            ],
            [
              5.9901332,
              50.7929313
            ],
            [
              6.0024035,
              50.7839383
            ],
            [
              6.0263122,
              50.7740421
            ],
            [
              6.0190813,
              50.7632809
            ],
            [
              6.020999,
              50.7542954
            ],
            [
              6.02111111,
              50.75416667
            ],
            [
              5.982813467000028,
              50.75315556000004
            ],
            [
              5.975517545000059,
              50.755226709000056
            ],
            [
              5.971311266000043,
              50.75977706700007
            ],
            [
              5.959681167000042,
              50.76197552000008
            ],
            [
              5.936111141000026,
              50.756801891000066
            ],
            [
              5.918461993000051,
              50.75091105300004
            ],
            [
              5.913142078000021,
              50.75527418300004
            ],
            [
              5.901031698000054,
              50.752160581000055
            ],
            [
              5.892072996000024,
              50.75523758400004
            ],
            [
              5.885941317000061,
              50.76936443400007
            ],
            [
              5.862913774000049,
              50.76312286900003
            ],
            [
              5.849429458000031,
              50.75466896200004
            ],
            [
              5.844916845000057,
              50.76538490400003
            ],
            [
              5.830421998000077,
              50.75877718000004
            ],
            [
              5.808849452000061,
              50.75628551400007
            ],
            [
              5.793819054000039,
              50.769184358000075
            ],
            [
              5.784332200000051,
              50.76855900400005
            ],
            [
              5.776582520000034,
              50.78144356900003
            ],
            [
              5.771372547000055,
              50.78301767100004
            ],
            [
              5.765056306000076,
              50.781874378000055
            ],
            [
              5.74611111,
              50.76972222
            ],
            [
              5.69611111,
              50.79
            ],
            [
              5.694594814000027,
              50.79414395500004
            ],
            [
              5.69397600800005,
              50.79663602800008
            ],
            [
              5.693544491000068,
              50.80011536300003
            ],
            [
              5.693788718000064,
              50.80972401500003
            ],
            [
              5.687622129000033,
              50.81192397800004
            ],
            [
              5.655683399000054,
              50.81971852500004
            ],
            [
              5.655059165000068,
              50.82352668100003
            ],
            [
              5.65485999200007,
              50.824741739000046
            ],
            [
              5.649506083000063,
              50.83154054000005
            ],
            [
              5.64512425700002,
              50.837104915000054
            ],
            [
              5.639799555000025,
              50.84703154600004
            ],
            [
              5.642348810000044,
              50.86382981600008
            ],
            [
              5.644531236000034,
              50.86552073400003
            ],
            [
              5.645963781000034,
              50.86663065400006
            ],
            [
              5.648137919000021,
              50.86831515100005
            ],
            [
              5.645754966000027,
              50.87208110500006
            ],
            [
              5.668625071000065,
              50.880984898000065
            ],
            [
              5.67446807500005,
              50.88124371600003
            ],
            [
              5.679131849000044,
              50.88145029900005
            ],
            [
              5.680642223000063,
              50.884408965000034
            ],
            [
              5.682338654000034,
              50.88773209900006
            ],
            [
              5.68779117400004,
              50.89163836700004
            ],
            [
              5.694290815000045,
              50.89629480800005
            ],
            [
              5.696616650000067,
              50.90269316300004
            ],
            [
              5.699221677000025,
              50.90985957300006
            ],
            [
              5.707244655000068,
              50.91150315200008
            ],
            [
              5.709965837000027,
              50.910501553000074
            ],
            [
              5.715379520000056,
              50.90850891200006
            ],
            [
              5.723732659000063,
              50.910526608000055
            ],
            [
              5.725549551000029,
              50.916257975000065
            ],
            [
              5.728361023000048,
              50.92512673500005
            ],
            [
              5.745539220000069,
              50.943509050000046
            ],
            [
              5.749882454000044,
              50.94646466300003
            ],
            [
              5.757608016000063,
              50.95172198200004
            ],
            [
              5.753896867000037,
              50.958323146000055
            ],
            [
              5.745614197000066,
              50.96089462100008
            ],
            [
              5.738547800000049,
              50.95862581700004
            ],
            [
              5.728954790000046,
              50.955545794000045
            ],
            [
              5.722445042000061,
              50.95790987600003
            ],
            [
              5.72109623800003,
              50.961649856000065
            ],
            [
              5.738007233000076,
              50.97841447600007
            ],
            [
              5.745662737000032,
              50.98127095000007
            ],
            [
              5.748910982000041,
              50.98248295800005
            ],
            [
              5.765072018000069,
              50.99722077800004
            ],
            [
              5.76694444,
              50.99888889
            ],
            [
              5.766074106000076,
              51.008594294000034
            ],
            [
              5.773411483000075,
              51.018817596000076
            ],
            [
              5.774233817000038,
              51.025691753000046
            ],
            [
              5.769014308000067,
              51.02766344400004
            ],
            [
              5.761215640000046,
              51.030609422000055
            ],
            [
              5.759419879000063,
              51.03424951000005
            ],
            [
              5.766635476000033,
              51.04460012700008
            ],
            [
              5.770656616000053,
              51.050368365000054
            ],
            [
              5.771481721000043,
              51.05414536300003
            ],
            [
              5.772983756000031,
              51.06102107300006
            ],
            [
              5.798274119000041,
              51.05985338200003
            ],
            [
              5.800084344000027,
              51.06419503500007
            ],
            [
              5.799129207000021,
              51.067526342000065
            ],
            [
              5.797416902000066,
              51.07349848000007
            ],
            [
              5.80002500300003,
              51.07556459600005
            ],
            [
              5.803992298000026,
              51.07870745400004
            ],
            [
              5.800838266000028,
              51.08286225300003
            ],
            [
              5.79728558100004,
              51.08754219700006
            ],
            [
              5.798231026000053,
              51.09233087900003
            ],
            [
              5.806910617000028,
              51.09555689900003
            ],
            [
              5.814866453000036,
              51.09456224200005
            ],
            [
              5.825479508000058,
              51.09323537400007
            ],
            [
              5.833199077000074,
              51.09974892100007
            ],
            [
              5.829243939000037,
              51.10638834400004
            ],
            [
              5.821131642000068,
              51.10817491900008
            ],
            [
              5.809665881000058,
              51.11070002900004
            ],
            [
              5.808913518000054,
              51.115812306000066
            ],
            [
              5.813638341000058,
              51.12090533700007
            ],
            [
              5.824573182000051,
              51.12854260300003
            ],
            [
              5.831767511000066,
              51.130015496000055
            ],
            [
              5.840648873000021,
              51.131833776000065
            ],
            [
              5.845420678000039,
              51.13903632500006
            ],
            [
              5.846288430000072,
              51.14034610700003
            ],
            [
              5.850472762000038,
              51.14255128500008
            ],
            [
              5.854312384000025,
              51.144574798000065
            ],
            [
              5.840504422000038,
              51.15203620200003
            ],
            [
              5.838426249000065,
              51.15315918400006
            ],
            [
              5.838166146000049,
              51.15426108200006
            ],
            [
              5.837530919000073,
              51.15695214800007
            ]
          ]
        ]
      }
    }
  ]
}
