{
  "type": "FeatureCollection",
  "name": "MAASTRICHT TMA 2",
  "features": [
    {
      "type": "Feature",
      "properties": {
        "id": "EHBK2",
        "name": "MAASTRICHT TMA 2",
        "upperLimit": "FL195",
        "lowerLimit": "FL095",
        "airspaceClass": "B",
        "aipSource": "Netherlands AIP ENR 2.1, A 01/2025, effective 04-SEP-2025",
        "aipPage": "ENR 2.1-8",
        "borderGeometrySource": "Eurostat/GISCO Countries 2024, CNTR_BN_01M, EPSG:4326",
        "geometryNote": "Complete TMA geometry from Netherlands AIP; published anchor points retained exactly and international-border sections follow GISCO."
      },
      "geometry": {
        "type": "Polygon",
        "coordinates": [
          [
            [
              5.766666666666667,
              51.18333333333333
            ],
            [
              5.833333333333333,
              51.18333333333333
            ],
            [
              5.966666666666667,
              51.18333333333333
            ],
            [
              5.95,
              51.233333333333334
            ],
            [
              6.066666666666666,
              51.233333333333334
            ],
            [
              6.0811436,
              51.2302871
            ],
            [
              6.0827743,
              51.227922
            ],
            [
              6.0845465,
              51.2230249
            ],
            [
              6.0781341,
              51.2224514
            ],
            [
              6.0722058,
              51.2219212
            ],
            [
              6.0682752,
              51.2188664
            ],
            [
              6.0735661,
              51.1826923
            ],
            [
              6.0828265,
              51.1720112
            ],
            [
              6.0991166,
              51.1704721
            ],
            [
              6.1071694,
              51.1741505
            ],
            [
              6.1229576,
              51.1813625
            ],
            [
              6.1637234,
              51.1933314
            ],
            [
              6.1769536,
              51.1881733
            ],
            [
              6.1748121,
              51.1845134
            ],
            [
              6.1475241,
              51.174066
            ],
            [
              6.1616938,
              51.164905
            ],
            [
              6.1716851,
              51.1584455
            ],
            [
              6.1634192,
              51.1505927
            ],
            [
              6.1545908,
              51.1481081
            ],
            [
              6.1401185,
              51.1464424
            ],
            [
              6.1269826,
              51.1449305
            ],
            [
              6.120109,
              51.1410843
            ],
            [
              6.1184278,
              51.1401436
            ],
            [
              6.1083383,
              51.1379324
            ],
            [
              6.0924874,
              51.1344586
            ],
            [
              6.0877507,
              51.1296384
            ],
            [
              6.0804464,
              51.1222054
            ],
            [
              6.0721208,
              51.1196423
            ],
            [
              6.0619081,
              51.1164982
            ],
            [
              6.0531134,
              51.107486
            ],
            [
              6.0518784,
              51.1062205
            ],
            [
              6.036585,
              51.0965789
            ],
            [
              6.0247121,
              51.0938946
            ],
            [
              6.0094818,
              51.0904513
            ],
            [
              5.9811944,
              51.0724245
            ],
            [
              5.9805804,
              51.0705903
            ],
            [
              5.9796371,
              51.0677723
            ],
            [
              5.9750864,
              51.0640159
            ],
            [
              5.9708653,
              51.0605315
            ],
            [
              5.9702642,
              51.057179
            ],
            [
              5.9686137,
              51.0479735
            ],
            [
              5.9564873,
              51.0357645
            ],
            [
              5.9385788,
              51.0358687
            ],
            [
              5.9262046,
              51.0487802
            ],
            [
              5.9254734,
              51.0502249
            ],
            [
              5.918462,
              51.064079
            ],
            [
              5.9119088,
              51.0656715
            ],
            [
              5.9048891,
              51.0615122
            ],
            [
              5.8900801,
              51.0527375
            ],
            [
              5.8769768,
              51.0516186
            ],
            [
              5.867367,
              51.050798
            ],
            [
              5.8678753,
              51.046206
            ],
            [
              5.8741136,
              51.0401381
            ],
            [
              5.8772947,
              51.037044
            ],
            [
              5.8770557,
              51.0320597
            ],
            [
              5.8755265,
              51.0278397
            ],
            [
              5.880425,
              51.0167611
            ],
            [
              5.8941604,
              51.0113147
            ],
            [
              5.896577,
              51.0047533
            ],
            [
              5.9016786,
              51.0025506
            ],
            [
              5.9048247,
              51.0011922
            ],
            [
              5.9032344,
              50.9876748
            ],
            [
              5.8996239,
              50.9847652
            ],
            [
              5.8938015,
              50.9800731
            ],
            [
              5.8971978,
              50.9748454
            ],
            [
              5.918462,
              50.9777698
            ],
            [
              5.9309952,
              50.9834537
            ],
            [
              5.9352608,
              50.9853882
            ],
            [
              5.9534997,
              50.9878065
            ],
            [
              5.955399,
              50.986372
            ],
            [
              5.957233,
              50.9849869
            ],
            [
              5.9683062,
              50.9799865
            ],
            [
              5.9803515,
              50.9826178
            ],
            [
              6.0113208,
              50.9826326
            ],
            [
              6.0257443,
              50.9826395
            ],
            [
              6.0161169,
              50.9636684
            ],
            [
              6.0113249,
              50.9607537
            ],
            [
              6.0060872,
              50.9575679
            ],
            [
              6.0109569,
              50.9549986
            ],
            [
              6.0155297,
              50.9525859
            ],
            [
              6.0150871,
              50.9477855
            ],
            [
              6.0156293,
              50.9454294
            ],
            [
              6.0161834,
              50.9430219
            ],
            [
              6.0181114,
              50.9345161
            ],
            [
              6.0428396,
              50.9306195
            ],
            [
              6.0518708,
              50.9291964
            ],
            [
              6.0524444,
              50.9283164
            ],
            [
              6.0565323,
              50.922045
            ],
            [
              6.073561,
              50.9227515
            ],
            [
              6.0808801,
              50.9214979
            ],
            [
              6.0920361,
              50.919587
            ],
            [
              6.0869476,
              50.913135
            ],
            [
              6.0797418,
              50.9054578
            ],
            [
              6.0759391,
              50.8912821
            ],
            [
              6.0852374,
              50.8795713
            ],
            [
              6.0870503,
              50.8708202
            ],
            [
              6.0774892,
              50.8600564
            ],
            [
              6.0735187,
              50.8477296
            ],
            [
              6.0577823,
              50.8509929
            ],
            [
              6.054343,
              50.8565239
            ],
            [
              6.0179849,
              50.8437965
            ],
            [
              6.0173118,
              50.8327689
            ],
            [
              6.0233453,
              50.826236
            ],
            [
              6.0238318,
              50.8182765
            ],
            [
              6.021966,
              50.8128463
            ],
            [
              6.00461,
              50.8020474
            ],
            [
              5.9831929,
              50.8096297
            ],
            [
              5.9767276,
              50.8035364
            ],
            [
              5.9771772,
              50.7968195
            ],
            [
              5.9901332,
              50.7929313
            ],
            [
              6.0024035,
              50.7839383
            ],
            [
              6.0263122,
              50.7740421
            ],
            [
              6.0190813,
              50.7632809
            ],
            [
              6.020999,
              50.7542954
            ],
            [
              6.016666666666667,
              50.75
            ],
            [
              6.020999,
              50.7542954
            ],
            [
              5.9828135,
              50.7531556
            ],
            [
              5.9755175,
              50.7552267
            ],
            [
              5.9713113,
              50.7597771
            ],
            [
              5.9596812,
              50.7619755
            ],
            [
              5.9361111,
              50.7568019
            ],
            [
              5.918462,
              50.7509111
            ],
            [
              5.9131421,
              50.7552742
            ],
            [
              5.9010317,
              50.7521606
            ],
            [
              5.892073,
              50.7552376
            ],
            [
              5.8859413,
              50.7693644
            ],
            [
              5.8629138,
              50.7631229
            ],
            [
              5.8494295,
              50.754669
            ],
            [
              5.8449168,
              50.7653849
            ],
            [
              5.830422,
              50.7587772
            ],
            [
              5.8088495,
              50.7562855
            ],
            [
              5.7938191,
              50.7691844
            ],
            [
              5.7843322,
              50.768559
            ],
            [
              5.7765825,
              50.7814436
            ],
            [
              5.7713725,
              50.7830177
            ],
            [
              5.7650563,
              50.7818744
            ],
            [
              5.7462107,
              50.7696303
            ],
            [
              5.738103,
              50.7575485
            ],
            [
              5.7306134,
              50.7577286
            ],
            [
              5.7203913,
              50.7631184
            ],
            [
              5.6969725,
              50.7556344
            ],
            [
              5.6820004,
              50.7574464
            ],
            [
              5.682367,
              50.7600709
            ],
            [
              5.685061,
              50.7635764
            ],
            [
              5.6864081,
              50.7646255
            ],
            [
              5.6903361,
              50.7676846
            ],
            [
              5.692646,
              50.7699156
            ],
            [
              5.6953719,
              50.772714
            ],
            [
              5.6976499,
              50.7759665
            ],
            [
              5.6985404,
              50.7786714
            ],
            [
              5.6988036,
              50.7811331
            ],
            [
              5.6985853,
              50.7837449
            ],
            [
              5.6976769,
              50.7870484
            ],
            [
              5.6945948,
              50.794144
            ],
            [
              5.693976,
              50.796636
            ],
            [
              5.6935445,
              50.8001154
            ],
            [
              5.6937887,
              50.809724
            ],
            [
              5.6876221,
              50.811924
            ],
            [
              5.6556834,
              50.8197185
            ],
            [
              5.6550592,
              50.8235267
            ],
            [
              5.65486,
              50.8247417
            ],
            [
              5.6495061,
              50.8315405
            ],
            [
              5.6451243,
              50.8371049
            ],
            [
              5.6397996,
              50.8470315
            ],
            [
              5.6423488,
              50.8638298
            ],
            [
              5.6445312,
              50.8655207
            ],
            [
              5.6459638,
              50.8666307
            ],
            [
              5.6481379,
              50.8683152
            ],
            [
              5.645755,
              50.8720811
            ],
            [
              5.6686251,
              50.8809849
            ],
            [
              5.6744681,
              50.8812437
            ],
            [
              5.6791318,
              50.8814503
            ],
            [
              5.6806422,
              50.884409
            ],
            [
              5.6823387,
              50.8877321
            ],
            [
              5.6877912,
              50.8916384
            ],
            [
              5.6942908,
              50.8962948
            ],
            [
              5.6966167,
              50.9026932
            ],
            [
              5.6992217,
              50.9098596
            ],
            [
              5.7072447,
              50.9115032
            ],
            [
              5.7099658,
              50.9105016
            ],
            [
              5.7153795,
              50.9085089
            ],
            [
              5.7237327,
              50.9105266
            ],
            [
              5.7255496,
              50.916258
            ],
            [
              5.728361,
              50.9251267
            ],
            [
              5.7455392,
              50.9435091
            ],
            [
              5.7498825,
              50.9464647
            ],
            [
              5.757608,
              50.951722
            ],
            [
              5.7538969,
              50.9583231
            ],
            [
              5.7456142,
              50.9608946
            ],
            [
              5.7385478,
              50.9586258
            ],
            [
              5.7289548,
              50.9555458
            ],
            [
              5.722445,
              50.9579099
            ],
            [
              5.7210962,
              50.9616499
            ],
            [
              5.7380072,
              50.9784145
            ],
            [
              5.7456627,
              50.981271
            ],
            [
              5.748911,
              50.982483
            ],
            [
              5.765072,
              50.9972208
            ],
            [
              5.7660741,
              51.0085943
            ],
            [
              5.7734115,
              51.0188176
            ],
            [
              5.7742338,
              51.0256918
            ],
            [
              5.7690143,
              51.0276634
            ],
            [
              5.7612156,
              51.0306094
            ],
            [
              5.7594199,
              51.0342495
            ],
            [
              5.7666355,
              51.0446001
            ],
            [
              5.7706566,
              51.0503684
            ],
            [
              5.7714817,
              51.0541454
            ],
            [
              5.7729838,
              51.0610211
            ],
            [
              5.7982741,
              51.0598534
            ],
            [
              5.8000843,
              51.064195
            ],
            [
              5.7991292,
              51.0675263
            ],
            [
              5.7974169,
              51.0734985
            ],
            [
              5.800025,
              51.0755646
            ],
            [
              5.8039923,
              51.0787075
            ],
            [
              5.8008383,
              51.0828623
            ],
            [
              5.7972856,
              51.0875422
            ],
            [
              5.798231,
              51.0923309
            ],
            [
              5.8069106,
              51.0955569
            ],
            [
              5.8148665,
              51.0945622
            ],
            [
              5.8254795,
              51.0932354
            ],
            [
              5.8331991,
              51.0997489
            ],
            [
              5.8292439,
              51.1063883
            ],
            [
              5.8211316,
              51.1081749
            ],
            [
              5.8096659,
              51.1107
            ],
            [
              5.8089135,
              51.1158123
            ],
            [
              5.8136383,
              51.1209053
            ],
            [
              5.8245732,
              51.1285426
            ],
            [
              5.8317675,
              51.1300155
            ],
            [
              5.8406489,
              51.1318338
            ],
            [
              5.8454207,
              51.1390363
            ],
            [
              5.8462884,
              51.1403461
            ],
            [
              5.8504728,
              51.1425513
            ],
            [
              5.8543124,
              51.1445748
            ],
            [
              5.8405044,
              51.1520362
            ],
            [
              5.8384262,
              51.1531592
            ],
            [
              5.8381661,
              51.1542611
            ],
            [
              5.8375309,
              51.1569521
            ],
            [
              5.8265511,
              51.1667222
            ],
            [
              5.8218395,
              51.1661642
            ],
            [
              5.8148646,
              51.1600876
            ],
            [
              5.8145043,
              51.1597737
            ],
            [
              5.8138714,
              51.1599286
            ],
            [
              5.8050211,
              51.1620952
            ],
            [
              5.7882101,
              51.1558211
            ],
            [
              5.7782617,
              51.1521082
            ],
            [
              5.7758791,
              51.1550629
            ],
            [
              5.7782225,
              51.1616774
            ],
            [
              5.7787394,
              51.1631367
            ],
            [
              5.7774084,
              51.1637384
            ],
            [
              5.769854,
              51.1671537
            ],
            [
              5.7747507,
              51.1704673
            ],
            [
              5.7754506,
              51.170941
            ],
            [
              5.7753883,
              51.1787602
            ],
            [
              5.766666666666667,
              51.18333333333333
            ]
          ]
        ]
      }
    }
  ]
}
