{
  "type": "FeatureCollection",
  "name": "OOSTENDE TMA ONE",
  "features": [
    {
      "type": "Feature",
      "properties": {
        "name": "OOSTENDE TMA ONE",
        "upperLimit": "FL055",
        "lowerLimit": "1500FT AMSL",
        "airspaceClass": "C",
        "aipSource": "Belgium AIP ENR 2.1, AMDT 006/2025, effective 12-JUN-2025",
        "aipPage": "ENR 2.1-16",
        "geometryNote": "Published endpoints retained exactly; circle arcs sampled at maximum 1 degree; international-border segments use Eurostat/GISCO Countries 2024 CNTR_BN_01M."
      },
      "geometry": {
        "type": "Polygon",
        "coordinates": [
          [
            [
              2.82138889,
              50.98333333
            ],
            [
              2.65138889,
              51.01194444
            ],
            [
              2.32777778,
              51.03
            ],
            [
              2.23833333,
              51.105
            ],
            [
              2.0,
              51.11666667
            ],
            [
              2.0,
              51.5
            ],
            [
              3.36305556,
              51.37305556
            ],
            [
              3.373970230000054,
              51.359681022000075
            ],
            [
              3.374312390000057,
              51.35217662400004
            ],
            [
              3.374455806000071,
              51.34903117500005
            ],
            [
              3.376935784000068,
              51.346742505000066
            ],
            [
              3.38299070000005,
              51.34115467100003
            ],
            [
              3.384711236000044,
              51.33573178600005
            ],
            [
              3.372431525000025,
              51.325868513000046
            ],
            [
              3.359694115000025,
              51.31563760800003
            ],
            [
              3.364504819000047,
              51.311728137000046
            ],
            [
              3.370919009000033,
              51.30651557600004
            ],
            [
              3.375965756000028,
              51.30232570000004
            ],
            [
              3.370138066000038,
              51.29872505600008
            ],
            [
              3.367078405000029,
              51.29683464200008
            ],
            [
              3.372899198000027,
              51.29235160500008
            ],
            [
              3.379903256000034,
              51.28695724500005
            ],
            [
              3.38105095100002,
              51.28242715400006
            ],
            [
              3.378352555000049,
              51.27976375900005
            ],
            [
              3.37666667,
              51.27638889
            ],
            [
              3.25,
              51.08333333
            ],
            [
              2.97361111,
              51.06583333
            ],
            [
              2.82138889,
              50.98333333
            ]
          ]
        ]
      }
    }
  ]
}
