{
  "type": "FeatureCollection",
  "name": "LoA — Special areas",
  "features": [
    {
      "type": "Feature",
      "properties": {
        "loaPartner": "Special areas",
        "aipSource": "User-provided LoA Amsterdam ACC – Brussels ACC (September 2026 filename); Annex D, D.3.1, page D4 and chart D7, dated 11 JUN 2026. Intermediate coastline anchors: Netherlands AIP ENR 2.1 Nieuw Milligen TMA G1, 11 JUN 2026.",
        "aipSourceUrl": "",
        "geometryNote": "LoA endpoints retained. National-border segments follow the shared Amsterdam FIR boundary. The two south-coast segments are approximated using intermediate published Nieuw Milligen TMA G1 anchors, not a detailed shoreline survey; the exact prescribed boundary is recorded in publishedLateralLimits.",
        "id": "LOA-EXTENDED-TMA-G1",
        "name": "Extended TMA G1",
        "lowerLimit": "FL 055",
        "upperLimit": "FL 095",
        "airspaceClass": "A",
        "lateralLimits": "513810N 0035605E;513654N 0035910E;513800N 0040425E;513800N 0040600E;513648N 0040733E;513701N 0041042E;513600N 0041200E;513600N 0043617E;512850N 0043045E;border;512656N 0042251E;512656N 0042031E;512235N 0041500E;border;511615N 0040630E;511830N 0035605E;513810N 0035605E",
        "publishedLateralLimits": "513810N 0035605E - along the south coast of Schouwen Duiveland to 513800N 0040425E - 513800N 0040600E - along the south coast of St. Philipsland to 513600N 0041200E - 513600N 0043617E - 512850N 0043045E - along the Dutch-Belgian border to 512656N 0042251E - 512656N 0042031E - 512235N 0041500E - along the Dutch-Belgian border to 511615N 0040630E - 511830N 0035605E - 513810N 0035605E.",
        "remarks": "Amsterdam ACC Supervisor informs Brussels ACC Supervisor of activation/deactivation with 5 minutes prior notice. During activation, Brussels TMA departures with RFL above FL 095 cross the common AoR boundary at FL 100 or above. Brussels ACC coordinates flights crossing Brussels TMA below FL 095 and departures with RFL below FL 095 with Amsterdam ACC. Activation status is not provided by this static map."
      },
      "geometry": {
        "type": "Polygon",
        "coordinates": [
          [
            [
              3.9347222222222227,
              51.63611111111111
            ],
            [
              3.986111111111111,
              51.615
            ],
            [
              4.073611111111111,
              51.63333333333333
            ],
            [
              4.1,
              51.63333333333333
            ],
            [
              4.125833333333333,
              51.61333333333334
            ],
            [
              4.178333333333334,
              51.61694444444444
            ],
            [
              4.2,
              51.6
            ],
            [
              4.604722222222222,
              51.6
            ],
            [
              4.5125,
              51.480555555555554
            ],
            [
              4.486697532000051,
              51.47736062900003
            ],
            [
              4.476027571000031,
              51.47771624500007
            ],
            [
              4.469626755000036,
              51.474222171000065
            ],
            [
              4.464163995000035,
              51.47124016200007
            ],
            [
              4.457768611000063,
              51.47039838500007
            ],
            [
              4.441115803000059,
              51.468206499000075
            ],
            [
              4.391183077000051,
              51.451370111000074
            ],
            [
              4.380833333333333,
              51.44888888888889
            ],
            [
              4.341944444444444,
              51.44888888888889
            ],
            [
              4.25,
              51.37638888888889
            ],
            [
              4.234817405000058,
              51.348254205000046
            ],
            [
              4.231869623000023,
              51.34588393100006
            ],
            [
              4.206818699000053,
              51.32574285800007
            ],
            [
              4.165675408000027,
              51.292692266000074
            ],
            [
              4.108333333333333,
              51.270833333333336
            ],
            [
              3.9347222222222227,
              51.30833333333333
            ],
            [
              3.9347222222222227,
              51.63611111111111
            ]
          ]
        ]
      }
    },
    {
      "type": "Feature",
      "properties": {
        "loaPartner": "Special areas",
        "aipSource": "User-provided LoA Amsterdam ACC – Brussels ACC (September 2026 filename); Annex B, B.3.1.7, page B4 and chart B14, dated 11 JUN 2026",
        "aipSourceUrl": "",
        "geometryNote": "Published LoA coordinates with the Dutch-Belgian border segment expanded along the shared Amsterdam FIR boundary; checked against the L179 Area chart in Annex B.",
        "id": "LOA-L179",
        "name": "L179 Area",
        "lowerLimit": "FL 095",
        "upperLimit": "FL 195",
        "airspaceClass": "B",
        "controlUnit": "Brussels ACC",
        "lateralLimits": "511521N 0053324E;511455N 0055708E;511100N 0055825E;511100N 0054606E;border;511521N 0053324E",
        "remarks": "Part of Amsterdam FIR where Brussels ACC provides ATS in accordance with the airspace classification."
      },
      "geometry": {
        "type": "Polygon",
        "coordinates": [
          [
            [
              5.556666666666667,
              51.255833333333335
            ],
            [
              5.952222222222223,
              51.24861111111111
            ],
            [
              5.973611111111111,
              51.18333333333333
            ],
            [
              5.7683333333333335,
              51.18333333333333
            ],
            [
              5.745651094000038,
              51.18947197700004
            ],
            [
              5.733198930000071,
              51.18656862800003
            ],
            [
              5.71004967500005,
              51.18117114200004
            ],
            [
              5.688936011000067,
              51.18499722300004
            ],
            [
              5.658263781000073,
              51.18475949200007
            ],
            [
              5.651352744000064,
              51.19253095000005
            ],
            [
              5.651935920000028,
              51.194034110000075
            ],
            [
              5.653097358000025,
              51.19702776500003
            ],
            [
              5.566283615000032,
              51.220836500000075
            ],
            [
              5.560063487000036,
              51.22287434700007
            ],
            [
              5.555609869000023,
              51.24377622900005
            ],
            [
              5.556666666666667,
              51.255833333333335
            ]
          ]
        ]
      }
    },
    {
      "type": "Feature",
      "properties": {
        "loaPartner": "Special areas",
        "aipSource": "User-provided LoA Amsterdam ACC – Brussels ACC (September 2026 filename); Annex D, D.3.2, page D4 and chart D7, dated 11 JUN 2026",
        "aipSourceUrl": "",
        "geometryNote": "Straight segments connecting the published LoA coordinates; checked against the Walcheren chart in Annex D.",
        "id": "LOA-WALCHEREN",
        "name": "Walcheren Area",
        "lowerLimit": "FL 055",
        "upperLimit": "FL 125",
        "airspaceClass": "A",
        "lateralLimits": "514420N 0024628E;514105N 0034732E;512259N 0034759E;512755N 0032525E;513723N 0024508E;514420N 0024628E",
        "remarks": "Maximum level to be used: FL 120. Amsterdam ACC Supervisor notifies Brussels ACC Supervisor of activation/deactivation with 5 minutes prior notice. During activation, Brussels ACC keeps flights below FL 125 on or east of the HELEN–HAMZA axis. Deviations below FL 125 on L179 more than 5 NM north of its axis must be reported immediately to MilATCC Schiphol. Activation status is not provided by this static map."
      },
      "geometry": {
        "type": "Polygon",
        "coordinates": [
          [
            [
              2.7744444444444443,
              51.73888888888889
            ],
            [
              3.792222222222222,
              51.68472222222222
            ],
            [
              3.799722222222222,
              51.38305555555556
            ],
            [
              3.423611111111111,
              51.46527777777778
            ],
            [
              2.752222222222222,
              51.62305555555555
            ],
            [
              2.7744444444444443,
              51.73888888888889
            ]
          ]
        ]
      }
    },
    {
      "type": "Feature",
      "properties": {
        "loaPartner": "Special areas",
        "aipSource": "User-provided LoA Amsterdam ACC – Brussels ACC (September 2026 filename); Annex B, B.3.2.7, page B6 and chart B19; Annex D, D.4.1.1, page D6; dated 11 JUN 2026",
        "aipSourceUrl": "",
        "geometryNote": "Straight segments connecting the published LoA coordinates; checked against the Eindhoven Area chart in Annex B.",
        "id": "LOA-EINDHOVEN",
        "name": "Eindhoven Area",
        "lowerLimit": "FL 095",
        "upperLimit": "FL 165",
        "airspaceClass": "B",
        "controlUnit": "MilATCC Schiphol",
        "lateralLimits": "513833N 0052539E;513757N 0060212E;512000N 0060209E;511455N 0055708E;511520N 0053452E;513833N 0052539E",
        "remarks": "Part of Nieuw Milligen TMA D. When Delta Area ATS is delegated to Amsterdam ACC, MilATCC Schiphol may activate Eindhoven Area during Eindhoven Airport opening hours. While active, Eindhoven Area is excluded from that delegation; MilATCC Schiphol notifies Brussels ACC of activation/deactivation. Activation status is not provided by this static map."
      },
      "geometry": {
        "type": "Polygon",
        "coordinates": [
          [
            [
              5.4275,
              51.6425
            ],
            [
              6.036666666666666,
              51.6325
            ],
            [
              6.035833333333334,
              51.333333333333336
            ],
            [
              5.952222222222223,
              51.24861111111111
            ],
            [
              5.5811111111111105,
              51.25555555555555
            ],
            [
              5.4275,
              51.6425
            ]
          ]
        ]
      }
    },
    {
      "type": "Feature",
      "properties": {
        "loaPartner": "Special areas",
        "parentGroup": "SASKI Area",
        "aipSource": "Netherlands AIP ENR 2.2 section 8, AIRAC AMDT 06/2026, effective 11 JUN 2026",
        "aipSourceUrl": "https://eaip.lvnl.nl/web/eaip/AIRAC%20AMDT%2006-2026_2026_06_11/eAIP/EH-ENR%202.2-en-GB.html",
        "geometryNote": "Published ATS delegation boundary. National-border segments reuse the shared Amsterdam FIR boundary.",
        "id": "EHAADLG13",
        "name": "SASKI A Area",
        "lowerLimit": "FL 055",
        "upperLimit": "FL 245",
        "controlUnit": "Brussels ACC / Brussels Control",
        "hours": "H24",
        "lateralLimits": "513813N 0023000E;513555N 0024001E;512850N 0031019E;512531N 0032419E;511610N 0040651E;border;512223N 0032147E;512719N 0023000E;513813N 0023000E",
        "remarks": "ATS in Amsterdam FIR delegated to Belgium. Airspace classification: see AIP Belgium."
      },
      "geometry": {
        "type": "Polygon",
        "coordinates": [
          [
            [
              2.5,
              51.636944444444445
            ],
            [
              2.6669444444444443,
              51.59861111111111
            ],
            [
              3.1719444444444442,
              51.480555555555554
            ],
            [
              3.4052777777777776,
              51.42527777777777
            ],
            [
              4.114166666666667,
              51.269444444444446
            ],
            [
              4.052782335000074,
              51.24274988800005
            ],
            [
              4.041521945000056,
              51.24184735100005
            ],
            [
              4.03602617100006,
              51.24464554700006
            ],
            [
              4.03566457200003,
              51.24482965700008
            ],
            [
              4.034843224000042,
              51.24460022300008
            ],
            [
              4.025755961000073,
              51.242061801000034
            ],
            [
              4.020708565000064,
              51.24405865300008
            ],
            [
              4.017763837000075,
              51.245223648000035
            ],
            [
              4.005676622000067,
              51.24182249000006
            ],
            [
              3.985424752000029,
              51.23292550700006
            ],
            [
              3.97766651400002,
              51.225132114000075
            ],
            [
              3.965860595000038,
              51.22387282400007
            ],
            [
              3.961193197000057,
              51.21936167500007
            ],
            [
              3.958236120000038,
              51.21650359100005
            ],
            [
              3.938451861000033,
              51.21253001300005
            ],
            [
              3.934203816000036,
              51.215640706000045
            ],
            [
              3.929279448000045,
              51.219246646000045
            ],
            [
              3.919854150000049,
              51.21668244500006
            ],
            [
              3.91695308200002,
              51.21399738000008
            ],
            [
              3.917276131000051,
              51.212775141000066
            ],
            [
              3.918488836000051,
              51.20818693200005
            ],
            [
              3.901975177000054,
              51.202536973000065
            ],
            [
              3.886468979000028,
              51.201182449000044
            ],
            [
              3.878935938000041,
              51.207734250000044
            ],
            [
              3.884053271000028,
              51.211260148000065
            ],
            [
              3.891827724000052,
              51.21661682900003
            ],
            [
              3.887735799000041,
              51.222290849000046
            ],
            [
              3.860024803000044,
              51.21237483600004
            ],
            [
              3.85633948800006,
              51.21105609500006
            ],
            [
              3.852327984000055,
              51.21340198000007
            ],
            [
              3.849699929000053,
              51.21179948200006
            ],
            [
              3.84576585700006,
              51.212940434000075
            ],
            [
              3.840716774000043,
              51.21205799200004
            ],
            [
              3.823902059000034,
              51.209119240000064
            ],
            [
              3.807714067000063,
              51.21290353200004
            ],
            [
              3.802131630000076,
              51.21050513600005
            ],
            [
              3.790755489000048,
              51.21438998200006
            ],
            [
              3.789400084000022,
              51.24334730700008
            ],
            [
              3.791830933000028,
              51.25025786000003
            ],
            [
              3.793912900000066,
              51.25617659200003
            ],
            [
              3.775886468000067,
              51.26300603800007
            ],
            [
              3.772735787000045,
              51.26259331300008
            ],
            [
              3.764268971000035,
              51.26148419700007
            ],
            [
              3.758838066000067,
              51.26570666100008
            ],
            [
              3.754386074000024,
              51.26916803200004
            ],
            [
              3.73193307400004,
              51.271733880000056
            ],
            [
              3.693956974000059,
              51.276073653000026
            ],
            [
              3.687064698000029,
              51.280853646000025
            ],
            [
              3.67883192100004,
              51.28100173300004
            ],
            [
              3.665733665000062,
              51.28656378100004
            ],
            [
              3.657452815000056,
              51.290080164000074
            ],
            [
              3.651664491000076,
              51.28971553800005
            ],
            [
              3.639196997000056,
              51.28893016900008
            ],
            [
              3.600222587000076,
              51.301239483000074
            ],
            [
              3.590266238000027,
              51.30438400300005
            ],
            [
              3.583533284000055,
              51.299608671000044
            ],
            [
              3.584029887000042,
              51.294769803000065
            ],
            [
              3.584207792000029,
              51.293036305000044
            ],
            [
              3.581444130000023,
              51.28876033600005
            ],
            [
              3.57532242000002,
              51.290742099000056
            ],
            [
              3.562732222000022,
              51.29481788600003
            ],
            [
              3.554748819000054,
              51.29071114300007
            ],
            [
              3.544255380000038,
              51.290111781000064
            ],
            [
              3.539428852000071,
              51.28651318800007
            ],
            [
              3.536979151000025,
              51.28468672500003
            ],
            [
              3.533666289000053,
              51.285834254000065
            ],
            [
              3.527429738000023,
              51.287994508000054
            ],
            [
              3.518730090000076,
              51.287028054000075
            ],
            [
              3.517325637000056,
              51.284115764000035
            ],
            [
              3.523215571000037,
              51.25774945200004
            ],
            [
              3.525596682000071,
              51.24709040100004
            ],
            [
              3.475020341000061,
              51.24267199900004
            ],
            [
              3.449292196000044,
              51.24176120000004
            ],
            [
              3.428507789000037,
              51.24517478300004
            ],
            [
              3.425374586000032,
              51.250259164000056
            ],
            [
              3.421788374000073,
              51.25607866400003
            ],
            [
              3.416127309000046,
              51.258916819000035
            ],
            [
              3.410889956000062,
              51.25804707800006
            ],
            [
              3.407776840000054,
              51.257530099000064
            ],
            [
              3.39714439200003,
              51.265437621000046
            ],
            [
              3.386959407000063,
              51.273012358000074
            ],
            [
              3.380737262000025,
              51.27425920100006
            ],
            [
              3.376371939000023,
              51.27780883300005
            ],
            [
              3.378352555000049,
              51.27976375900005
            ],
            [
              3.38105095100002,
              51.28242715400006
            ],
            [
              3.379903256000034,
              51.28695724500005
            ],
            [
              3.372899198000027,
              51.29235160500008
            ],
            [
              3.367078405000029,
              51.29683464200008
            ],
            [
              3.370138066000038,
              51.29872505600008
            ],
            [
              3.375965756000028,
              51.30232570000004
            ],
            [
              3.370919009000033,
              51.30651557600004
            ],
            [
              3.364504819000047,
              51.311728137000046
            ],
            [
              3.359694115000025,
              51.31563760800003
            ],
            [
              3.372431525000025,
              51.325868513000046
            ],
            [
              3.384711236000044,
              51.33573178600005
            ],
            [
              3.38299070000005,
              51.34115467100003
            ],
            [
              3.376935784000068,
              51.346742505000066
            ],
            [
              3.374455806000071,
              51.34903117500005
            ],
            [
              3.374312390000057,
              51.35217662400004
            ],
            [
              3.373970230000054,
              51.359681022000075
            ],
            [
              3.3630555555555555,
              51.37305555555555
            ],
            [
              2.5,
              51.45527777777778
            ],
            [
              2.5,
              51.636944444444445
            ]
          ]
        ]
      }
    },
    {
      "type": "Feature",
      "properties": {
        "loaPartner": "Special areas",
        "parentGroup": "SASKI Area",
        "aipSource": "Netherlands AIP ENR 2.2 section 8, AIRAC AMDT 06/2026, effective 11 JUN 2026",
        "aipSourceUrl": "https://eaip.lvnl.nl/web/eaip/AIRAC%20AMDT%2006-2026_2026_06_11/eAIP/EH-ENR%202.2-en-GB.html",
        "geometryNote": "Published ATS delegation boundary. National-border segments reuse the shared Amsterdam FIR boundary.",
        "id": "EHAADLG31",
        "name": "SASKI B Area",
        "lowerLimit": "FL 245",
        "upperLimit": "FL 660",
        "controlUnit": "London AC (Swanwick) / London Control",
        "hours": "H24",
        "lateralLimits": "514245N 0021001E;513813N 0023000E;512720N 0023000E;513000N 0020000E;514245N 0021001E",
        "remarks": "ATS in Amsterdam FIR delegated to the United Kingdom."
      },
      "geometry": {
        "type": "Polygon",
        "coordinates": [
          [
            [
              2.1669444444444443,
              51.712500000000006
            ],
            [
              2.5,
              51.636944444444445
            ],
            [
              2.5,
              51.455555555555556
            ],
            [
              2,
              51.5
            ],
            [
              2.1669444444444443,
              51.712500000000006
            ]
          ]
        ]
      }
    },
    {
      "type": "Feature",
      "properties": {
        "loaPartner": "Special areas",
        "aipSource": "Netherlands AIP ENR 2.2 section 8, AIRAC AMDT 06/2026, effective 11 JUN 2026",
        "aipSourceUrl": "https://eaip.lvnl.nl/web/eaip/AIRAC%20AMDT%2006-2026_2026_06_11/eAIP/EH-ENR%202.2-en-GB.html",
        "geometryNote": "Published ATS delegation boundary. National-border segments reuse the shared Amsterdam FIR boundary.",
        "id": "EHAADLG17",
        "name": "AMRIV Area",
        "lowerLimit": "FL 055",
        "upperLimit": "FL 215",
        "controlUnit": "London TC (Swanwick) / London Control",
        "hours": "H24",
        "lateralLimits": "515710N 0022129E;515827N 0024001E;513555N 0024001E;513813N 0023000E;512720N 0023000E;513000N 0020000E;515710N 0022129E",
        "remarks": "ATS in Amsterdam FIR delegated to the United Kingdom."
      },
      "geometry": {
        "type": "Polygon",
        "coordinates": [
          [
            [
              2.3580555555555556,
              51.95277777777778
            ],
            [
              2.6669444444444443,
              51.97416666666667
            ],
            [
              2.6669444444444443,
              51.59861111111111
            ],
            [
              2.5,
              51.636944444444445
            ],
            [
              2.5,
              51.455555555555556
            ],
            [
              2,
              51.5
            ],
            [
              2.3580555555555556,
              51.95277777777778
            ]
          ]
        ]
      }
    },
    {
      "type": "Feature",
      "properties": {
        "loaPartner": "Special areas",
        "aipSource": "Netherlands AIP ENR 2.2 section 8, AIRAC AMDT 06/2026, effective 11 JUN 2026",
        "aipSourceUrl": "https://eaip.lvnl.nl/web/eaip/AIRAC%20AMDT%2006-2026_2026_06_11/eAIP/EH-ENR%202.2-en-GB.html",
        "geometryNote": "Published ATS delegation boundary. National-border segments reuse the shared Amsterdam FIR boundary.",
        "id": "EHAADLG30",
        "name": "ABNED Area",
        "lowerLimit": "FL 215",
        "upperLimit": "FL 245",
        "controlUnit": "London AC (Swanwick) / London Control",
        "hours": "H24",
        "lateralLimits": "515710N 0022129E;520027N 0031019E;512850N 0031019E;513813N 0023000E;512720N 0023000E;513000N 0020000E;515710N 0022129E",
        "remarks": "ATS in Amsterdam FIR delegated to the United Kingdom."
      },
      "geometry": {
        "type": "Polygon",
        "coordinates": [
          [
            [
              2.3580555555555556,
              51.95277777777778
            ],
            [
              3.1719444444444442,
              52.0075
            ],
            [
              3.1719444444444442,
              51.480555555555554
            ],
            [
              2.5,
              51.636944444444445
            ],
            [
              2.5,
              51.455555555555556
            ],
            [
              2,
              51.5
            ],
            [
              2.3580555555555556,
              51.95277777777778
            ]
          ]
        ]
      }
    },
    {
      "type": "Feature",
      "properties": {
        "loaPartner": "Special areas",
        "aipSource": "Netherlands AIP ENR 2.2 section 8, AIRAC AMDT 06/2026, effective 11 JUN 2026",
        "aipSourceUrl": "https://eaip.lvnl.nl/web/eaip/AIRAC%20AMDT%2006-2026_2026_06_11/eAIP/EH-ENR%202.2-en-GB.html",
        "geometryNote": "Published ATS delegation boundary. National-border segments reuse the shared Amsterdam FIR boundary.",
        "id": "EBBUDLG4",
        "name": "WOODY Area",
        "lowerLimit": "FL 095",
        "upperLimit": "FL 245",
        "lateralLimits": "512523N 0043208E;512248N 0042533E;border;512523N 0043208E",
        "remarks": "Part of Brussels FIR delegated to the Netherlands. Comprises Brussels CTA North (FL 095–195) and Brussels UTA Two (FL 195–245). See AIP Belgium; the source table does not specify a controlling unit or hours."
      },
      "geometry": {
        "type": "Polygon",
        "coordinates": [
          [
            [
              4.535555555555556,
              51.42305555555555
            ],
            [
              4.425833333333333,
              51.38
            ],
            [
              4.390423174000034,
              51.409731656000076
            ],
            [
              4.384403330000055,
              51.42063511100008
            ],
            [
              4.391536957000028,
              51.42478189000008
            ],
            [
              4.395133649000059,
              51.42687264800003
            ],
            [
              4.397589808000021,
              51.43410273200004
            ],
            [
              4.395901040000069,
              51.440893697000035
            ],
            [
              4.39113554100004,
              51.44397964400008
            ],
            [
              4.385487238000053,
              51.44763726100007
            ],
            [
              4.391183077000051,
              51.451370111000074
            ],
            [
              4.441115803000059,
              51.468206499000075
            ],
            [
              4.457768611000063,
              51.47039838500007
            ],
            [
              4.464163995000035,
              51.47124016200007
            ],
            [
              4.469626755000036,
              51.474222171000065
            ],
            [
              4.476027571000031,
              51.47771624500007
            ],
            [
              4.486697532000051,
              51.47736062900003
            ],
            [
              4.535604708000051,
              51.48214467100007
            ],
            [
              4.548236064000037,
              51.47322858800004
            ],
            [
              4.541655939000066,
              51.46488964100007
            ],
            [
              4.535604708000051,
              51.45686943100003
            ],
            [
              4.534801640000069,
              51.45580505700008
            ],
            [
              4.532992648000061,
              51.45340744600003
            ],
            [
              4.530044452000027,
              51.44950107300008
            ],
            [
              4.531959805000042,
              51.44007255000008
            ],
            [
              4.532481221000069,
              51.43750691000008
            ],
            [
              4.533912117000057,
              51.430462101000046
            ],
            [
              4.535555555555556,
              51.42305555555555
            ]
          ]
        ]
      }
    },
    {
      "type": "Feature",
      "properties": {
        "loaPartner": "Special areas",
        "aipSource": "Netherlands AIP ENR 2.2 section 8, AIRAC AMDT 06/2026, effective 11 JUN 2026",
        "aipSourceUrl": "https://eaip.lvnl.nl/web/eaip/AIRAC%20AMDT%2006-2026_2026_06_11/eAIP/EH-ENR%202.2-en-GB.html",
        "geometryNote": "Published ATS delegation boundary. National-border segments reuse the shared Amsterdam FIR boundary.",
        "id": "EHAADLG48",
        "name": "Delta Area",
        "lowerLimit": "FL 095",
        "upperLimit": "FL 245",
        "lateralLimits": "515746N 0051517E;515855N 0051742E;520004N 0053116E;515622N 0054700E;515002N 0055732E;border;511446N 0060454E;511455N 0055708E;511521N 0053324E;border;512656N 0050537E;512656N 0044635E;515120N 0050158E;515746N 0051517E",
        "remarks": "Published in ENR 2.2 section 8.1 (ATS delegation to adjacent states). The source table does not specify a controlling unit, hours or airspace class."
      },
      "geometry": {
        "type": "Polygon",
        "coordinates": [
          [
            [
              5.254722222222222,
              51.96277777777778
            ],
            [
              5.295,
              51.981944444444444
            ],
            [
              5.521111111111111,
              52.00111111111111
            ],
            [
              5.783333333333333,
              51.93944444444444
            ],
            [
              5.958888888888889,
              51.83388888888889
            ],
            [
              5.9483469,
              51.8256946
            ],
            [
              5.954068,
              51.817928
            ],
            [
              5.9484872,
              51.8153353
            ],
            [
              5.9486009,
              51.8129894
            ],
            [
              5.9599393,
              51.8068216
            ],
            [
              5.9742856,
              51.7990176
            ],
            [
              5.9746214,
              51.7878452
            ],
            [
              5.984678,
              51.7833131
            ],
            [
              5.9841316,
              51.7749609
            ],
            [
              5.9895407,
              51.7685585
            ],
            [
              5.953192,
              51.7478461
            ],
            [
              5.9531237,
              51.742089
            ],
            [
              5.956318,
              51.7385646
            ],
            [
              5.977455,
              51.7383008
            ],
            [
              5.9937475,
              51.7380974
            ],
            [
              6.0322917,
              51.7238599
            ],
            [
              6.0408972,
              51.7163648
            ],
            [
              6.03128,
              51.7101666
            ],
            [
              6.0275496,
              51.7077624
            ],
            [
              6.0319697,
              51.6761794
            ],
            [
              6.0689465,
              51.6647523
            ],
            [
              6.0950667,
              51.6600464
            ],
            [
              6.1167945,
              51.6561319
            ],
            [
              6.1064403,
              51.6369874
            ],
            [
              6.0997215,
              51.6245646
            ],
            [
              6.0944868,
              51.6209846
            ],
            [
              6.0943433,
              51.6161646
            ],
            [
              6.0927705,
              51.6054348
            ],
            [
              6.1058801,
              51.5993974
            ],
            [
              6.1207611,
              51.5925441
            ],
            [
              6.1276196,
              51.5851149
            ],
            [
              6.1323656,
              51.579974
            ],
            [
              6.149543,
              51.5707116
            ],
            [
              6.1570226,
              51.5666785
            ],
            [
              6.1608076,
              51.5614785
            ],
            [
              6.1770714,
              51.5391349
            ],
            [
              6.1924539,
              51.5309783
            ],
            [
              6.2007421,
              51.5265835
            ],
            [
              6.2113151,
              51.5145313
            ],
            [
              6.2134229,
              51.5078415
            ],
            [
              6.2134646,
              51.5015403
            ],
            [
              6.2135318,
              51.491382
            ],
            [
              6.2176083,
              51.486078
            ],
            [
              6.2192273,
              51.4839715
            ],
            [
              6.2232648,
              51.4729006
            ],
            [
              6.2202619,
              51.4488591
            ],
            [
              6.2174137,
              51.4469816
            ],
            [
              6.2143308,
              51.4449495
            ],
            [
              6.2144639,
              51.4341619
            ],
            [
              6.2144743,
              51.433318
            ],
            [
              6.2130263,
              51.427914
            ],
            [
              6.2058754,
              51.4012267
            ],
            [
              6.2173518,
              51.4003389
            ],
            [
              6.2252307,
              51.3997295
            ],
            [
              6.2219658,
              51.3957825
            ],
            [
              6.2153824,
              51.3878237
            ],
            [
              6.224405,
              51.364979
            ],
            [
              6.2243939,
              51.3596713
            ],
            [
              6.1920918,
              51.3405868
            ],
            [
              6.1918311,
              51.3352524
            ],
            [
              6.174702,
              51.3328112
            ],
            [
              6.170006,
              51.3321419
            ],
            [
              6.1604325,
              51.3206342
            ],
            [
              6.1587251,
              51.3170699
            ],
            [
              6.1540799,
              51.3073729
            ],
            [
              6.1397816,
              51.2949469
            ],
            [
              6.1306502,
              51.2870111
            ],
            [
              6.1248002,
              51.2775924
            ],
            [
              6.124783,
              51.2774309
            ],
            [
              6.124481,
              51.2745849
            ],
            [
              6.1217061,
              51.2726755
            ],
            [
              6.1196415,
              51.271255
            ],
            [
              6.0929898,
              51.2529136
            ],
            [
              6.0902619,
              51.2510665
            ],
            [
              6.088385,
              51.2497954
            ],
            [
              6.0850013,
              51.2473939
            ],
            [
              6.081666666666666,
              51.24611111111111
            ],
            [
              5.952222222222223,
              51.24861111111111
            ],
            [
              5.556666666666667,
              51.255833333333335
            ],
            [
              5.556669157000044,
              51.265128735000076
            ],
            [
              5.539176901000076,
              51.27603341000008
            ],
            [
              5.523077389000036,
              51.28606984700008
            ],
            [
              5.520148881000068,
              51.28977637000003
            ],
            [
              5.515765233000025,
              51.29532461900004
            ],
            [
              5.484878348000052,
              51.30005358300008
            ],
            [
              5.478616615000021,
              51.29529678000006
            ],
            [
              5.465571274000069,
              51.28538672500008
            ],
            [
              5.45353766900007,
              51.28360736800005
            ],
            [
              5.443318249000072,
              51.28209626700004
            ],
            [
              5.438905729000055,
              51.27678735400008
            ],
            [
              5.438299550000067,
              51.27605803100005
            ],
            [
              5.436876385000062,
              51.27584146800007
            ],
            [
              5.432269617000031,
              51.27514045400005
            ],
            [
              5.428662604000067,
              51.27201298600005
            ],
            [
              5.417375001000039,
              51.26222604900005
            ],
            [
              5.348088639000025,
              51.27524956900004
            ],
            [
              5.342270392000046,
              51.26624218400008
            ],
            [
              5.336000114000058,
              51.263452037000036
            ],
            [
              5.295439695000027,
              51.261790648000044
            ],
            [
              5.263516742000036,
              51.26660095900007
            ],
            [
              5.237716348000049,
              51.26160036400006
            ],
            [
              5.22682465500003,
              51.269439797000075
            ],
            [
              5.230605467000032,
              51.27903475000005
            ],
            [
              5.241098058000034,
              51.30566287600004
            ],
            [
              5.200244843000064,
              51.32261960500006
            ],
            [
              5.174322278000034,
              51.31447249400003
            ],
            [
              5.162679369000045,
              51.31081328600004
            ],
            [
              5.13446456500003,
              51.31549060100008
            ],
            [
              5.132513399000061,
              51.333728561000044
            ],
            [
              5.131070070000021,
              51.34721966600006
            ],
            [
              5.115002737000054,
              51.36224515200007
            ],
            [
              5.084907839000039,
              51.38358911900008
            ],
            [
              5.071045140000024,
              51.39342085200008
            ],
            [
              5.072981970000058,
              51.39563808500003
            ],
            [
              5.076795196000035,
              51.40000149600007
            ],
            [
              5.084294791000048,
              51.40917536000006
            ],
            [
              5.088430656000071,
              51.41423398500007
            ],
            [
              5.091770912000072,
              51.41807765400006
            ],
            [
              5.093627831000049,
              51.42021458200003
            ],
            [
              5.094868940000026,
              51.42164257100006
            ],
            [
              5.096069095000075,
              51.42302286700004
            ],
            [
              5.102137094000057,
              51.42895604100005
            ],
            [
              5.093611111111111,
              51.44888888888889
            ],
            [
              4.776388888888889,
              51.44888888888889
            ],
            [
              5.032777777777778,
              51.855555555555554
            ],
            [
              5.254722222222222,
              51.96277777777778
            ]
          ]
        ]
      }
    }
  ]
}
