{
  "type": "FeatureCollection",
  "name": "KLEINE-BROGEL TMA ONE",
  "features": [
    {
      "type": "Feature",
      "properties": {
        "id": "KLEINE-BROGEL-TMA-1",
        "name": "KLEINE-BROGEL TMA ONE",
        "category": "Military",
        "lowerLimit": "2500FT AMSL",
        "upperLimit": "4500FT AMSL",
        "airspaceClass": "C",
        "controlUnit": "Kleine-Brogel APP",
        "hours": "See EBBL AD 2.3",
        "remarks": "Outside EBBL OPR HR, airspace is not active. Activation can be checked with Steenokkerzeel ATCC or Brussels FIC. As EBBL may be re-activated at any time, pilots are advised to avoid crossing whenever possible. Aircraft shall maintain a listening watch with Kleine-Brogel TWR when EBR07B is activated. Upon activation of Kleine-Brogel TMA ONE, aircraft shall comply promptly with instructions from Kleine-Brogel APP. Upper limit can be raised to FL075 outside Steenokkerzeel ATCC OPR HR (see NOTAM).",
        "lateralLimits": "510251N 0045955E - 510634N 0045955E - 511551N 0051647E - along the Belgian-Dutch border - 510805N 0055036E - 510607N 0053455E - 510723N 0053455E - 510557N 0052255E - 510452N 0051951E - 505929N 0051951E - 510057N 0051655E - 510251N 0045955E.",
        "aipSource": "Belgium & Luxembourg AIP ENR 2.1, edition effective 03-SEP-2026",
        "aipSourceUrl": "https://ops.skeyes.be/html/belgocontrol_static/eaip/eAIP_Main/html/eAIP/EB-ENR-2.1-en-GB.html",
        "effectiveDate": "2026-09-03",
        "geometryNote": "Published AIP endpoints retained exactly; geodesic arcs sampled at maximum one degree. Border sections reuse the detailed Brussels UIR boundary. Conditional exclusions and vertical limits are described in remarks; activation is not evaluated live."
      },
      "geometry": {
        "type": "Polygon",
        "coordinates": [
          [
            [
              4.998611111111111,
              51.0475
            ],
            [
              5.281944444444444,
              51.01583333333333
            ],
            [
              5.3308333333333335,
              50.99138888888889
            ],
            [
              5.3308333333333335,
              51.08111111111111
            ],
            [
              5.381944444444444,
              51.09916666666667
            ],
            [
              5.581944444444444,
              51.12305555555555
            ],
            [
              5.581944444444444,
              51.10194444444445
            ],
            [
              5.843333333333333,
              51.13472222222222
            ],
            [
              5.845420678000039,
              51.13903632500006
            ],
            [
              5.846288430000072,
              51.14034610700003
            ],
            [
              5.850472762000038,
              51.14255128500008
            ],
            [
              5.854312384000025,
              51.144574798000065
            ],
            [
              5.840504422000038,
              51.15203620200003
            ],
            [
              5.838426249000065,
              51.15315918400006
            ],
            [
              5.838166146000049,
              51.15426108200006
            ],
            [
              5.837530919000073,
              51.15695214800007
            ],
            [
              5.826551128000062,
              51.16672219800006
            ],
            [
              5.821839531000023,
              51.16616417800003
            ],
            [
              5.814864628000066,
              51.16008760500006
            ],
            [
              5.814504298000031,
              51.15977368400007
            ],
            [
              5.813871401000029,
              51.15992862200005
            ],
            [
              5.805021088000046,
              51.16209523800006
            ],
            [
              5.788210063000065,
              51.155821066000044
            ],
            [
              5.778261680000071,
              51.15210815300003
            ],
            [
              5.775879082000074,
              51.15506288600005
            ],
            [
              5.778222468000024,
              51.16167743200003
            ],
            [
              5.778739438000059,
              51.16313665300004
            ],
            [
              5.777408441000034,
              51.16373839100004
            ],
            [
              5.769853978000071,
              51.16715372900006
            ],
            [
              5.774750686000061,
              51.170467304000056
            ],
            [
              5.77545064100002,
              51.17094096000005
            ],
            [
              5.775388295000027,
              51.17876015100006
            ],
            [
              5.745651094000038,
              51.18947197700004
            ],
            [
              5.733198930000071,
              51.18656862800003
            ],
            [
              5.71004967500005,
              51.18117114200004
            ],
            [
              5.688936011000067,
              51.18499722300004
            ],
            [
              5.658263781000073,
              51.18475949200007
            ],
            [
              5.651352744000064,
              51.19253095000005
            ],
            [
              5.651935920000028,
              51.194034110000075
            ],
            [
              5.653097358000025,
              51.19702776500003
            ],
            [
              5.566283615000032,
              51.220836500000075
            ],
            [
              5.560063487000036,
              51.22287434700007
            ],
            [
              5.555609869000023,
              51.24377622900005
            ],
            [
              5.556271699000035,
              51.25711701700004
            ],
            [
              5.556669157000044,
              51.265128735000076
            ],
            [
              5.539176901000076,
              51.27603341000008
            ],
            [
              5.523077389000036,
              51.28606984700008
            ],
            [
              5.520148881000068,
              51.28977637000003
            ],
            [
              5.515765233000025,
              51.29532461900004
            ],
            [
              5.484878348000052,
              51.30005358300008
            ],
            [
              5.478616615000021,
              51.29529678000006
            ],
            [
              5.465571274000069,
              51.28538672500008
            ],
            [
              5.45353766900007,
              51.28360736800005
            ],
            [
              5.443318249000072,
              51.28209626700004
            ],
            [
              5.438905729000055,
              51.27678735400008
            ],
            [
              5.438299550000067,
              51.27605803100005
            ],
            [
              5.436876385000062,
              51.27584146800007
            ],
            [
              5.432269617000031,
              51.27514045400005
            ],
            [
              5.428662604000067,
              51.27201298600005
            ],
            [
              5.417375001000039,
              51.26222604900005
            ],
            [
              5.348088639000025,
              51.27524956900004
            ],
            [
              5.342270392000046,
              51.26624218400008
            ],
            [
              5.336000114000058,
              51.263452037000036
            ],
            [
              5.279722222222222,
              51.26416666666667
            ],
            [
              4.998611111111111,
              51.10944444444445
            ],
            [
              4.998611111111111,
              51.0475
            ]
          ]
        ]
      }
    }
  ]
}
