{
  "type": "FeatureCollection",
  "name": "LIEGE TMA ONE",
  "features": [
    {
      "type": "Feature",
      "properties": {
        "name": "LIEGE TMA ONE",
        "upperLimit": "FL055",
        "lowerLimit": "2500FT AMSL",
        "airspaceClass": "C",
        "aipSource": "Belgium AIP ENR 2.1, AMDT 012/2025, effective 27-NOV-2025",
        "aipPage": "ENR 2.1-13",
        "geometryNote": "Published endpoints retained exactly; circle arcs sampled at maximum 1 degree; international-border segments use Eurostat/GISCO Countries 2024 CNTR_BN_01M."
      },
      "geometry": {
        "type": "Polygon",
        "coordinates": [
          [
            [
              5.11694444,
              50.51694444
            ],
            [
              5.06888889,
              50.63722222
            ],
            [
              5.33138889,
              50.80472222
            ],
            [
              5.4925,
              50.86388889
            ],
            [
              5.56888889,
              50.87305556
            ],
            [
              5.64833333,
              50.83333333
            ],
            [
              5.64916667,
              50.82638889
            ],
            [
              5.6375,
              50.81416667
            ],
            [
              5.74611111,
              50.76972222
            ],
            [
              5.80666667,
              50.75527778
            ],
            [
              5.89,
              50.75083333
            ],
            [
              5.81666667,
              50.65472222
            ],
            [
              5.39638889,
              50.40722222
            ],
            [
              5.39405181,
              50.4060645
            ],
            [
              5.39183784,
              50.40482302
            ],
            [
              5.38959051,
              50.40360618
            ],
            [
              5.38731048,
              50.40241434
            ],
            [
              5.38499845,
              50.40124787
            ],
            [
              5.38265512,
              50.40010711
            ],
            [
              5.38028118,
              50.3989924
            ],
            [
              5.37787734,
              50.39790408
            ],
            [
              5.37544435,
              50.39684247
            ],
            [
              5.37298291,
              50.3958079
            ],
            [
              5.37049378,
              50.39480067
            ],
            [
              5.3679777,
              50.39382108
            ],
            [
              5.36543543,
              50.39286944
            ],
            [
              5.36286772,
              50.39194601
            ],
            [
              5.36027536,
              50.39105109
            ],
            [
              5.35765911,
              50.39018493
            ],
            [
              5.35501977,
              50.3893478
            ],
            [
              5.35235812,
              50.38853995
            ],
            [
              5.34967497,
              50.38776162
            ],
            [
              5.34697111,
              50.38701304
            ],
            [
              5.34424736,
              50.38629444
            ],
            [
              5.34150454,
              50.38560603
            ],
            [
              5.33874347,
              50.38494802
            ],
            [
              5.33596497,
              50.38432061
            ],
            [
              5.33316988,
              50.38372398
            ],
            [
              5.33035904,
              50.38315831
            ],
            [
              5.32753328,
              50.38262377
            ],
            [
              5.32469346,
              50.38212053
            ],
            [
              5.32184042,
              50.38164873
            ],
            [
              5.31897502,
              50.38120851
            ],
            [
              5.31609812,
              50.38080001
            ],
            [
              5.31321058,
              50.38042334
            ],
            [
              5.31031326,
              50.38007863
            ],
            [
              5.30740704,
              50.37976597
            ],
            [
              5.30449277,
              50.37948546
            ],
            [
              5.30157134,
              50.37923717
            ],
            [
              5.29864362,
              50.3790212
            ],
            [
              5.29571049,
              50.37883759
            ],
            [
              5.29277282,
              50.37868641
            ],
            [
              5.28983149,
              50.3785677
            ],
            [
              5.28688738,
              50.3784815
            ],
            [
              5.28394138,
              50.37842783
            ],
            [
              5.28099437,
              50.3784067
            ],
            [
              5.27804722,
              50.37841813
            ],
            [
              5.27510083,
              50.37846211
            ],
            [
              5.27215607,
              50.37853863
            ],
            [
              5.26921382,
              50.37864767
            ],
            [
              5.26627497,
              50.37878918
            ],
            [
              5.26334039,
              50.37896314
            ],
            [
              5.26041097,
              50.37916948
            ],
            [
              5.25748757,
              50.37940815
            ],
            [
              5.25457108,
              50.37967907
            ],
            [
              5.25166237,
              50.37998217
            ],
            [
              5.24876231,
              50.38031735
            ],
            [
              5.24587177,
              50.38068451
            ],
            [
              5.24299161,
              50.38108355
            ],
            [
              5.2401227,
              50.38151433
            ],
            [
              5.23726589,
              50.38197674
            ],
            [
              5.23442204,
              50.38247064
            ],
            [
              5.23159201,
              50.38299587
            ],
            [
              5.22877664,
              50.38355229
            ],
            [
              5.22597677,
              50.38413972
            ],
            [
              5.22319324,
              50.38475798
            ],
            [
              5.22042689,
              50.3854069
            ],
            [
              5.21767855,
              50.38608628
            ],
            [
              5.21494903,
              50.38679591
            ],
            [
              5.21223917,
              50.38753559
            ],
            [
              5.20954977,
              50.38830508
            ],
            [
              5.20688163,
              50.38910417
            ],
            [
              5.20423556,
              50.38993261
            ],
            [
              5.20161236,
              50.39079015
            ],
            [
              5.1990128,
              50.39167653
            ],
            [
              5.19643767,
              50.3925915
            ],
            [
              5.19388775,
              50.39353477
            ],
            [
              5.19136379,
              50.39450607
            ],
            [
              5.18886655,
              50.3955051
            ],
            [
              5.18639679,
              50.39653156
            ],
            [
              5.18395525,
              50.39758515
            ],
            [
              5.18154266,
              50.39866555
            ],
            [
              5.17915974,
              50.39977243
            ],
            [
              5.17680722,
              50.40090547
            ],
            [
              5.17448579,
              50.40206432
            ],
            [
              5.17219617,
              50.40324865
            ],
            [
              5.16993902,
              50.40445808
            ],
            [
              5.16771505,
              50.40569226
            ],
            [
              5.16552491,
              50.40695083
            ],
            [
              5.16336926,
              50.40823339
            ],
            [
              5.16124876,
              50.40953958
            ],
            [
              5.15916404,
              50.41086899
            ],
            [
              5.15711573,
              50.41222122
            ],
            [
              5.15510445,
              50.41359588
            ],
            [
              5.15313081,
              50.41499255
            ],
            [
              5.15119539,
              50.41641081
            ],
            [
              5.14929879,
              50.41785023
            ],
            [
              5.14744158,
              50.41931038
            ],
            [
              5.14562432,
              50.42079083
            ],
            [
              5.14384755,
              50.42229113
            ],
            [
              5.14211182,
              50.42381083
            ],
            [
              5.14041765,
              50.42534948
            ],
            [
              5.13876555,
              50.4269066
            ],
            [
              5.13715602,
              50.42848174
            ],
            [
              5.13558955,
              50.43007442
            ],
            [
              5.13406662,
              50.43168417
            ],
            [
              5.13258769,
              50.43331049
            ],
            [
              5.1311532,
              50.43495291
            ],
            [
              5.12976359,
              50.43661092
            ],
            [
              5.12841928,
              50.43828403
            ],
            [
              5.12712069,
              50.43997174
            ],
            [
              5.1258682,
              50.44167354
            ],
            [
              5.12466221,
              50.44338892
            ],
            [
              5.12350306,
              50.44511736
            ],
            [
              5.12239113,
              50.44685835
            ],
            [
              5.12132675,
              50.44861135
            ],
            [
              5.12031024,
              50.45037585
            ],
            [
              5.11934192,
              50.45215131
            ],
            [
              5.11842208,
              50.4539372
            ],
            [
              5.117551,
              50.45573298
            ],
            [
              5.11672895,
              50.45753811
            ],
            [
              5.11595619,
              50.45935205
            ],
            [
              5.11523295,
              50.46117426
            ],
            [
              5.11455946,
              50.46300417
            ],
            [
              5.11393592,
              50.46484125
            ],
            [
              5.11336253,
              50.46668495
            ],
            [
              5.11283947,
              50.46853469
            ],
            [
              5.1123669,
              50.47038994
            ],
            [
              5.11194496,
              50.47225013
            ],
            [
              5.1115738,
              50.47411469
            ],
            [
              5.11125352,
              50.47598308
            ],
            [
              5.11098424,
              50.47785472
            ],
            [
              5.11076604,
              50.47972906
            ],
            [
              5.11059898,
              50.48160552
            ],
            [
              5.11048314,
              50.48348354
            ],
            [
              5.11041854,
              50.48536257
            ],
            [
              5.11040521,
              50.48724202
            ],
            [
              5.11044317,
              50.48912133
            ],
            [
              5.1105324,
              50.49099995
            ],
            [
              5.1106729,
              50.49287729
            ],
            [
              5.11086461,
              50.4947528
            ],
            [
              5.11110749,
              50.49662591
            ],
            [
              5.11140148,
              50.49849606
            ],
            [
              5.11174649,
              50.50036267
            ],
            [
              5.11214241,
              50.50222519
            ],
            [
              5.11258915,
              50.50408306
            ],
            [
              5.11308656,
              50.50593572
            ],
            [
              5.11363451,
              50.5077826
            ],
            [
              5.11423284,
              50.50962315
            ],
            [
              5.11488137,
              50.51145681
            ],
            [
              5.11557991,
              50.51328303
            ],
            [
              5.11632825,
              50.51510126
            ],
            [
              5.11694444,
              50.51694444
            ]
          ]
        ]
      }
    }
  ]
}
