{
  "type": "FeatureCollection",
  "name": "LIEGE TMA FIVE",
  "features": [
    {
      "type": "Feature",
      "properties": {
        "name": "LIEGE TMA FIVE",
        "upperLimit": "FL055",
        "lowerLimit": "3500FT AMSL",
        "airspaceClass": "C",
        "aipSource": "Belgium AIP ENR 2.1, AMDT 012/2025, effective 27-NOV-2025",
        "aipPage": "ENR 2.1-14",
        "geometryNote": "Published endpoints retained exactly; circle arcs sampled at maximum 1 degree; international-border segments use Eurostat/GISCO Countries 2024 CNTR_BN_01M."
      },
      "geometry": {
        "type": "Polygon",
        "coordinates": [
          [
            [
              5.99888889,
              50.51166667
            ],
            [
              5.99888889,
              50.75361111
            ],
            [
              6.02111111,
              50.75416667
            ],
            [
              6.039646357000038,
              50.74501864000007
            ],
            [
              6.039496290000045,
              50.73808770000005
            ],
            [
              6.03754826100004,
              50.73518833400004
            ],
            [
              6.034046935000049,
              50.729977104000056
            ],
            [
              6.03760972200007,
              50.72015266600005
            ],
            [
              6.041566229000068,
              50.71998137400004
            ],
            [
              6.043281085000046,
              50.72332637900007
            ],
            [
              6.045508330000075,
              50.72767085300006
            ],
            [
              6.059505351000041,
              50.72403340900007
            ],
            [
              6.070196911000039,
              50.72184834600006
            ],
            [
              6.073943427000074,
              50.721082661000025
            ],
            [
              6.08185852400004,
              50.72120797000008
            ],
            [
              6.115459986000076,
              50.72173993900003
            ],
            [
              6.123536857000033,
              50.712134881000054
            ],
            [
              6.123869748000061,
              50.710113868000064
            ],
            [
              6.124498624000069,
              50.706295898000064
            ],
            [
              6.142487639000024,
              50.68921278100004
            ],
            [
              6.145310026000061,
              50.68081244900003
            ],
            [
              6.15939922900003,
              50.67242606100007
            ],
            [
              6.161074812000038,
              50.67142869500003
            ],
            [
              6.16446271600006,
              50.667054980000046
            ],
            [
              6.171834617000059,
              50.65753800600004
            ],
            [
              6.175991729000032,
              50.654825609000056
            ],
            [
              6.183924450000063,
              50.649649734000036
            ],
            [
              6.194652939000036,
              50.65731669200005
            ],
            [
              6.193239971000025,
              50.66407763500007
            ],
            [
              6.196042874000057,
              50.65949769200006
            ],
            [
              6.194727846000035,
              50.65578515200008
            ],
            [
              6.180869066000071,
              50.64561078400004
            ],
            [
              6.174635624000075,
              50.64439856700005
            ],
            [
              6.169253601000037,
              50.64335192600004
            ],
            [
              6.177036655000052,
              50.63669407500004
            ],
            [
              6.182057058000055,
              50.63239947500006
            ],
            [
              6.181460784000024,
              50.63166768600007
            ],
            [
              6.176888167000072,
              50.626055852000036
            ],
            [
              6.183512911000037,
              50.624753174000034
            ],
            [
              6.187906890000022,
              50.62801666300004
            ],
            [
              6.19489147400003,
              50.633204241000044
            ],
            [
              6.217282573000034,
              50.63188039100004
            ],
            [
              6.234283864000076,
              50.62630712300006
            ],
            [
              6.235452663000046,
              50.625923974000045
            ],
            [
              6.238866174000066,
              50.62613821100007
            ],
            [
              6.251808832000052,
              50.62695051000003
            ],
            [
              6.261820539000041,
              50.62820085800007
            ],
            [
              6.268511766000074,
              50.62542629100005
            ],
            [
              6.268388539000057,
              50.61892981200003
            ],
            [
              6.261715729000059,
              50.61161446500006
            ],
            [
              6.250849663000054,
              50.60526080200003
            ],
            [
              6.249047965000045,
              50.60420730300007
            ],
            [
              6.248920115000033,
              50.602545795000026
            ],
            [
              6.248511032000067,
              50.597229465000055
            ],
            [
              6.241068141000028,
              50.58827215500003
            ],
            [
              6.236313879000022,
              50.58881992200003
            ],
            [
              6.226030132000062,
              50.59000477300003
            ],
            [
              6.209717311000077,
              50.57596012100004
            ],
            [
              6.201646140000037,
              50.569011182000054
            ],
            [
              6.189312373000064,
              50.56609405700004
            ],
            [
              6.17416667,
              50.55694444
            ],
            [
              5.99888889,
              50.51166667
            ]
          ]
        ]
      }
    }
  ]
}
