{
  "type": "FeatureCollection",
  "name": "CHARLEROI TMA TWO A",
  "features": [
    {
      "type": "Feature",
      "properties": {
        "name": "CHARLEROI TMA TWO A",
        "upperLimit": "2500FT AMSL",
        "lowerLimit": "2000FT AMSL",
        "airspaceClass": "C",
        "aipSource": "Belgium AIP ENR 2.1, AMDT 012/2025, effective 27-NOV-2025",
        "aipPage": "ENR 2.1-11",
        "geometryNote": "Published endpoints retained exactly; circle arcs sampled at maximum 1 degree; international-border segments use Eurostat/GISCO Countries 2024 CNTR_BN_01M."
      },
      "geometry": {
        "type": "Polygon",
        "coordinates": [
          [
            [
              4.54111111,
              50.5625
            ],
            [
              4.71333333,
              50.58388889
            ],
            [
              4.71581526,
              50.58352745
            ],
            [
              4.71831831,
              50.58338448
            ],
            [
              4.72081704,
              50.5832138
            ],
            [
              4.72331068,
              50.58301545
            ],
            [
              4.72579848,
              50.5827895
            ],
            [
              4.72827969,
              50.58253602
            ],
            [
              4.73075353,
              50.58225507
            ],
            [
              4.73321925,
              50.58194676
            ],
            [
              4.73567612,
              50.58161117
            ],
            [
              4.73812336,
              50.5812484
            ],
            [
              4.74056024,
              50.58085857
            ],
            [
              4.74298602,
              50.58044179
            ],
            [
              4.74539995,
              50.5799982
            ],
            [
              4.7478013,
              50.57952792
            ],
            [
              4.75018933,
              50.5790311
            ],
            [
              4.75256333,
              50.5785079
            ],
            [
              4.75492255,
              50.57795846
            ],
            [
              4.75726629,
              50.57738297
            ],
            [
              4.75959383,
              50.57678159
            ],
            [
              4.76190446,
              50.57615451
            ],
            [
              4.76419747,
              50.57550192
            ],
            [
              4.76647217,
              50.57482402
            ],
            [
              4.76872787,
              50.57412102
            ],
            [
              4.77096387,
              50.57339312
            ],
            [
              4.7731795,
              50.57264056
            ],
            [
              4.77537407,
              50.57186356
            ],
            [
              4.77754694,
              50.57106235
            ],
            [
              4.77969742,
              50.57023719
            ],
            [
              4.78182487,
              50.56938833
            ],
            [
              4.78392863,
              50.56851602
            ],
            [
              4.78600808,
              50.56762053
            ],
            [
              4.78806257,
              50.56670213
            ],
            [
              4.79009149,
              50.5657611
            ],
            [
              4.7920942,
              50.56479774
            ],
            [
              4.79407012,
              50.56381232
            ],
            [
              4.79601862,
              50.56280516
            ],
            [
              4.79793913,
              50.56177657
            ],
            [
              4.79983106,
              50.56072684
            ],
            [
              4.80169384,
              50.55965631
            ],
            [
              4.80352689,
              50.5585653
            ],
            [
              4.80532966,
              50.55745414
            ],
            [
              4.80710161,
              50.55632318
            ],
            [
              4.80884219,
              50.55517275
            ],
            [
              4.81055089,
              50.5540032
            ],
            [
              4.81222717,
              50.5528149
            ],
            [
              4.81387054,
              50.55160821
            ],
            [
              4.8154805,
              50.55038349
            ],
            [
              4.81705655,
              50.54914111
            ],
            [
              4.81859822,
              50.54788145
            ],
            [
              4.82010504,
              50.54660491
            ],
            [
              4.82157656,
              50.54531186
            ],
            [
              4.82301233,
              50.5440027
            ],
            [
              4.82441192,
              50.54267783
            ],
            [
              4.82577491,
              50.54133765
            ],
            [
              4.82710087,
              50.53998257
            ],
            [
              4.82838942,
              50.538613
            ],
            [
              4.82964017,
              50.53722936
            ],
            [
              4.83085273,
              50.53583207
            ],
            [
              4.83202674,
              50.53442156
            ],
            [
              4.83316185,
              50.53299825
            ],
            [
              4.83425771,
              50.53156258
            ],
            [
              4.835314,
              50.53011498
            ],
            [
              4.83633039,
              50.5286559
            ],
            [
              4.83730659,
              50.52718577
            ],
            [
              4.8382423,
              50.52570505
            ],
            [
              4.83913724,
              50.52421419
            ],
            [
              4.84027778,
              50.52277778
            ],
            [
              4.70027778,
              50.49111111
            ],
            [
              4.69974344,
              50.49267143
            ],
            [
              4.69914125,
              50.49422177
            ],
            [
              4.69849662,
              50.4957652
            ],
            [
              4.69780976,
              50.49730124
            ],
            [
              4.69708085,
              50.49882943
            ],
            [
              4.69631013,
              50.5003493
            ],
            [
              4.69549782,
              50.50186038
            ],
            [
              4.69464416,
              50.50336222
            ],
            [
              4.69374942,
              50.50485436
            ],
            [
              4.69281385,
              50.50633635
            ],
            [
              4.69183775,
              50.50780773
            ],
            [
              4.6908214,
              50.50926805
            ],
            [
              4.68976511,
              50.51071688
            ],
            [
              4.6886692,
              50.51215377
            ],
            [
              4.687534,
              50.51357827
            ],
            [
              4.68635985,
              50.51498997
            ],
            [
              4.68514711,
              50.51638842
            ],
            [
              4.68389613,
              50.51777321
            ],
            [
              4.68260731,
              50.5191439
            ],
            [
              4.68128103,
              50.52050009
            ],
            [
              4.67991769,
              50.52184135
            ],
            [
              4.6785177,
              50.52316728
            ],
            [
              4.67708149,
              50.52447748
            ],
            [
              4.67560949,
              50.52577154
            ],
            [
              4.67410215,
              50.52704907
            ],
            [
              4.67255992,
              50.52830968
            ],
            [
              4.67098327,
              50.52955299
            ],
            [
              4.66937269,
              50.53077862
            ],
            [
              4.66772865,
              50.53198619
            ],
            [
              4.66605167,
              50.53317534
            ],
            [
              4.66434224,
              50.53434569
            ],
            [
              4.66260088,
              50.5354969
            ],
            [
              4.66082813,
              50.53662862
            ],
            [
              4.65902453,
              50.53774049
            ],
            [
              4.65719062,
              50.53883218
            ],
            [
              4.65532696,
              50.53990336
            ],
            [
              4.65343412,
              50.5409537
            ],
            [
              4.65151266,
              50.54198287
            ],
            [
              4.64956319,
              50.54299057
            ],
            [
              4.64758629,
              50.54397649
            ],
            [
              4.64558256,
              50.54494032
            ],
            [
              4.64355262,
              50.54588177
            ],
            [
              4.64149707,
              50.54680056
            ],
            [
              4.63941656,
              50.5476964
            ],
            [
              4.6373117,
              50.54856901
            ],
            [
              4.63518315,
              50.54941814
            ],
            [
              4.63303155,
              50.55024353
            ],
            [
              4.63085756,
              50.55104491
            ],
            [
              4.62866184,
              50.55182205
            ],
            [
              4.62644506,
              50.55257472
            ],
            [
              4.62420789,
              50.55330267
            ],
            [
              4.62195103,
              50.55400568
            ],
            [
              4.61967515,
              50.55468355
            ],
            [
              4.61738096,
              50.55533607
            ],
            [
              4.61506915,
              50.55596303
            ],
            [
              4.61274043,
              50.55656424
            ],
            [
              4.6103955,
              50.55713953
            ],
            [
              4.60803509,
              50.55768871
            ],
            [
              4.60565992,
              50.55821162
            ],
            [
              4.60327071,
              50.55870809
            ],
            [
              4.60086819,
              50.55917798
            ],
            [
              4.5984531,
              50.55962114
            ],
            [
              4.59602616,
              50.56003744
            ],
            [
              4.59358814,
              50.56042674
            ],
            [
              4.59113976,
              50.56078894
            ],
            [
              4.58868178,
              50.56112391
            ],
            [
              4.58621494,
              50.56143156
            ],
            [
              4.58374001,
              50.5617118
            ],
            [
              4.58125774,
              50.56196453
            ],
            [
              4.57876888,
              50.56218968
            ],
            [
              4.5762742,
              50.56238718
            ],
            [
              4.57377447,
              50.56255698
            ],
            [
              4.57127043,
              50.56269901
            ],
            [
              4.56876287,
              50.56281324
            ],
            [
              4.56625254,
              50.56289963
            ],
            [
              4.56374022,
              50.56295815
            ],
            [
              4.56122667,
              50.56298879
            ],
            [
              4.55871266,
              50.56299153
            ],
            [
              4.55619896,
              50.56296639
            ],
            [
              4.55368633,
              50.56291335
            ],
            [
              4.55117555,
              50.56283245
            ],
            [
              4.54866738,
              50.5627237
            ],
            [
              4.54616259,
              50.56258713
            ],
            [
              4.54366195,
              50.5624228
            ],
            [
              4.54111111,
              50.5625
            ]
          ]
        ]
      }
    }
  ]
}
