{
  "type": "FeatureCollection",
  "name": "BRUSSELS TMA EIGHT",
  "features": [
    {
      "type": "Feature",
      "properties": {
        "name": "BRUSSELS TMA EIGHT",
        "upperLimit": "4500FT AMSL",
        "lowerLimit": "3500FT AMSL",
        "airspaceClass": "C",
        "aipSource": "Belgium AIP ENR 2.1, AMDT 012/2025, effective 27-NOV-2025",
        "aipPage": "ENR 2.1-10",
        "geometryNote": "Circle arcs sampled at maximum 1 degree; published endpoints retained exactly."
      },
      "geometry": {
        "type": "Polygon",
        "coordinates": [
          [
            [
              4.63361111,
              50.68
            ],
            [
              4.90694444,
              50.89583333
            ],
            [
              5.12,
              50.85194444
            ],
            [
              5.11016941,
              50.84234728
            ],
            [
              5.1011996,
              50.83246125
            ],
            [
              5.09196725,
              50.82267282
            ],
            [
              5.08247517,
              50.81298479
            ],
            [
              5.07272623,
              50.80339992
            ],
            [
              5.06272337,
              50.79392097
            ],
            [
              5.05246961,
              50.78455063
            ],
            [
              5.04196802,
              50.77529158
            ],
            [
              5.03122174,
              50.76614647
            ],
            [
              5.02023397,
              50.75711789
            ],
            [
              5.00900799,
              50.74820842
            ],
            [
              4.99754712,
              50.7394206
            ],
            [
              4.98585476,
              50.73075693
            ],
            [
              4.97393435,
              50.72221987
            ],
            [
              4.96178942,
              50.71381186
            ],
            [
              4.94942353,
              50.70553527
            ],
            [
              4.93684031,
              50.69739247
            ],
            [
              4.92404343,
              50.68938576
            ],
            [
              4.91103665,
              50.68151741
            ],
            [
              4.89782375,
              50.67378965
            ],
            [
              4.88440857,
              50.66620468
            ],
            [
              4.87079501,
              50.65876464
            ],
            [
              4.85698702,
              50.65147165
            ],
            [
              4.84298859,
              50.64432776
            ],
            [
              4.83027778,
              50.63611111
            ],
            [
              4.63361111,
              50.68
            ]
          ]
        ]
      }
    }
  ]
}
