{
  "type": "FeatureCollection",
  "name": "BRUSSELS TMA TWO",
  "features": [
    {
      "type": "Feature",
      "properties": {
        "name": "BRUSSELS TMA TWO",
        "upperLimit": "FL195",
        "lowerLimit": "2500FT AMSL",
        "airspaceClass": "C",
        "aipSource": "Belgium AIP ENR 2.1, AMDT 012/2025, effective 27-NOV-2025",
        "aipPage": "ENR 2.1-8",
        "geometryNote": "Circle arcs sampled at maximum 1 degree; published endpoints retained exactly."
      },
      "geometry": {
        "type": "Polygon",
        "coordinates": [
          [
            [
              3.73611111,
              50.51638889
            ],
            [
              3.6025,
              50.67
            ],
            [
              4.01555556,
              51.24444444
            ],
            [
              4.020708565000064,
              51.24405865300008
            ],
            [
              4.025755961000073,
              51.242061801000034
            ],
            [
              4.034843224000042,
              51.24460022300008
            ],
            [
              4.03566457200003,
              51.24482965700008
            ],
            [
              4.03602617100006,
              51.24464554700006
            ],
            [
              4.041521945000056,
              51.24184735100005
            ],
            [
              4.052782335000074,
              51.24274988800005
            ],
            [
              4.071155739000062,
              51.25002645300003
            ],
            [
              4.165675408000027,
              51.292692266000074
            ],
            [
              4.206818699000053,
              51.32574285800007
            ],
            [
              4.231869623000023,
              51.34588393100006
            ],
            [
              4.24194444,
              51.35388889
            ],
            [
              4.42277778,
              51.29055556
            ],
            [
              4.50305556,
              51.30194444
            ],
            [
              4.55694444,
              51.30972222
            ],
            [
              4.79611111,
              51.16805556
            ],
            [
              4.10583333,
              51.03527778
            ],
            [
              3.87527778,
              50.64777778
            ],
            [
              4.07083333,
              50.67666667
            ],
            [
              4.0729946,
              50.6755868
            ],
            [
              4.07526492,
              50.67461641
            ],
            [
              4.07750821,
              50.67362114
            ],
            [
              4.0797238,
              50.67260129
            ],
            [
              4.08191101,
              50.67155717
            ],
            [
              4.08406918,
              50.6704891
            ],
            [
              4.08619767,
              50.6693974
            ],
            [
              4.08829582,
              50.6682824
            ],
            [
              4.090363,
              50.66714444
            ],
            [
              4.0923986,
              50.66598386
            ],
            [
              4.094402,
              50.66480102
            ],
            [
              4.09637258,
              50.66359627
            ],
            [
              4.09830976,
              50.66236998
            ],
            [
              4.10021296,
              50.66112252
            ],
            [
              4.10208159,
              50.65985427
            ],
            [
              4.1039151,
              50.65856561
            ],
            [
              4.10571293,
              50.65725693
            ],
            [
              4.10747454,
              50.65592864
            ],
            [
              4.10919941,
              50.65458112
            ],
            [
              4.11088701,
              50.65321479
            ],
            [
              4.11253683,
              50.65183007
            ],
            [
              4.11414839,
              50.65042737
            ],
            [
              4.11572118,
              50.64900711
            ],
            [
              4.11725475,
              50.64756973
            ],
            [
              4.11874863,
              50.64611566
            ],
            [
              4.12020237,
              50.64464535
            ],
            [
              4.12161555,
              50.64315923
            ],
            [
              4.12298772,
              50.64165775
            ],
            [
              4.12431848,
              50.64014138
            ],
            [
              4.12560744,
              50.63861057
            ],
            [
              4.12685421,
              50.63706578
            ],
            [
              4.12805841,
              50.63550747
            ],
            [
              4.12921969,
              50.63393613
            ],
            [
              4.1303377,
              50.63235222
            ],
            [
              4.1314121,
              50.63075623
            ],
            [
              4.13244257,
              50.62914864
            ],
            [
              4.13342881,
              50.62752993
            ],
            [
              4.13437053,
              50.62590059
            ],
            [
              4.13526743,
              50.62426111
            ],
            [
              4.13611927,
              50.622612
            ],
            [
              4.13692578,
              50.62095374
            ],
            [
              4.13768673,
              50.61928685
            ],
            [
              4.13840188,
              50.61761181
            ],
            [
              4.13907104,
              50.61592915
            ],
            [
              4.139694,
              50.61423936
            ],
            [
              4.14027058,
              50.61254297
            ],
            [
              4.14080061,
              50.61084047
            ],
            [
              4.14128393,
              50.60913238
            ],
            [
              4.14172041,
              50.60741923
            ],
            [
              4.14210992,
              50.60570152
            ],
            [
              4.14245234,
              50.60397978
            ],
            [
              4.14274758,
              50.60225452
            ],
            [
              4.14299555,
              50.60052627
            ],
            [
              4.14319619,
              50.59879554
            ],
            [
              4.14334943,
              50.59706286
            ],
            [
              4.14345525,
              50.59532876
            ],
            [
              4.1435136,
              50.59359375
            ],
            [
              4.14352448,
              50.59185836
            ],
            [
              4.14348789,
              50.59012311
            ],
            [
              4.14340385,
              50.58838853
            ],
            [
              4.14327239,
              50.58665513
            ],
            [
              4.14309355,
              50.58492345
            ],
            [
              4.14286738,
              50.58319399
            ],
            [
              4.14259398,
              50.58146729
            ],
            [
              4.14227342,
              50.57974387
            ],
            [
              4.1419058,
              50.57802424
            ],
            [
              4.14149124,
              50.57630892
            ],
            [
              4.14102987,
              50.57459843
            ],
            [
              4.14052183,
              50.57289328
            ],
            [
              4.13996729,
              50.57119399
            ],
            [
              4.13936641,
              50.56950107
            ],
            [
              4.13871938,
              50.56781503
            ],
            [
              4.1380264,
              50.56613637
            ],
            [
              4.13728768,
              50.56446561
            ],
            [
              4.13650345,
              50.56280324
            ],
            [
              4.13567396,
              50.56114977
            ],
            [
              4.13479945,
              50.55950569
            ],
            [
              4.13388019,
              50.5578715
            ],
            [
              4.13291647,
              50.55624769
            ],
            [
              4.13190858,
              50.55463474
            ],
            [
              4.13085683,
              50.55303315
            ],
            [
              4.12976154,
              50.5514434
            ],
            [
              4.12862303,
              50.54986596
            ],
            [
              4.12744167,
              50.5483013
            ],
            [
              4.1262178,
              50.54674991
            ],
            [
              4.12495181,
              50.54521224
            ],
            [
              4.12364407,
              50.54368876
            ],
            [
              4.12229498,
              50.54217992
            ],
            [
              4.12090496,
              50.54068618
            ],
            [
              4.11947442,
              50.53920799
            ],
            [
              4.11800379,
              50.5377458
            ],
            [
              4.11649353,
              50.53630003
            ],
            [
              4.11527778,
              50.53472222
            ],
            [
              4.03083333,
              50.51083333
            ],
            [
              3.81111111,
              50.48888889
            ],
            [
              3.73611111,
              50.51638889
            ]
          ]
        ]
      }
    }
  ]
}
