{
  "type": "FeatureCollection",
  "name": "BEAUVECHAIN TMA FOUR",
  "features": [
    {
      "type": "Feature",
      "properties": {
        "id": "BEAUVECHAIN-TMA-4",
        "name": "BEAUVECHAIN TMA FOUR",
        "category": "Military",
        "lowerLimit": "2500FT AMSL",
        "upperLimit": "4500FT AMSL",
        "airspaceClass": "C",
        "controlUnit": "Beauvechain APP",
        "hours": "See EBBE AD 2.3",
        "remarks": "Outside EBBE OPR HR, airspace is not active. Activation can be checked with Steenokkerzeel ATCC or Brussels FIC. As EBBE may be re-activated at any time, pilots are advised to avoid crossing whenever possible.",
        "lateralLimits": "502900N 0045106E - 503316N 0050607E - 503101N 0050701E - an arc of circle, 6.5 NM radius, centred on 502912N 0051650E and traced counterclockwise to 502451N 0050914E - 502300N 0050943E - 502205N 0050105E - an arc of circle, 8 NM radius, centred on 501521N 0045417E and traced counterclockwise to 502316N 0045220E - 502900N 0045106E.",
        "aipSource": "Belgium & Luxembourg AIP ENR 2.1, edition effective 03-SEP-2026",
        "aipSourceUrl": "https://ops.skeyes.be/html/belgocontrol_static/eaip/eAIP_Main/html/eAIP/EB-ENR-2.1-en-GB.html",
        "effectiveDate": "2026-09-03",
        "geometryNote": "Published AIP endpoints retained exactly; geodesic arcs sampled at maximum one degree. Border sections reuse the detailed Brussels UIR boundary. Conditional exclusions and vertical limits are described in remarks; activation is not evaluated live."
      },
      "geometry": {
        "type": "Polygon",
        "coordinates": [
          [
            [
              4.851666666666667,
              50.483333333333334
            ],
            [
              4.872222222222223,
              50.38777777777778
            ],
            [
              4.875883,
              50.38779824
            ],
            [
              4.87947373,
              50.38809788
            ],
            [
              4.8830721,
              50.38835769
            ],
            [
              4.88667704,
              50.38857759
            ],
            [
              4.89028743,
              50.38875753
            ],
            [
              4.8939022,
              50.38889743
            ],
            [
              4.89752025,
              50.38899727
            ],
            [
              4.90114047,
              50.38905701
            ],
            [
              4.90476178,
              50.38907664
            ],
            [
              4.90838308,
              50.38905614
            ],
            [
              4.91200327,
              50.38899552
            ],
            [
              4.91562125,
              50.38889481
            ],
            [
              4.91923594,
              50.38875402
            ],
            [
              4.92284622,
              50.38857321
            ],
            [
              4.92645103,
              50.38835244
            ],
            [
              4.93004925,
              50.38809175
            ],
            [
              4.9336398,
              50.38779125
            ],
            [
              4.9372216,
              50.38745101
            ],
            [
              4.94079355,
              50.38707114
            ],
            [
              4.94435459,
              50.38665175
            ],
            [
              4.94790362,
              50.38619298
            ],
            [
              4.95143958,
              50.38569495
            ],
            [
              4.9549614,
              50.38515783
            ],
            [
              4.95846801,
              50.38458177
            ],
            [
              4.96195835,
              50.38396695
            ],
            [
              4.96543136,
              50.38331355
            ],
            [
              4.96888599,
              50.38262177
            ],
            [
              4.9723212,
              50.38189183
            ],
            [
              4.97573596,
              50.38112394
            ],
            [
              4.97912921,
              50.38031833
            ],
            [
              4.98249995,
              50.37947525
            ],
            [
              4.98584715,
              50.37859495
            ],
            [
              4.98916981,
              50.37767771
            ],
            [
              4.9924669,
              50.37672379
            ],
            [
              4.99573745,
              50.37573349
            ],
            [
              4.99898046,
              50.37470711
            ],
            [
              5.00219496,
              50.37364495
            ],
            [
              5.00537996,
              50.37254734
            ],
            [
              5.00853452,
              50.37141461
            ],
            [
              5.01165767,
              50.3702471
            ],
            [
              5.01474849,
              50.36904517
            ],
            [
              5.018055555555556,
              50.36805555555556
            ],
            [
              5.161944444444445,
              50.38333333333333
            ],
            [
              5.153888888888889,
              50.41416666666667
            ],
            [
              5.15217206,
              50.41568912
            ],
            [
              5.15027184,
              50.41710563
            ],
            [
              5.14841004,
              50.41854274
            ],
            [
              5.14658723,
              50.42000003
            ],
            [
              5.14480395,
              50.42147707
            ],
            [
              5.14306072,
              50.42297342
            ],
            [
              5.14135807,
              50.42448864
            ],
            [
              5.1396965,
              50.42602228
            ],
            [
              5.1380765,
              50.42757389
            ],
            [
              5.13649856,
              50.42914302
            ],
            [
              5.13496314,
              50.43072919
            ],
            [
              5.13347071,
              50.43233195
            ],
            [
              5.13202171,
              50.43395081
            ],
            [
              5.13061658,
              50.43558531
            ],
            [
              5.12925572,
              50.43723495
            ],
            [
              5.12793955,
              50.43889925
            ],
            [
              5.12666847,
              50.44057771
            ],
            [
              5.12544284,
              50.44226986
            ],
            [
              5.12426305,
              50.44397517
            ],
            [
              5.12312944,
              50.44569315
            ],
            [
              5.12204235,
              50.44742329
            ],
            [
              5.12100211,
              50.44916509
            ],
            [
              5.12000903,
              50.45091801
            ],
            [
              5.11906341,
              50.45268156
            ],
            [
              5.11816554,
              50.4544552
            ],
            [
              5.11731568,
              50.45623841
            ],
            [
              5.1165141,
              50.45803066
            ],
            [
              5.11576103,
              50.45983143
            ],
            [
              5.1150567,
              50.46164018
            ],
            [
              5.11440134,
              50.46345637
            ],
            [
              5.11379513,
              50.46527947
            ],
            [
              5.11323826,
              50.46710895
            ],
            [
              5.1127309,
              50.46894425
            ],
            [
              5.11227322,
              50.47078483
            ],
            [
              5.11186534,
              50.47263015
            ],
            [
              5.1115074,
              50.47447967
            ],
            [
              5.11119951,
              50.47633284
            ],
            [
              5.11094177,
              50.4781891
            ],
            [
              5.11073425,
              50.48004791
            ],
            [
              5.11057703,
              50.48190872
            ],
            [
              5.11047015,
              50.48377097
            ],
            [
              5.11041366,
              50.48563412
            ],
            [
              5.11040758,
              50.48749761
            ],
            [
              5.11045191,
              50.48936089
            ],
            [
              5.11054665,
              50.49122341
            ],
            [
              5.11069178,
              50.49308462
            ],
            [
              5.11088726,
              50.49494396
            ],
            [
              5.11113304,
              50.49680088
            ],
            [
              5.11142904,
              50.49865484
            ],
            [
              5.11177519,
              50.50050528
            ],
            [
              5.1121714,
              50.50235166
            ],
            [
              5.11261755,
              50.50419342
            ],
            [
              5.11311351,
              50.50603002
            ],
            [
              5.11365914,
              50.50786092
            ],
            [
              5.11425428,
              50.50968558
            ],
            [
              5.11489878,
              50.51150344
            ],
            [
              5.11559243,
              50.51331398
            ],
            [
              5.11633504,
              50.51511665
            ],
            [
              5.116944444444444,
              50.51694444444444
            ],
            [
              5.101944444444444,
              50.55444444444444
            ],
            [
              4.851666666666667,
              50.483333333333334
            ]
          ]
        ]
      }
    }
  ]
}
