{
  "type": "FeatureCollection",
  "name": "BEAUVECHAIN TMA ONE A",
  "features": [
    {
      "type": "Feature",
      "properties": {
        "id": "BEAUVECHAIN-TMA-1A",
        "name": "BEAUVECHAIN TMA ONE A",
        "category": "Military",
        "lowerLimit": "2500FT AMSL",
        "upperLimit": "3500FT AMSL",
        "airspaceClass": "C",
        "controlUnit": "Beauvechain APP",
        "hours": "See EBBE AD 2.3",
        "remarks": "Outside EBBE OPR HR, airspace is not active. Activation can be checked with Steenokkerzeel ATCC or Brussels FIC. As EBBE may be re-activated at any time, pilots are advised to avoid crossing whenever possible.",
        "lateralLimits": "503823N 0042917E - 504048N 0043801E - 505345N 0045425E - 510216N 0050508E - 510122N 0051316E - an arc of circle, 40 NM radius, centred on 510954N 0041102E and traced clockwise to 503810N 0044949E - 503640N 0045629E - 503053N 0045743E - 502900N 0045106E - 503018N 0045049E - an arc of circle, 5.5 NM radius, centred on 502932N 0044215E and traced counterclockwise to 503502N 0044248E - 503823N 0042917E.",
        "aipSource": "Belgium & Luxembourg AIP ENR 2.1, edition effective 03-SEP-2026",
        "aipSourceUrl": "https://ops.skeyes.be/html/belgocontrol_static/eaip/eAIP_Main/html/eAIP/EB-ENR-2.1-en-GB.html",
        "effectiveDate": "2026-09-03",
        "geometryNote": "Published AIP endpoints retained exactly; geodesic arcs sampled at maximum one degree. Border sections reuse the detailed Brussels UIR boundary. Conditional exclusions and vertical limits are described in remarks; activation is not evaluated live."
      },
      "geometry": {
        "type": "Polygon",
        "coordinates": [
          [
            [
              4.4880555555555555,
              50.63972222222222
            ],
            [
              4.713333333333334,
              50.58388888888889
            ],
            [
              4.7157979,
              50.58352823
            ],
            [
              4.71828366,
              50.58338653
            ],
            [
              4.72076516,
              50.58321751
            ],
            [
              4.72324167,
              50.5830212
            ],
            [
              4.72571243,
              50.58279767
            ],
            [
              4.72817671,
              50.58254698
            ],
            [
              4.73063377,
              50.58226921
            ],
            [
              4.73308285,
              50.58196444
            ],
            [
              4.73552324,
              50.58163276
            ],
            [
              4.73795419,
              50.58127428
            ],
            [
              4.74037497,
              50.5808891
            ],
            [
              4.74278485,
              50.58047733
            ],
            [
              4.74518311,
              50.58003911
            ],
            [
              4.74756902,
              50.57957456
            ],
            [
              4.74994188,
              50.57908382
            ],
            [
              4.75230096,
              50.57856705
            ],
            [
              4.75464556,
              50.57802439
            ],
            [
              4.75697497,
              50.577456
            ],
            [
              4.75928849,
              50.57686207
            ],
            [
              4.76158542,
              50.57624277
            ],
            [
              4.76386508,
              50.57559829
            ],
            [
              4.76612678,
              50.57492881
            ],
            [
              4.76836984,
              50.57423454
            ],
            [
              4.77059358,
              50.5735157
            ],
            [
              4.77279735,
              50.57277248
            ],
            [
              4.77498046,
              50.57200513
            ],
            [
              4.77714228,
              50.57121387
            ],
            [
              4.77928216,
              50.57039894
            ],
            [
              4.78139944,
              50.56956058
            ],
            [
              4.78349349,
              50.56869904
            ],
            [
              4.78556369,
              50.56781459
            ],
            [
              4.78760941,
              50.56690749
            ],
            [
              4.78963004,
              50.56597802
            ],
            [
              4.79162498,
              50.56502644
            ],
            [
              4.79359362,
              50.56405306
            ],
            [
              4.79553538,
              50.56305815
            ],
            [
              4.79744967,
              50.56204203
            ],
            [
              4.79933592,
              50.56100499
            ],
            [
              4.80119357,
              50.55994735
            ],
            [
              4.80302205,
              50.55886943
            ],
            [
              4.80482083,
              50.55777154
            ],
            [
              4.80658936,
              50.55665403
            ],
            [
              4.80832711,
              50.55551722
            ],
            [
              4.81003356,
              50.55436146
            ],
            [
              4.81170821,
              50.55318709
            ],
            [
              4.81335055,
              50.55199446
            ],
            [
              4.81496009,
              50.55078395
            ],
            [
              4.81653635,
              50.5495559
            ],
            [
              4.81807886,
              50.54831069
            ],
            [
              4.81958716,
              50.54704869
            ],
            [
              4.8210608,
              50.54577028
            ],
            [
              4.82249934,
              50.54447585
            ],
            [
              4.82390235,
              50.54316578
            ],
            [
              4.82526941,
              50.54184047
            ],
            [
              4.82660011,
              50.54050031
            ],
            [
              4.82789407,
              50.5391457
            ],
            [
              4.82915088,
              50.53777706
            ],
            [
              4.83037018,
              50.5363948
            ],
            [
              4.83155162,
              50.53499932
            ],
            [
              4.83269482,
              50.53359106
            ],
            [
              4.83379946,
              50.53217042
            ],
            [
              4.83486521,
              50.53073784
            ],
            [
              4.83589175,
              50.52929374
            ],
            [
              4.83687878,
              50.52783857
            ],
            [
              4.837826,
              50.52637275
            ],
            [
              4.83873314,
              50.52489672
            ],
            [
              4.83959992,
              50.52341094
            ],
            [
              4.84042609,
              50.52191583
            ],
            [
              4.84121141,
              50.52041187
            ],
            [
              4.84195564,
              50.51889948
            ],
            [
              4.84265857,
              50.51737913
            ],
            [
              4.84331999,
              50.51585127
            ],
            [
              4.8439397,
              50.51431636
            ],
            [
              4.84451752,
              50.51277486
            ],
            [
              4.84505329,
              50.51122724
            ],
            [
              4.84554685,
              50.50967395
            ],
            [
              4.84599805,
              50.50811546
            ],
            [
              4.84640676,
              50.50655224
            ],
            [
              4.8469444444444445,
              50.505
            ],
            [
              4.851666666666667,
              50.483333333333334
            ],
            [
              4.961944444444445,
              50.514722222222225
            ],
            [
              4.9413888888888895,
              50.611111111111114
            ],
            [
              4.830277777777778,
              50.63611111111111
            ],
            [
              4.84300013,
              50.64433466
            ],
            [
              4.8570106,
              50.65148503
            ],
            [
              4.87083029,
              50.65878475
            ],
            [
              4.8844552,
              50.66623178
            ],
            [
              4.89788137,
              50.67382398
            ],
            [
              4.91110489,
              50.68155921
            ],
            [
              4.9241219,
              50.68943526
            ],
            [
              4.93692862,
              50.69744991
            ],
            [
              4.94952128,
              50.70560088
            ],
            [
              4.9618962,
              50.71388584
            ],
            [
              4.97404973,
              50.72230245
            ],
            [
              4.98597831,
              50.7308483
            ],
            [
              4.99767842,
              50.73952095
            ],
            [
              5.00914658,
              50.74831795
            ],
            [
              5.0203794,
              50.75723678
            ],
            [
              5.03137354,
              50.7662749
            ],
            [
              5.04212573,
              50.77542972
            ],
            [
              5.05263275,
              50.78469863
            ],
            [
              5.06289146,
              50.79407899
            ],
            [
              5.07289876,
              50.80356811
            ],
            [
              5.08265165,
              50.81316328
            ],
            [
              5.09214718,
              50.82286174
            ],
            [
              5.10138246,
              50.83266073
            ],
            [
              5.11035469,
              50.84255743
            ],
            [
              5.11906112,
              50.85254901
            ],
            [
              5.12749909,
              50.8626326
            ],
            [
              5.13566599,
              50.87280529
            ],
            [
              5.1435593,
              50.88306418
            ],
            [
              5.15117658,
              50.8934063
            ],
            [
              5.15851544,
              50.90382869
            ],
            [
              5.16557359,
              50.91432833
            ],
            [
              5.17234881,
              50.92490222
            ],
            [
              5.17883894,
              50.9355473
            ],
            [
              5.18504191,
              50.94626049
            ],
            [
              5.19095575,
              50.95703871
            ],
            [
              5.19657854,
              50.96787884
            ],
            [
              5.20190844,
              50.97877775
            ],
            [
              5.20694372,
              50.98973228
            ],
            [
              5.2116827,
              51.00073926
            ],
            [
              5.21612381,
              51.01179552
            ],
            [
              5.221111111111111,
              51.022777777777776
            ],
            [
              5.085555555555556,
              51.03777777777778
            ],
            [
              4.906944444444445,
              50.895833333333336
            ],
            [
              4.633611111111111,
              50.68
            ],
            [
              4.4880555555555555,
              50.63972222222222
            ]
          ]
        ]
      }
    }
  ]
}
