{
  "type": "FeatureCollection",
  "name": "FLORENNES TMA",
  "features": [
    {
      "type": "Feature",
      "properties": {
        "id": "FLORENNES-TMA",
        "name": "FLORENNES TMA",
        "category": "Military",
        "lowerLimit": "2500FT AMSL",
        "upperLimit": "4500FT AMSL",
        "airspaceClass": "C",
        "controlUnit": "Florennes APP",
        "hours": "See EBFS AD 2.3",
        "remarks": "Outside EBFS OPR HR, airspace is not active. Activation can be checked with Steenokkerzeel ATCC or Brussels FIC. As EBFS may be re-activated at any time, pilots are advised to avoid crossing whenever possible. Aircraft shall maintain a listening watch with Florennes TWR when EBR06B is activated. Upon activation of Florennes TMA, aircraft shall comply promptly with instructions from Florennes APP. Lower limit 3500FT AMSL above Florennes CTR. Upper limit can be raised to FL095 outside Steenokkerzeel ATCC OPR HR (see NOTAM).",
        "lateralLimits": "501704N 0041035E - 501842N 0041627E - 502316N 0045220E - an arc of circle, 8 NM radius, centred on 501521N 0045417E and traced clockwise to 500728N 0045635E - 500656N 0045209E - along the Belgian-French border - 500545N 0044211E - 500206N 0040902E - along the Belgian-French border - 501704N 0041035E.",
        "aipSource": "Belgium & Luxembourg AIP ENR 2.1, edition effective 03-SEP-2026",
        "aipSourceUrl": "https://ops.skeyes.be/html/belgocontrol_static/eaip/eAIP_Main/html/eAIP/EB-ENR-2.1-en-GB.html",
        "effectiveDate": "2026-09-03",
        "geometryNote": "Published AIP endpoints retained exactly; geodesic arcs sampled at maximum one degree. Border sections reuse the detailed Brussels UIR boundary. Conditional exclusions and vertical limits are described in remarks; activation is not evaluated live."
      },
      "geometry": {
        "type": "Polygon",
        "coordinates": [
          [
            [
              4.176388888888889,
              50.28444444444444
            ],
            [
              4.175630521000073,
              50.27852283800007
            ],
            [
              4.175649499000031,
              50.27802637500008
            ],
            [
              4.178887849000034,
              50.27520175300003
            ],
            [
              4.182254234000027,
              50.27506364300007
            ],
            [
              4.204320498000072,
              50.27415835000005
            ],
            [
              4.221174017000067,
              50.25539035700007
            ],
            [
              4.21360339000006,
              50.24695728900008
            ],
            [
              4.203763870000046,
              50.242572335000034
            ],
            [
              4.199013945000047,
              50.24045554500003
            ],
            [
              4.183104530000037,
              50.23223880900008
            ],
            [
              4.178411229000062,
              50.22640839200005
            ],
            [
              4.171742675000075,
              50.21812415000005
            ],
            [
              4.166002941000045,
              50.21501545900003
            ],
            [
              4.159465585000021,
              50.21432932300007
            ],
            [
              4.150810967000041,
              50.21342096800004
            ],
            [
              4.15279313800005,
              50.20734879400004
            ],
            [
              4.15601851100007,
              50.204473473000064
            ],
            [
              4.159889025000041,
              50.201023028000066
            ],
            [
              4.159606756000073,
              50.19374977000007
            ],
            [
              4.156196931000068,
              50.19284057300007
            ],
            [
              4.156619,
              50.18499841700003
            ],
            [
              4.154596341000058,
              50.18207744700004
            ],
            [
              4.15331635900003,
              50.18022899500005
            ],
            [
              4.149341727000035,
              50.17448913700008
            ],
            [
              4.152471820000073,
              50.17265155300004
            ],
            [
              4.154399191000039,
              50.17152005100007
            ],
            [
              4.155018751000057,
              50.16713355300004
            ],
            [
              4.152935311000022,
              50.160551706000035
            ],
            [
              4.144957480000073,
              50.155834155000036
            ],
            [
              4.138908951000076,
              50.15225746400006
            ],
            [
              4.134817206000037,
              50.14290304200006
            ],
            [
              4.12687479300007,
              50.134922137000046
            ],
            [
              4.151513331000046,
              50.12867776000007
            ],
            [
              4.154455669000072,
              50.130934327000034
            ],
            [
              4.159927794000055,
              50.135131063000074
            ],
            [
              4.196081068000069,
              50.13500236600004
            ],
            [
              4.199523670000076,
              50.13293537100003
            ],
            [
              4.198734431000048,
              50.12758702700006
            ],
            [
              4.201792831000034,
              50.12311997000006
            ],
            [
              4.203196232000039,
              50.11604046100007
            ],
            [
              4.201807522000024,
              50.11440163100008
            ],
            [
              4.197606023000048,
              50.10944340000003
            ],
            [
              4.206033393000041,
              50.10521065700004
            ],
            [
              4.202375428000039,
              50.10148452800007
            ],
            [
              4.203453521000029,
              50.09846979500003
            ],
            [
              4.212034661000075,
              50.09513138800003
            ],
            [
              4.213175289000048,
              50.09468763800004
            ],
            [
              4.227497023000069,
              50.07968156700008
            ],
            [
              4.230168307000042,
              50.07128692600003
            ],
            [
              4.22156267400004,
              50.06296898200003
            ],
            [
              4.199708251000061,
              50.05634168500006
            ],
            [
              4.19351081700006,
              50.050043911000046
            ],
            [
              4.173942292000049,
              50.04739987200003
            ],
            [
              4.17101682200007,
              50.047004591000075
            ],
            [
              4.150555555555556,
              50.035
            ],
            [
              4.703055555555555,
              50.09583333333334
            ],
            [
              4.705673628000056,
              50.09535748900004
            ],
            [
              4.713358008000057,
              50.09702301600004
            ],
            [
              4.716955228000074,
              50.099718540000026
            ],
            [
              4.720072483000024,
              50.10205440900006
            ],
            [
              4.735006700000042,
              50.10669657400007
            ],
            [
              4.739291943000069,
              50.10802860200005
            ],
            [
              4.742012395000074,
              50.10887389800007
            ],
            [
              4.751293992000058,
              50.11175913100004
            ],
            [
              4.751005650000025,
              50.11466360500003
            ],
            [
              4.750367423000057,
              50.12109248200005
            ],
            [
              4.755916812000066,
              50.121650498000065
            ],
            [
              4.763364781000064,
              50.13639572500006
            ],
            [
              4.771332200000074,
              50.13882159800005
            ],
            [
              4.779636229000062,
              50.14134996000007
            ],
            [
              4.796697108000046,
              50.14867816000003
            ],
            [
              4.805790330000036,
              50.15309540000004
            ],
            [
              4.811408751000045,
              50.15804041300004
            ],
            [
              4.823244713000065,
              50.16845775000007
            ],
            [
              4.824142391000066,
              50.164304736000076
            ],
            [
              4.824823270000024,
              50.161154716000055
            ],
            [
              4.83341251500002,
              50.153777740000066
            ],
            [
              4.850522714000022,
              50.15368315300003
            ],
            [
              4.871967751000057,
              50.15356460300006
            ],
            [
              4.876919701000077,
              50.153496121000046
            ],
            [
              4.880511392000074,
              50.14610545800008
            ],
            [
              4.882721592000053,
              50.14155750400005
            ],
            [
              4.885571939000044,
              50.14115460700003
            ],
            [
              4.895311089000074,
              50.13977797600006
            ],
            [
              4.894888537000043,
              50.13552953700008
            ],
            [
              4.88659479100005,
              50.13275572500004
            ],
            [
              4.879237200000034,
              50.13029500600004
            ],
            [
              4.868420998000033,
              50.12034688400007
            ],
            [
              4.8691666666666675,
              50.11555555555556
            ],
            [
              4.9430555555555555,
              50.12444444444444
            ],
            [
              4.94648252,
              50.12530003
            ],
            [
              4.95001655,
              50.12578395
            ],
            [
              4.953537,
              50.12630707
            ],
            [
              4.95704281,
              50.12686926
            ],
            [
              4.96053293,
              50.12747033
            ],
            [
              4.96400631,
              50.12811011
            ],
            [
              4.96746191,
              50.1287884
            ],
            [
              4.97089869,
              50.12950501
            ],
            [
              4.97431563,
              50.13025972
            ],
            [
              4.97771169,
              50.1310523
            ],
            [
              4.98108585,
              50.13188251
            ],
            [
              4.98443711,
              50.13275011
            ],
            [
              4.98776445,
              50.13365483
            ],
            [
              4.99106688,
              50.1345964
            ],
            [
              4.9943434,
              50.13557455
            ],
            [
              4.99759303,
              50.13658897
            ],
            [
              5.00081479,
              50.13763936
            ],
            [
              5.00400772,
              50.13872541
            ],
            [
              5.00717084,
              50.1398468
            ],
            [
              5.01030322,
              50.14100317
            ],
            [
              5.01340391,
              50.1421942
            ],
            [
              5.01647198,
              50.14341952
            ],
            [
              5.01950649,
              50.14467875
            ],
            [
              5.02250655,
              50.14597154
            ],
            [
              5.02547124,
              50.14729748
            ],
            [
              5.02839968,
              50.14865617
            ],
            [
              5.03129097,
              50.15004722
            ],
            [
              5.03414425,
              50.1514702
            ],
            [
              5.03695866,
              50.15292469
            ],
            [
              5.03973334,
              50.15441024
            ],
            [
              5.04246747,
              50.15592642
            ],
            [
              5.04516022,
              50.15747276
            ],
            [
              5.04781077,
              50.1590488
            ],
            [
              5.05041832,
              50.16065407
            ],
            [
              5.05298208,
              50.16228809
            ],
            [
              5.05550128,
              50.16395036
            ],
            [
              5.05797516,
              50.16564039
            ],
            [
              5.06040298,
              50.16735766
            ],
            [
              5.06278398,
              50.16910167
            ],
            [
              5.06511746,
              50.17087188
            ],
            [
              5.0674027,
              50.17266777
            ],
            [
              5.06963902,
              50.17448879
            ],
            [
              5.07182573,
              50.17633439
            ],
            [
              5.07396217,
              50.17820403
            ],
            [
              5.0760477,
              50.18009713
            ],
            [
              5.07808168,
              50.18201314
            ],
            [
              5.08006348,
              50.18395147
            ],
            [
              5.08199252,
              50.18591153
            ],
            [
              5.08386819,
              50.18789275
            ],
            [
              5.08568994,
              50.18989452
            ],
            [
              5.0874572,
              50.19191623
            ],
            [
              5.08916944,
              50.19395729
            ],
            [
              5.09082612,
              50.19601708
            ],
            [
              5.09242676,
              50.19809497
            ],
            [
              5.09397085,
              50.20019035
            ],
            [
              5.09545793,
              50.20230257
            ],
            [
              5.09688753,
              50.20443101
            ],
            [
              5.09825923,
              50.20657502
            ],
            [
              5.0995726,
              50.20873395
            ],
            [
              5.10082723,
              50.21090716
            ],
            [
              5.10202274,
              50.21309398
            ],
            [
              5.10315876,
              50.21529377
            ],
            [
              5.10423494,
              50.21750586
            ],
            [
              5.10525094,
              50.21972957
            ],
            [
              5.10620646,
              50.22196424
            ],
            [
              5.10710119,
              50.2242092
            ],
            [
              5.10793486,
              50.22646377
            ],
            [
              5.10870721,
              50.22872726
            ],
            [
              5.10941799,
              50.230999
            ],
            [
              5.11006698,
              50.2332783
            ],
            [
              5.11065398,
              50.23556446
            ],
            [
              5.1111788,
              50.23785681
            ],
            [
              5.11164127,
              50.24015465
            ],
            [
              5.11204125,
              50.24245728
            ],
            [
              5.1123786,
              50.244764
            ],
            [
              5.11265321,
              50.24707413
            ],
            [
              5.112865,
              50.24938697
            ],
            [
              5.11301388,
              50.2517018
            ],
            [
              5.11309981,
              50.25401795
            ],
            [
              5.11312274,
              50.2563347
            ],
            [
              5.11308267,
              50.25865135
            ],
            [
              5.11297959,
              50.26096721
            ],
            [
              5.11281353,
              50.26328157
            ],
            [
              5.11258453,
              50.26559373
            ],
            [
              5.11229265,
              50.267903
            ],
            [
              5.11193796,
              50.27020868
            ],
            [
              5.11152057,
              50.27251006
            ],
            [
              5.1110406,
              50.27480646
            ],
            [
              5.11049817,
              50.27709717
            ],
            [
              5.10989345,
              50.27938151
            ],
            [
              5.10922661,
              50.28165878
            ],
            [
              5.10849783,
              50.28392829
            ],
            [
              5.10770735,
              50.28618935
            ],
            [
              5.10685537,
              50.28844129
            ],
            [
              5.10594216,
              50.29068341
            ],
            [
              5.10496798,
              50.29291504
            ],
            [
              5.10393312,
              50.29513551
            ],
            [
              5.10283789,
              50.29734413
            ],
            [
              5.1016826,
              50.29954025
            ],
            [
              5.1004676,
              50.30172318
            ],
            [
              5.09919325,
              50.30389228
            ],
            [
              5.09785992,
              50.30604689
            ],
            [
              5.09646802,
              50.30818635
            ],
            [
              5.09501796,
              50.31031
            ],
            [
              5.09351017,
              50.31241722
            ],
            [
              5.09194509,
              50.31450736
            ],
            [
              5.09032321,
              50.31657978
            ],
            [
              5.088645,
              50.31863386
            ],
            [
              5.08691096,
              50.32066896
            ],
            [
              5.08512161,
              50.32268449
            ],
            [
              5.0832775,
              50.32467981
            ],
            [
              5.08137916,
              50.32665434
            ],
            [
              5.07942718,
              50.32860746
            ],
            [
              5.07742214,
              50.33053858
            ],
            [
              5.07536464,
              50.33244712
            ],
            [
              5.0732553,
              50.3343325
            ],
            [
              5.07109475,
              50.33619415
            ],
            [
              5.06888365,
              50.33803149
            ],
            [
              5.06662266,
              50.33984398
            ],
            [
              5.06431247,
              50.34163105
            ],
            [
              5.06195376,
              50.34339217
            ],
            [
              5.05954725,
              50.34512681
            ],
            [
              5.05709367,
              50.34683443
            ],
            [
              5.05459376,
              50.34851451
            ],
            [
              5.05204827,
              50.35016655
            ],
            [
              5.04945798,
              50.35179004
            ],
            [
              5.04682366,
              50.35338448
            ],
            [
              5.04414612,
              50.3549494
            ],
            [
              5.04142616,
              50.35648432
            ],
            [
              5.0386646,
              50.35798877
            ],
            [
              5.03586229,
              50.35946228
            ],
            [
              5.03302007,
              50.36090443
            ],
            [
              5.03013881,
              50.36231475
            ],
            [
              5.02721937,
              50.36369284
            ],
            [
              5.02426265,
              50.36503826
            ],
            [
              5.02126953,
              50.3663506
            ],
            [
              5.01824094,
              50.36762947
            ],
            [
              5.01517778,
              50.36887448
            ],
            [
              5.01208098,
              50.37008525
            ],
            [
              5.0089515,
              50.37126141
            ],
            [
              5.00579027,
              50.3724026
            ],
            [
              5.00259826,
              50.37350848
            ],
            [
              4.99937644,
              50.3745787
            ],
            [
              4.99612578,
              50.37561294
            ],
            [
              4.99284729,
              50.37661089
            ],
            [
              4.98954194,
              50.37757224
            ],
            [
              4.98621076,
              50.3784967
            ],
            [
              4.98285475,
              50.37938399
            ],
            [
              4.97947493,
              50.38023384
            ],
            [
              4.97607233,
              50.38104598
            ],
            [
              4.97264799,
              50.38182018
            ],
            [
              4.96920295,
              50.38255619
            ],
            [
              4.96573826,
              50.38325379
            ],
            [
              4.96225497,
              50.38391277
            ],
            [
              4.95875415,
              50.38453293
            ],
            [
              4.95523686,
              50.38511407
            ],
            [
              4.95170417,
              50.38565603
            ],
            [
              4.94815716,
              50.38615863
            ],
            [
              4.94459691,
              50.38662173
            ],
            [
              4.9410245,
              50.38704517
            ],
            [
              4.93744103,
              50.38742884
            ],
            [
              4.93384759,
              50.38777262
            ],
            [
              4.93024526,
              50.38807639
            ],
            [
              4.92663516,
              50.38834008
            ],
            [
              4.92301837,
              50.38856359
            ],
            [
              4.919396,
              50.38874686
            ],
            [
              4.91576917,
              50.38888983
            ],
            [
              4.91213896,
              50.38899247
            ],
            [
              4.90850649,
              50.38905473
            ],
            [
              4.90487287,
              50.3890766
            ],
            [
              4.9012392,
              50.38905808
            ],
            [
              4.8976066,
              50.38899917
            ],
            [
              4.89397616,
              50.38889988
            ],
            [
              4.890349,
              50.38876025
            ],
            [
              4.88672622,
              50.38858031
            ],
            [
              4.88310893,
              50.38836014
            ],
            [
              4.87949823,
              50.38809978
            ],
            [
              4.87589522,
              50.38779933
            ],
            [
              4.872222222222223,
              50.38777777777778
            ],
            [
              4.274166666666667,
              50.31166666666666
            ],
            [
              4.176388888888889,
              50.28444444444444
            ]
          ]
        ]
      }
    }
  ]
}
