{
  "type": "FeatureCollection",
  "name": "LUXEMBOURG TMA THREE",
  "features": [
    {
      "type": "Feature",
      "properties": {
        "id": "LUXEMBOURG-TMA-3",
        "name": "LUXEMBOURG TMA THREE",
        "upperLimit": "FL165",
        "lowerLimit": "2500FT AMSL",
        "airspaceClass": "D",
        "controlUnit": "Luxembourg APP",
        "aipSource": "France AIP ENR 2.1, AIRAC AMDT 04/26, effective 16-APR-2026",
        "aipPage": "ENR 2.1-50",
        "remarks": "H24. Except for LF-R45 N3 when active.",
        "geometryNote": "Published AIP anchors retained exactly; segments specified as international borders use detailed Eurostat/GISCO boundary coordinates.",
        "borderGeometrySource": "Eurostat/GISCO Countries 2024, CNTR_BN_01M, EPSG:4326",
        "publishedLateralLimits": "492717N 0062854E - 492705N 0061501E - 492652N 0060232E - along the French-Luxembourg border - 492810N 0062202E - along the French-German border - 492717N 0062854E."
      },
      "geometry": {
        "type": "Polygon",
        "coordinates": [
          [
            [
              6.4816666666666665,
              49.45472222222222
            ],
            [
              6.250277777777778,
              49.45138888888889
            ],
            [
              6.042222222222222,
              49.44777777777777
            ],
            [
              6.042141811000022,
              49.44783796400003
            ],
            [
              6.047565544000065,
              49.456250047000026
            ],
            [
              6.049810216000026,
              49.45973148100006
            ],
            [
              6.056966906000071,
              49.46551580000005
            ],
            [
              6.071014894000029,
              49.46509022400005
            ],
            [
              6.078412894000053,
              49.46329360300007
            ],
            [
              6.083252658000049,
              49.45871205100008
            ],
            [
              6.086452551000036,
              49.45568287900005
            ],
            [
              6.100806064000039,
              49.452911560000075
            ],
            [
              6.100328205000039,
              49.457947166000054
            ],
            [
              6.09954091700007,
              49.46624347800008
            ],
            [
              6.104574212000045,
              49.47081205300003
            ],
            [
              6.112697279000031,
              49.47205287300005
            ],
            [
              6.122152413000038,
              49.47349716900004
            ],
            [
              6.126072153000052,
              49.48730559400008
            ],
            [
              6.127876060000062,
              49.49366038200003
            ],
            [
              6.131110127000056,
              49.49138723300007
            ],
            [
              6.133092380000051,
              49.489993955000045
            ],
            [
              6.138618466000025,
              49.49102671400004
            ],
            [
              6.141850065000028,
              49.491630661000045
            ],
            [
              6.141738494000037,
              49.49087690300007
            ],
            [
              6.141084923000051,
              49.48646146900006
            ],
            [
              6.144599983000035,
              49.48777385200003
            ],
            [
              6.160951527000066,
              49.49337016000004
            ],
            [
              6.158666761000063,
              49.49601766200004
            ],
            [
              6.155069984000022,
              49.500185473000045
            ],
            [
              6.156240983000032,
              49.50354017400008
            ],
            [
              6.174487584000076,
              49.50919839100004
            ],
            [
              6.177229329000056,
              49.508076112000026
            ],
            [
              6.179625230000056,
              49.50709539800005
            ],
            [
              6.216725151000048,
              49.50684340600003
            ],
            [
              6.217947357000071,
              49.509209156000054
            ],
            [
              6.225661545000037,
              49.50976402400005
            ],
            [
              6.235630963000062,
              49.508098490000066
            ],
            [
              6.238046670000074,
              49.51145568100003
            ],
            [
              6.238780933000044,
              49.51247611100007
            ],
            [
              6.240045965000036,
              49.514176270000064
            ],
            [
              6.243535519000034,
              49.51176069200005
            ],
            [
              6.246968584000058,
              49.50938421700005
            ],
            [
              6.249217946000044,
              49.509448733000056
            ],
            [
              6.254997292000041,
              49.50961449600004
            ],
            [
              6.26421530500005,
              49.50450293400007
            ],
            [
              6.277994171000046,
              49.503149532000066
            ],
            [
              6.280549353000026,
              49.49423094400004
            ],
            [
              6.280561109000075,
              49.49418991200008
            ],
            [
              6.280810948000067,
              49.49410388600006
            ],
            [
              6.283828447000076,
              49.493064883000045
            ],
            [
              6.286296681000067,
              49.49379544100003
            ],
            [
              6.288462779000042,
              49.49281714300008
            ],
            [
              6.287019440000051,
              49.491088397000055
            ],
            [
              6.285643967000055,
              49.48944093700004
            ],
            [
              6.289211632000047,
              49.48607844300005
            ],
            [
              6.295386990000054,
              49.487024244000054
            ],
            [
              6.298484233000067,
              49.487498610000046
            ],
            [
              6.298189081000032,
              49.485663258000045
            ],
            [
              6.297434607000071,
              49.48097169500005
            ],
            [
              6.313665951000075,
              49.478146080000045
            ],
            [
              6.320531860000074,
              49.47695083600007
            ],
            [
              6.328402359000052,
              49.47098854800004
            ],
            [
              6.333768977000034,
              49.46692307200004
            ],
            [
              6.336111852000045,
              49.467540418000056
            ],
            [
              6.337044018000029,
              49.467772111000045
            ],
            [
              6.342481713000041,
              49.46912367200008
            ],
            [
              6.347103034000042,
              49.466057085000045
            ],
            [
              6.350817870000071,
              49.466653345000054
            ],
            [
              6.353130778000036,
              49.467024665000054
            ],
            [
              6.355258893000041,
              49.465643562000025
            ],
            [
              6.358001081000054,
              49.46380524700004
            ],
            [
              6.358193105000055,
              49.46367651800006
            ],
            [
              6.364389161000076,
              49.45952209500007
            ],
            [
              6.368847165000034,
              49.45985386500007
            ],
            [
              6.366799959000048,
              49.465996063000034
            ],
            [
              6.367222222222222,
              49.46944444444445
            ],
            [
              6.376266605000069,
              49.46442104100004
            ],
            [
              6.403585732000067,
              49.46591654000008
            ],
            [
              6.421934981000049,
              49.47602409900003
            ],
            [
              6.428055555555556,
              49.47694444444445
            ],
            [
              6.430459825000071,
              49.47523595200005
            ],
            [
              6.440549306000037,
              49.46670949800006
            ],
            [
              6.455745749000073,
              49.46327925800006
            ],
            [
              6.467731945000025,
              49.46430451600003
            ],
            [
              6.4816666666666665,
              49.45472222222222
            ],
            [
              6.4816666666666665,
              49.45472222222222
            ]
          ]
        ]
      }
    }
  ]
}
