{
  "type": "FeatureCollection",
  "name": "LUXEMBOURG TMA FOUR",
  "features": [
    {
      "type": "Feature",
      "properties": {
        "id": "LUXEMBOURG-TMA-4",
        "name": "LUXEMBOURG TMA FOUR",
        "upperLimit": "FL165",
        "lowerLimit": "2500FT AMSL",
        "airspaceClass": "D",
        "controlUnit": "Luxembourg APP",
        "aipSource": "France AIP ENR 2.1, AIRAC AMDT 04/26, effective 16-APR-2026",
        "aipPage": "ENR 2.1-50",
        "remarks": "H24. Except for LF-R45 N3 when active.",
        "geometryNote": "Published AIP anchors retained exactly; segments specified as international borders use detailed Eurostat/GISCO boundary coordinates.",
        "borderGeometrySource": "Eurostat/GISCO Countries 2024, CNTR_BN_01M, EPSG:4326",
        "publishedLateralLimits": "493233N 0054523E - along the French-Belgian border - 493247N 0054907E - along the French-Luxembourg border - 492652N 0060232E - 492706N 0055423E - 492708N 0055000E - 492709N 0054907E - 492710N 0054736E - 493233N 0054523E."
      },
      "geometry": {
        "type": "Polygon",
        "coordinates": [
          [
            [
              5.756388888888889,
              49.5425
            ],
            [
              5.757128232000071,
              49.54258738200008
            ],
            [
              5.75909682200006,
              49.56015191600005
            ],
            [
              5.770756344000063,
              49.56294199600006
            ],
            [
              5.793622976000051,
              49.55146867900004
            ],
            [
              5.818611111111111,
              49.546388888888885
            ],
            [
              5.81522811800005,
              49.54496735300006
            ],
            [
              5.810562846000039,
              49.54343354200006
            ],
            [
              5.817180929000074,
              49.537029450000034
            ],
            [
              5.823080298000036,
              49.53851546700008
            ],
            [
              5.835627794000061,
              49.541676109000036
            ],
            [
              5.846243858000037,
              49.529533392000076
            ],
            [
              5.838851695000074,
              49.52724321000005
            ],
            [
              5.835646798000028,
              49.52625029400008
            ],
            [
              5.836016819000065,
              49.51998159400006
            ],
            [
              5.86610502800005,
              49.500089125000045
            ],
            [
              5.893386024000051,
              49.496944631000076
            ],
            [
              5.906453879000026,
              49.50034207700003
            ],
            [
              5.911178952000057,
              49.50190538800007
            ],
            [
              5.918461993000051,
              49.50064122500004
            ],
            [
              5.936189054000067,
              49.499984633000054
            ],
            [
              5.941056100000026,
              49.50059896800008
            ],
            [
              5.947240597000075,
              49.49745923300003
            ],
            [
              5.955325108000068,
              49.49335490200008
            ],
            [
              5.960824704000061,
              49.49234796500008
            ],
            [
              5.97237132500004,
              49.490233860000046
            ],
            [
              5.970342419000076,
              49.48698725400004
            ],
            [
              5.969813720000047,
              49.48614124200003
            ],
            [
              5.970933517000049,
              49.48460285500005
            ],
            [
              5.974196150000068,
              49.480120621000026
            ],
            [
              5.972737448000032,
              49.47732607100005
            ],
            [
              5.971470142000044,
              49.47489819300006
            ],
            [
              5.97315849000006,
              49.46703092800004
            ],
            [
              5.978555081000025,
              49.46204558200003
            ],
            [
              5.982729181000025,
              49.46234594600003
            ],
            [
              5.986802830000045,
              49.46263908100008
            ],
            [
              5.986332669000035,
              49.45931837900008
            ],
            [
              5.986080208000033,
              49.45753527000005
            ],
            [
              5.979964302000042,
              49.45486123300003
            ],
            [
              5.982033176000073,
              49.45109952900003
            ],
            [
              5.994982761000074,
              49.45504331700005
            ],
            [
              5.999183248000065,
              49.45632257300008
            ],
            [
              6.006213547000073,
              49.45336804300007
            ],
            [
              6.008627469000032,
              49.452353576000064
            ],
            [
              6.01082602200006,
              49.45268000900006
            ],
            [
              6.026500261000024,
              49.45500726000006
            ],
            [
              6.027436549000072,
              49.45020224900003
            ],
            [
              6.02756047400004,
              49.44956626700008
            ],
            [
              6.032897171000059,
              49.44936763100003
            ],
            [
              6.042222222222222,
              49.44777777777777
            ],
            [
              5.906388888888889,
              49.45166666666667
            ],
            [
              5.833333333333333,
              49.452222222222225
            ],
            [
              5.818611111111111,
              49.4525
            ],
            [
              5.793333333333333,
              49.45277777777778
            ],
            [
              5.756388888888889,
              49.5425
            ],
            [
              5.756388888888889,
              49.5425
            ]
          ]
        ]
      }
    }
  ]
}
