{
  "type": "FeatureCollection",
  "name": "LUXEMBOURG TMA TWO A",
  "features": [
    {
      "type": "Feature",
      "properties": {
        "id": "LUXEMBOURG-TMA-2A",
        "name": "LUXEMBOURG TMA TWO A",
        "upperLimit": "FL145",
        "lowerLimit": "2500FT AGL",
        "airspaceClass": "C/E",
        "controlUnit": "Luxembourg APP",
        "aipSource": "Germany AIP ENR 2.2 and DFS AIXM 5.1 airspace snapshot, effective 09-JUL-2026",
        "aipPage": "ENR 2.2",
        "remarks": "Airspace class E below FL095; airspace class C at and above FL095.",
        "geometryNote": "Published AIP anchors retained exactly; segments specified as international borders use detailed Eurostat/GISCO boundary coordinates.",
        "borderGeometrySource": "Eurostat/GISCO Countries 2024, CNTR_BN_01M, EPSG:4326",
        "publishedLateralLimits": "500748N 0060816E - 500748N 0061252E - 500149N 0061228E - 495714N 0061208E - along the German-Luxembourg border - 500748N 0060816E."
      },
      "geometry": {
        "type": "Polygon",
        "coordinates": [
          [
            [
              6.137777777777778,
              50.13
            ],
            [
              6.214444444444444,
              50.13
            ],
            [
              6.207777777777778,
              50.030277777777776
            ],
            [
              6.202222222222223,
              49.95388888888889
            ],
            [
              6.201093230000026,
              49.95156098600006
            ],
            [
              6.197729315000061,
              49.948286659000075
            ],
            [
              6.194990730000029,
              49.95662423600004
            ],
            [
              6.191297629000076,
              49.96786782500004
            ],
            [
              6.182917062000058,
              49.96507475400006
            ],
            [
              6.184023601000035,
              49.962133605000076
            ],
            [
              6.186195453000039,
              49.95636088100008
            ],
            [
              6.184150232000036,
              49.954293162000056
            ],
            [
              6.17843562500002,
              49.95439235200007
            ],
            [
              6.177060579000056,
              49.95822694600008
            ],
            [
              6.175964333000024,
              49.961284051000064
            ],
            [
              6.174564282000063,
              49.96234458100008
            ],
            [
              6.166425408000066,
              49.96850972900006
            ],
            [
              6.166236235000042,
              49.97681892700007
            ],
            [
              6.167507804000024,
              49.97906832900003
            ],
            [
              6.168425282000044,
              49.980691344000036
            ],
            [
              6.167516889000069,
              49.98581629600005
            ],
            [
              6.15927040300005,
              49.987940656000035
            ],
            [
              6.153522484000064,
              49.989421366000045
            ],
            [
              6.14293849400002,
              49.99705501600005
            ],
            [
              6.145136582000021,
              50.00318088600005
            ],
            [
              6.145563229000061,
              50.00436991300006
            ],
            [
              6.147107361000053,
              50.00867326700006
            ],
            [
              6.144130737000069,
              50.00961998000008
            ],
            [
              6.137515423000025,
              50.01172397500005
            ],
            [
              6.135895285000061,
              50.01480697800008
            ],
            [
              6.135533033000058,
              50.015108516000055
            ],
            [
              6.132894497000052,
              50.01494362500006
            ],
            [
              6.128348222000056,
              50.01863186400004
            ],
            [
              6.132677898000054,
              50.02018710700003
            ],
            [
              6.136217786000032,
              50.01515130900003
            ],
            [
              6.142430294000064,
              50.020505667000066
            ],
            [
              6.145436546000042,
              50.02309665800004
            ],
            [
              6.140336382000044,
              50.02545507600007
            ],
            [
              6.13062151400004,
              50.029947425000046
            ],
            [
              6.132476461000067,
              50.03774695000004
            ],
            [
              6.133468459000028,
              50.04191802200006
            ],
            [
              6.122481686000071,
              50.053741391000074
            ],
            [
              6.122698028000059,
              50.05925577900007
            ],
            [
              6.119586551000054,
              50.05790505700003
            ],
            [
              6.116835600000059,
              50.05671084200003
            ],
            [
              6.113128063000033,
              50.05978443500004
            ],
            [
              6.113851444000034,
              50.06416164900003
            ],
            [
              6.118498645000045,
              50.06526653900005
            ],
            [
              6.119829591000041,
              50.06558297600003
            ],
            [
              6.127898333000076,
              50.07286138900008
            ],
            [
              6.125548088000073,
              50.07579192400004
            ],
            [
              6.120932754000023,
              50.073482643000034
            ],
            [
              6.119905646000063,
              50.07296873000007
            ],
            [
              6.117300476000025,
              50.07509414500004
            ],
            [
              6.121198097000047,
              50.08143282200007
            ],
            [
              6.120632494000063,
              50.091236922000064
            ],
            [
              6.126554914000053,
              50.09245971400003
            ],
            [
              6.130591667000033,
              50.09329317500004
            ],
            [
              6.128091702000063,
              50.09764699600004
            ],
            [
              6.126520052000046,
              50.10038410700008
            ],
            [
              6.129276184000048,
              50.10164510300007
            ],
            [
              6.134398346000069,
              50.10398861300007
            ],
            [
              6.131854825000062,
              50.10838182700007
            ],
            [
              6.133802464000041,
              50.112961185000074
            ],
            [
              6.132849682000028,
              50.11370710700004
            ],
            [
              6.128407131000074,
              50.11718512900006
            ],
            [
              6.137777777777778,
              50.13
            ],
            [
              6.137777777777778,
              50.13
            ]
          ]
        ]
      }
    }
  ]
}
