{
  "type": "FeatureCollection",
  "name": "LUXEMBOURG TMA TWO B",
  "features": [
    {
      "type": "Feature",
      "properties": {
        "id": "LUXEMBOURG-TMA-2B",
        "name": "LUXEMBOURG TMA TWO B",
        "upperLimit": "FL145",
        "lowerLimit": "1000FT AGL",
        "airspaceClass": "C/D/E",
        "controlUnit": "Luxembourg APP",
        "aipSource": "Germany AIP ENR 2.2 and DFS AIXM 5.1 airspace snapshot, effective 09-JUL-2026",
        "aipPage": "ENR 2.2",
        "remarks": "Airspace class E below 5500FT AMSL; class D from 5500FT AMSL through FL095; class C above FL095.",
        "geometryNote": "Published AIP anchors retained exactly; segments specified as international borders use detailed Eurostat/GISCO boundary coordinates.",
        "borderGeometrySource": "Eurostat/GISCO Countries 2024, CNTR_BN_01M, EPSG:4326",
        "publishedLateralLimits": "495536N 0061319E - 495228N 0062026E - 495152N 0061852E - along the German-Luxembourg border - 495536N 0061319E."
      },
      "geometry": {
        "type": "Polygon",
        "coordinates": [
          [
            [
              6.2219444444444445,
              49.92666666666666
            ],
            [
              6.3405555555555555,
              49.87444444444444
            ],
            [
              6.314444444444444,
              49.864444444444445
            ],
            [
              6.310746349000055,
              49.869331084000066
            ],
            [
              6.305325452000034,
              49.86842505900006
            ],
            [
              6.29682262700004,
              49.86700393400008
            ],
            [
              6.291978012000072,
              49.872700638000026
            ],
            [
              6.290993851000053,
              49.87385789700005
            ],
            [
              6.282961588000035,
              49.87783493200004
            ],
            [
              6.276460991000022,
              49.87767119800003
            ],
            [
              6.273595629000056,
              49.87759902600004
            ],
            [
              6.25911364500007,
              49.883592374000045
            ],
            [
              6.250995611000064,
              49.89056180000006
            ],
            [
              6.245090861000051,
              49.895631097000035
            ],
            [
              6.241225426000028,
              49.89706636900007
            ],
            [
              6.235510598000076,
              49.899188339000034
            ],
            [
              6.229292947000033,
              49.910297581000066
            ],
            [
              6.229972021000037,
              49.910880716000065
            ],
            [
              6.23382398800004,
              49.91418847700004
            ],
            [
              6.228916412000046,
              49.920647700000075
            ],
            [
              6.222997923000037,
              49.921927338000046
            ],
            [
              6.218166036000071,
              49.92297204100004
            ],
            [
              6.221596716000022,
              49.92572336000006
            ],
            [
              6.2219444444444445,
              49.92666666666666
            ],
            [
              6.2219444444444445,
              49.92666666666666
            ]
          ]
        ]
      }
    }
  ]
}
