{
  "type": "FeatureCollection",
  "name": "LUXEMBOURG TMA ONE A",
  "features": [
    {
      "type": "Feature",
      "properties": {
        "name": "LUXEMBOURG TMA ONE A",
        "upperLimit": "FL165",
        "lowerLimit": "2500FT AMSL",
        "airspaceClass": "C/D",
        "aipSource": "Belgium AIP ENR 2.1, AMDT 006/2025, effective 12-JUN-2025",
        "aipPage": "ENR 2.1-15",
        "geometryNote": "Published endpoints retained exactly; circle arcs sampled at maximum 1 degree; international-border segments use Eurostat/GISCO Countries 2024 CNTR_BN_01M."
      },
      "geometry": {
        "type": "Polygon",
        "coordinates": [
          [
            [
              6.31444444,
              49.86444444
            ],
            [
              6.314476599000045,
              49.859784424000054
            ],
            [
              6.314633569000023,
              49.85963546700003
            ],
            [
              6.321323925000058,
              49.85328664600007
            ],
            [
              6.321015674000023,
              49.84792854700004
            ],
            [
              6.320597994000025,
              49.84066831900003
            ],
            [
              6.329786441000067,
              49.83624337700007
            ],
            [
              6.336915904000023,
              49.83984759200007
            ],
            [
              6.338864249000039,
              49.84331515000008
            ],
            [
              6.341786287000048,
              49.848515631000055
            ],
            [
              6.362381321000043,
              49.85064457200008
            ],
            [
              6.384637568000073,
              49.83278961000008
            ],
            [
              6.391355938000061,
              49.82817215400007
            ],
            [
              6.394043640000064,
              49.826027887000066
            ],
            [
              6.40115779000007,
              49.820352170000035
            ],
            [
              6.413379874000043,
              49.81791079700008
            ],
            [
              6.423884144000056,
              49.81581256000004
            ],
            [
              6.42651513900006,
              49.81381726700005
            ],
            [
              6.429646156000047,
              49.81144276800006
            ],
            [
              6.440083195000057,
              49.81366667900005
            ],
            [
              6.451925057000039,
              49.81142395200004
            ],
            [
              6.453641634000064,
              49.81135337000006
            ],
            [
              6.464425493000022,
              49.81907791400005
            ],
            [
              6.47,
              49.8225
            ],
            [
              6.50277778,
              49.80916667
            ],
            [
              6.4286111111111115,
              49.635555555555555
            ],
            [
              6.422795703000077,
              49.62229507600006
            ],
            [
              6.401288608000073,
              49.60407358200007
            ],
            [
              6.396642796000037,
              49.60212318200007
            ],
            [
              6.392384286000038,
              49.60033537800007
            ],
            [
              6.383749129000023,
              49.59846826000006
            ],
            [
              6.374093585000026,
              49.58994897300005
            ],
            [
              6.376656739000055,
              49.58546752900003
            ],
            [
              6.380836745000067,
              49.578159165000045
            ],
            [
              6.368010101000039,
              49.57826173500007
            ],
            [
              6.367112132000045,
              49.57826891600007
            ],
            [
              6.358385967000061,
              49.57217540500005
            ],
            [
              6.367854604000058,
              49.56655106900007
            ],
            [
              6.375674513000035,
              49.561906072000056
            ],
            [
              6.381213950000074,
              49.55704037600003
            ],
            [
              6.380052606000049,
              49.551105033000056
            ],
            [
              6.361043910000035,
              49.53636792700007
            ],
            [
              6.357462942000041,
              49.52941271700007
            ],
            [
              6.367371750000075,
              49.50199093900005
            ],
            [
              6.36722222,
              49.46944444
            ],
            [
              6.366799959000048,
              49.465996063000034
            ],
            [
              6.368847165000034,
              49.45985386500007
            ],
            [
              6.364389161000076,
              49.45952209500007
            ],
            [
              6.358193105000055,
              49.46367651800006
            ],
            [
              6.358001081000054,
              49.46380524700004
            ],
            [
              6.355258893000041,
              49.465643562000025
            ],
            [
              6.353130778000036,
              49.467024665000054
            ],
            [
              6.350817870000071,
              49.466653345000054
            ],
            [
              6.347103034000042,
              49.466057085000045
            ],
            [
              6.342481713000041,
              49.46912367200008
            ],
            [
              6.337044018000029,
              49.467772111000045
            ],
            [
              6.336111852000045,
              49.467540418000056
            ],
            [
              6.333768977000034,
              49.46692307200004
            ],
            [
              6.328402359000052,
              49.47098854800004
            ],
            [
              6.320531860000074,
              49.47695083600007
            ],
            [
              6.313665951000075,
              49.478146080000045
            ],
            [
              6.297434607000071,
              49.48097169500005
            ],
            [
              6.298189081000032,
              49.485663258000045
            ],
            [
              6.298484233000067,
              49.487498610000046
            ],
            [
              6.295386990000054,
              49.487024244000054
            ],
            [
              6.289211632000047,
              49.48607844300005
            ],
            [
              6.285643967000055,
              49.48944093700004
            ],
            [
              6.287019440000051,
              49.491088397000055
            ],
            [
              6.288462779000042,
              49.49281714300008
            ],
            [
              6.286296681000067,
              49.49379544100003
            ],
            [
              6.283828447000076,
              49.493064883000045
            ],
            [
              6.280810948000067,
              49.49410388600006
            ],
            [
              6.280561109000075,
              49.49418991200008
            ],
            [
              6.280549353000026,
              49.49423094400004
            ],
            [
              6.277994171000046,
              49.503149532000066
            ],
            [
              6.26421530500005,
              49.50450293400007
            ],
            [
              6.254997292000041,
              49.50961449600004
            ],
            [
              6.249217946000044,
              49.509448733000056
            ],
            [
              6.246968584000058,
              49.50938421700005
            ],
            [
              6.243535519000034,
              49.51176069200005
            ],
            [
              6.240045965000036,
              49.514176270000064
            ],
            [
              6.238780933000044,
              49.51247611100007
            ],
            [
              6.238046670000074,
              49.51145568100003
            ],
            [
              6.235630963000062,
              49.508098490000066
            ],
            [
              6.225661545000037,
              49.50976402400005
            ],
            [
              6.217947357000071,
              49.509209156000054
            ],
            [
              6.216725151000048,
              49.50684340600003
            ],
            [
              6.179625230000056,
              49.50709539800005
            ],
            [
              6.177229329000056,
              49.508076112000026
            ],
            [
              6.174487584000076,
              49.50919839100004
            ],
            [
              6.156240983000032,
              49.50354017400008
            ],
            [
              6.155069984000022,
              49.500185473000045
            ],
            [
              6.158666761000063,
              49.49601766200004
            ],
            [
              6.160951527000066,
              49.49337016000004
            ],
            [
              6.144599983000035,
              49.48777385200003
            ],
            [
              6.141084923000051,
              49.48646146900006
            ],
            [
              6.141738494000037,
              49.49087690300007
            ],
            [
              6.141850065000028,
              49.491630661000045
            ],
            [
              6.138618466000025,
              49.49102671400004
            ],
            [
              6.133092380000051,
              49.489993955000045
            ],
            [
              6.131110127000056,
              49.49138723300007
            ],
            [
              6.127876060000062,
              49.49366038200003
            ],
            [
              6.126072153000052,
              49.48730559400008
            ],
            [
              6.122152413000038,
              49.47349716900004
            ],
            [
              6.112697279000031,
              49.47205287300005
            ],
            [
              6.104574212000045,
              49.47081205300003
            ],
            [
              6.09954091700007,
              49.46624347800008
            ],
            [
              6.100328205000039,
              49.457947166000054
            ],
            [
              6.100806064000039,
              49.452911560000075
            ],
            [
              6.086452551000036,
              49.45568287900005
            ],
            [
              6.083252658000049,
              49.45871205100008
            ],
            [
              6.078412894000053,
              49.46329360300007
            ],
            [
              6.071014894000029,
              49.46509022400005
            ],
            [
              6.056966906000071,
              49.46551580000005
            ],
            [
              6.049810216000026,
              49.45973148100006
            ],
            [
              6.047565544000065,
              49.456250047000026
            ],
            [
              6.042141811000022,
              49.44783796400003
            ],
            [
              6.032897171000059,
              49.44936763100003
            ],
            [
              6.02756047400004,
              49.44956626700008
            ],
            [
              6.027436549000072,
              49.45020224900003
            ],
            [
              6.026500261000024,
              49.45500726000006
            ],
            [
              6.01082602200006,
              49.45268000900006
            ],
            [
              6.008627469000032,
              49.452353576000064
            ],
            [
              6.006213547000073,
              49.45336804300007
            ],
            [
              5.999183248000065,
              49.45632257300008
            ],
            [
              5.994982761000074,
              49.45504331700005
            ],
            [
              5.982033176000073,
              49.45109952900003
            ],
            [
              5.979964302000042,
              49.45486123300003
            ],
            [
              5.986080208000033,
              49.45753527000005
            ],
            [
              5.986332669000035,
              49.45931837900008
            ],
            [
              5.986802830000045,
              49.46263908100008
            ],
            [
              5.982729181000025,
              49.46234594600003
            ],
            [
              5.978555081000025,
              49.46204558200003
            ],
            [
              5.97315849000006,
              49.46703092800004
            ],
            [
              5.971470142000044,
              49.47489819300006
            ],
            [
              5.972737448000032,
              49.47732607100005
            ],
            [
              5.974196150000068,
              49.480120621000026
            ],
            [
              5.970933517000049,
              49.48460285500005
            ],
            [
              5.969813720000047,
              49.48614124200003
            ],
            [
              5.970342419000076,
              49.48698725400004
            ],
            [
              5.97237132500004,
              49.490233860000046
            ],
            [
              5.960824704000061,
              49.49234796500008
            ],
            [
              5.955325108000068,
              49.49335490200008
            ],
            [
              5.947240597000075,
              49.49745923300003
            ],
            [
              5.941056100000026,
              49.50059896800008
            ],
            [
              5.936189054000067,
              49.499984633000054
            ],
            [
              5.918461993000051,
              49.50064122500004
            ],
            [
              5.911178952000057,
              49.50190538800007
            ],
            [
              5.906453879000026,
              49.50034207700003
            ],
            [
              5.893386024000051,
              49.496944631000076
            ],
            [
              5.86610502800005,
              49.500089125000045
            ],
            [
              5.836016819000065,
              49.51998159400006
            ],
            [
              5.835646798000028,
              49.52625029400008
            ],
            [
              5.838851695000074,
              49.52724321000005
            ],
            [
              5.846243858000037,
              49.529533392000076
            ],
            [
              5.835627794000061,
              49.541676109000036
            ],
            [
              5.823080298000036,
              49.53851546700008
            ],
            [
              5.817180929000074,
              49.537029450000034
            ],
            [
              5.810562846000039,
              49.54343354200006
            ],
            [
              5.81522811800005,
              49.54496735300006
            ],
            [
              5.818611111111111,
              49.546388888888885
            ],
            [
              5.824455859000068,
              49.55122783200005
            ],
            [
              5.82785036100006,
              49.55171069600004
            ],
            [
              5.842929837000042,
              49.55385573500007
            ],
            [
              5.845584272000053,
              49.56092685800007
            ],
            [
              5.865348447000031,
              49.57171494000005
            ],
            [
              5.871398472000067,
              49.57443208800004
            ],
            [
              5.868041325000036,
              49.580327888000056
            ],
            [
              5.867788133000033,
              49.580772542000034
            ],
            [
              5.868034571000067,
              49.580935390000036
            ],
            [
              5.872061569000039,
              49.58359645400003
            ],
            [
              5.871117100000049,
              49.58672392900007
            ],
            [
              5.868343047000053,
              49.58889838500005
            ],
            [
              5.864606340000023,
              49.58747966200008
            ],
            [
              5.86120270400005,
              49.58618739700006
            ],
            [
              5.851359628000068,
              49.58723766800006
            ],
            [
              5.848778517000028,
              49.59737412700008
            ],
            [
              5.85642576500004,
              49.60052204500005
            ],
            [
              5.874985318000029,
              49.60816191100008
            ],
            [
              5.87607822800004,
              49.61678248800007
            ],
            [
              5.876378392000049,
              49.619150098000034
            ],
            [
              5.880144864000044,
              49.62342237300004
            ],
            [
              5.886459787000035,
              49.62716651200003
            ],
            [
              5.88367770800005,
              49.63095567400006
            ],
            [
              5.887278777000063,
              49.63464354100006
            ],
            [
              5.899068071000045,
              49.63580427800008
            ],
            [
              5.903174155000045,
              49.63620855000005
            ],
            [
              5.907128623000062,
              49.63864741700007
            ],
            [
              5.904571564000037,
              49.64455460200003
            ],
            [
              5.902663640000071,
              49.64896219000008
            ],
            [
              5.903990026000031,
              49.65897235300008
            ],
            [
              5.906649968000067,
              49.66116872100008
            ],
            [
              5.909477497000069,
              49.663503469000034
            ],
            [
              5.890221072000031,
              49.67010898400008
            ],
            [
              5.888781906000077,
              49.66964942100003
            ],
            [
              5.88665553200002,
              49.66897041500005
            ],
            [
              5.866427087000034,
              49.67614262600006
            ],
            [
              5.862640312000053,
              49.68135254600003
            ],
            [
              5.867405728000051,
              49.69430629900006
            ],
            [
              5.880752544000075,
              49.704945931000054
            ],
            [
              5.886318445000029,
              49.70938288000008
            ],
            [
              5.880042841000034,
              49.71340791200004
            ],
            [
              5.87617268200006,
              49.71589014600005
            ],
            [
              5.875936438000053,
              49.71695017900004
            ],
            [
              5.875030683000034,
              49.72101432900007
            ],
            [
              5.864649100000065,
              49.726598188000025
            ],
            [
              5.856944591000058,
              49.72474474400008
            ],
            [
              5.843624779000038,
              49.72154044800004
            ],
            [
              5.83194444,
              49.72444444
            ],
            [
              5.82764011200004,
              49.738182136000034
            ],
            [
              5.828261083000029,
              49.739355551000074
            ],
            [
              5.831320583000036,
              49.74513691700008
            ],
            [
              5.829760778000036,
              49.74890202700004
            ],
            [
              5.824560081000072,
              49.751137725000035
            ],
            [
              5.818808465000075,
              49.75361025500007
            ],
            [
              5.815685297000073,
              49.76135197200006
            ],
            [
              5.815589976000069,
              49.76158825400006
            ],
            [
              5.812482585000055,
              49.765038067000035
            ],
            [
              5.79321070900005,
              49.78643362100007
            ],
            [
              5.793253100000072,
              49.78716984000005
            ],
            [
              5.793447528000058,
              49.79054656500006
            ],
            [
              5.79138889,
              49.79388889
            ],
            [
              6.16666667,
              49.80638889
            ],
            [
              6.31444444,
              49.86444444
            ]
          ]
        ]
      }
    }
  ]
}
