{
  "type": "FeatureCollection",
  "name": "LUXEMBOURG TMA TWO D",
  "features": [
    {
      "type": "Feature",
      "properties": {
        "id": "LUXEMBOURG-TMA-2D",
        "name": "LUXEMBOURG TMA TWO D",
        "upperLimit": "FL165",
        "lowerLimit": "1000FT AGL",
        "airspaceClass": "C/D/E",
        "controlUnit": "Luxembourg APP",
        "aipSource": "Germany AIP ENR 2.2 and DFS AIXM 5.1 airspace snapshot, effective 09-JUL-2026",
        "aipPage": "ENR 2.2",
        "remarks": "Airspace class E below 5500FT AMSL; class D from 5500FT AMSL through FL095; class C above FL095.",
        "geometryNote": "Published AIP anchors retained exactly; segments specified as international borders use detailed Eurostat/GISCO boundary coordinates.",
        "borderGeometrySource": "Eurostat/GISCO Countries 2024, CNTR_BN_01M, EPSG:4326",
        "publishedLateralLimits": "495228N 0062026E - 494921N 0062812E - along the German-Luxembourg border - 495152N 0061852E - 495228N 0062026E."
      },
      "geometry": {
        "type": "Polygon",
        "coordinates": [
          [
            [
              6.3405555555555555,
              49.87444444444444
            ],
            [
              6.47,
              49.822500000000005
            ],
            [
              6.467010511000069,
              49.82092957800006
            ],
            [
              6.464425493000022,
              49.81907791400005
            ],
            [
              6.453641634000064,
              49.81135337000006
            ],
            [
              6.451925057000039,
              49.81142395200004
            ],
            [
              6.440083195000057,
              49.81366667900005
            ],
            [
              6.429646156000047,
              49.81144276800006
            ],
            [
              6.42651513900006,
              49.81381726700005
            ],
            [
              6.423884144000056,
              49.81581256000004
            ],
            [
              6.413379874000043,
              49.81791079700008
            ],
            [
              6.40115779000007,
              49.820352170000035
            ],
            [
              6.394043640000064,
              49.826027887000066
            ],
            [
              6.391355938000061,
              49.82817215400007
            ],
            [
              6.384637568000073,
              49.83278961000008
            ],
            [
              6.362381321000043,
              49.85064457200008
            ],
            [
              6.341786287000048,
              49.848515631000055
            ],
            [
              6.338864249000039,
              49.84331515000008
            ],
            [
              6.336915904000023,
              49.83984759200007
            ],
            [
              6.329786441000067,
              49.83624337700007
            ],
            [
              6.320597994000025,
              49.84066831900003
            ],
            [
              6.321015674000023,
              49.84792854700004
            ],
            [
              6.321323925000058,
              49.85328664600007
            ],
            [
              6.314633569000023,
              49.85963546700003
            ],
            [
              6.314476599000045,
              49.859784424000054
            ],
            [
              6.314284883000028,
              49.86027507500006
            ],
            [
              6.314444444444444,
              49.864444444444445
            ],
            [
              6.3405555555555555,
              49.87444444444444
            ],
            [
              6.3405555555555555,
              49.87444444444444
            ]
          ]
        ]
      }
    }
  ]
}
