{
  "type": "FeatureCollection",
  "name": "LUXEMBOURG TMA FIVE",
  "features": [
    {
      "type": "Feature",
      "properties": {
        "name": "LUXEMBOURG TMA FIVE",
        "upperLimit": "FL165",
        "lowerLimit": "2500FT AMSL",
        "airspaceClass": "C/D",
        "aipSource": "Belgium AIP ENR 2.1, AMDT 006/2025, effective 12-JUN-2025",
        "aipPage": "ENR 2.1-15",
        "geometryNote": "Published endpoints retained exactly; circle arcs sampled at maximum 1 degree; international-border segments use Eurostat/GISCO Countries 2024 CNTR_BN_01M."
      },
      "geometry": {
        "type": "Polygon",
        "coordinates": [
          [
            [
              5.83194444,
              49.72444444
            ],
            [
              5.83222222,
              49.67555556
            ],
            [
              5.73222222,
              49.59361111
            ],
            [
              5.75555556,
              49.54222222
            ],
            [
              5.756388888888889,
              49.5425
            ],
            [
              5.757128232000071,
              49.54258738200008
            ],
            [
              5.75909682200006,
              49.56015191600005
            ],
            [
              5.770756344000063,
              49.56294199600006
            ],
            [
              5.793622976000051,
              49.55146867900004
            ],
            [
              5.818611111111111,
              49.546388888888885
            ],
            [
              5.824455859000068,
              49.55122783200005
            ],
            [
              5.82785036100006,
              49.55171069600004
            ],
            [
              5.842929837000042,
              49.55385573500007
            ],
            [
              5.845584272000053,
              49.56092685800007
            ],
            [
              5.865348447000031,
              49.57171494000005
            ],
            [
              5.871398472000067,
              49.57443208800004
            ],
            [
              5.868041325000036,
              49.580327888000056
            ],
            [
              5.867788133000033,
              49.580772542000034
            ],
            [
              5.868034571000067,
              49.580935390000036
            ],
            [
              5.872061569000039,
              49.58359645400003
            ],
            [
              5.871117100000049,
              49.58672392900007
            ],
            [
              5.868343047000053,
              49.58889838500005
            ],
            [
              5.864606340000023,
              49.58747966200008
            ],
            [
              5.86120270400005,
              49.58618739700006
            ],
            [
              5.851359628000068,
              49.58723766800006
            ],
            [
              5.848778517000028,
              49.59737412700008
            ],
            [
              5.85642576500004,
              49.60052204500005
            ],
            [
              5.874985318000029,
              49.60816191100008
            ],
            [
              5.87607822800004,
              49.61678248800007
            ],
            [
              5.876378392000049,
              49.619150098000034
            ],
            [
              5.880144864000044,
              49.62342237300004
            ],
            [
              5.886459787000035,
              49.62716651200003
            ],
            [
              5.88367770800005,
              49.63095567400006
            ],
            [
              5.887278777000063,
              49.63464354100006
            ],
            [
              5.899068071000045,
              49.63580427800008
            ],
            [
              5.903174155000045,
              49.63620855000005
            ],
            [
              5.907128623000062,
              49.63864741700007
            ],
            [
              5.904571564000037,
              49.64455460200003
            ],
            [
              5.902663640000071,
              49.64896219000008
            ],
            [
              5.903990026000031,
              49.65897235300008
            ],
            [
              5.906649968000067,
              49.66116872100008
            ],
            [
              5.909477497000069,
              49.663503469000034
            ],
            [
              5.890221072000031,
              49.67010898400008
            ],
            [
              5.888781906000077,
              49.66964942100003
            ],
            [
              5.88665553200002,
              49.66897041500005
            ],
            [
              5.866427087000034,
              49.67614262600006
            ],
            [
              5.862640312000053,
              49.68135254600003
            ],
            [
              5.867405728000051,
              49.69430629900006
            ],
            [
              5.880752544000075,
              49.704945931000054
            ],
            [
              5.886318445000029,
              49.70938288000008
            ],
            [
              5.880042841000034,
              49.71340791200004
            ],
            [
              5.87617268200006,
              49.71589014600005
            ],
            [
              5.875936438000053,
              49.71695017900004
            ],
            [
              5.875030683000034,
              49.72101432900007
            ],
            [
              5.864649100000065,
              49.726598188000025
            ],
            [
              5.856944591000058,
              49.72474474400008
            ],
            [
              5.843624779000038,
              49.72154044800004
            ],
            [
              5.83194444,
              49.72444444
            ]
          ]
        ]
      }
    }
  ]
}
