{
  "type": "FeatureCollection",
  "name": "AMSTERDAM FIR",
  "features": [
    {
      "type": "Feature",
      "properties": {
        "id": "EHAA",
        "name": "AMSTERDAM FIR",
        "upperLimit": "UNL",
        "lowerLimit": "GND",
        "airspaceClass": "G",
        "aipSource": "Netherlands AIP ENR 2.1, A 01/2025, effective 04-SEP-2025",
        "aipPage": "ENR 2.1-1 to ENR 2.1-2",
        "borderGeometrySource": "Eurostat/GISCO Countries 2024, CNTR_BN_01M, EPSG:4326",
        "geometryNote": "Published Netherlands AIP anchor points retained, except the shared Brussels/Amsterdam FIR boundary, which uses the more precise Belgium AIP/GISCO geometry so both FIRs share identical coordinates.",
        "sharedBoundarySource": "Belgium AIP ENR 2.1 and Eurostat/GISCO Countries 2024, CNTR_BN_01M, EPSG:4326"
      },
      "geometry": {
        "type": "Polygon",
        "coordinates": [
          [
            [
              5,
              55
            ],
            [
              6.5,
              55
            ],
            [
              6.5,
              53.666666666666664
            ],
            [
              6.6,
              53.56666666666667
            ],
            [
              6.666666666666667,
              53.516666666666666
            ],
            [
              6.75,
              53.5
            ],
            [
              6.816666666666666,
              53.5
            ],
            [
              6.866666666666667,
              53.46666666666667
            ],
            [
              6.95,
              53.4
            ],
            [
              7,
              53.333333333333336
            ],
            [
              7.033333333333333,
              53.31666666666667
            ],
            [
              7.2,
              53.3
            ],
            [
              7.216666666666667,
              53.21666666666667
            ],
            [
              7.2173248,
              53.2033162
            ],
            [
              7.210278,
              53.18866
            ],
            [
              7.2215245,
              53.1808286
            ],
            [
              7.2029133,
              53.1743803
            ],
            [
              7.1925977,
              53.1636449
            ],
            [
              7.1891768,
              53.1548021
            ],
            [
              7.1889093,
              53.1479865
            ],
            [
              7.1795782,
              53.1377588
            ],
            [
              7.1807615,
              53.1293139
            ],
            [
              7.1848199,
              53.1210151
            ],
            [
              7.2027945,
              53.1132816
            ],
            [
              7.2016089,
              53.1046449
            ],
            [
              7.2002439,
              53.0934864
            ],
            [
              7.199255,
              53.0810184
            ],
            [
              7.2012093,
              53.0712386
            ],
            [
              7.2043138,
              53.055546
            ],
            [
              7.2060259,
              53.0468936
            ],
            [
              7.2102273,
              53.0248027
            ],
            [
              7.2120537,
              53.0151999
            ],
            [
              7.2128023,
              53.0109586
            ],
            [
              7.2134526,
              53.0103986
            ],
            [
              7.2167434,
              53.007565
            ],
            [
              7.2120409,
              53.0025673
            ],
            [
              7.2090712,
              52.9994112
            ],
            [
              7.2009326,
              52.9827621
            ],
            [
              7.1893076,
              52.9578814
            ],
            [
              7.188057,
              52.9552047
            ],
            [
              7.1815786,
              52.9413392
            ],
            [
              7.1554365,
              52.9158606
            ],
            [
              7.1528006,
              52.9132916
            ],
            [
              7.1340411,
              52.893995
            ],
            [
              7.1299866,
              52.8898196
            ],
            [
              7.1192032,
              52.8789984
            ],
            [
              7.1154285,
              52.8752306
            ],
            [
              7.1120877,
              52.8718824
            ],
            [
              7.1070444,
              52.8665555
            ],
            [
              7.104656,
              52.8641821
            ],
            [
              7.0949106,
              52.8561677
            ],
            [
              7.087324,
              52.8499286
            ],
            [
              7.088196,
              52.8480236
            ],
            [
              7.0926919,
              52.8382009
            ],
            [
              7.0789803,
              52.8200534
            ],
            [
              7.0720451,
              52.8108746
            ],
            [
              7.0709808,
              52.8008079
            ],
            [
              7.0704992,
              52.7962522
            ],
            [
              7.0695873,
              52.7876274
            ],
            [
              7.0679417,
              52.7681389
            ],
            [
              7.0668309,
              52.7546235
            ],
            [
              7.0545761,
              52.6431547
            ],
            [
              7.0413092,
              52.6332847
            ],
            [
              7.0062293,
              52.638763
            ],
            [
              6.9770727,
              52.6458546
            ],
            [
              6.9523746,
              52.6391869
            ],
            [
              6.9189816,
              52.6399814
            ],
            [
              6.9130021,
              52.6464761
            ],
            [
              6.8972394,
              52.6509928
            ],
            [
              6.871353,
              52.6524807
            ],
            [
              6.8618302,
              52.6497301
            ],
            [
              6.8358728,
              52.651755
            ],
            [
              6.8163012,
              52.6486154
            ],
            [
              6.7868402,
              52.6526039
            ],
            [
              6.7677206,
              52.6474237
            ],
            [
              6.7510562,
              52.6474838
            ],
            [
              6.7419289,
              52.6449271
            ],
            [
              6.7254765,
              52.6332814
            ],
            [
              6.7097418,
              52.6277841
            ],
            [
              6.7262588,
              52.6157056
            ],
            [
              6.7237724,
              52.6049872
            ],
            [
              6.719941,
              52.5884704
            ],
            [
              6.7336476,
              52.5805548
            ],
            [
              6.7666214,
              52.5615124
            ],
            [
              6.7507481,
              52.5597056
            ],
            [
              6.731916,
              52.5618492
            ],
            [
              6.7282964,
              52.5622612
            ],
            [
              6.7250926,
              52.5594583
            ],
            [
              6.7136212,
              52.5494224
            ],
            [
              6.6991829,
              52.5503797
            ],
            [
              6.6857215,
              52.5512721
            ],
            [
              6.6968017,
              52.5331493
            ],
            [
              6.7035339,
              52.5221382
            ],
            [
              6.7026331,
              52.5093274
            ],
            [
              6.6994197,
              52.4948364
            ],
            [
              6.6989677,
              52.4928589
            ],
            [
              6.6983269,
              52.4895445
            ],
            [
              6.6977747,
              52.4863013
            ],
            [
              6.7106586,
              52.4810806
            ],
            [
              6.7178151,
              52.478203
            ],
            [
              6.7205051,
              52.4771216
            ],
            [
              6.7238698,
              52.4769126
            ],
            [
              6.7355252,
              52.4718714
            ],
            [
              6.7448043,
              52.4678335
            ],
            [
              6.7752204,
              52.4596992
            ],
            [
              6.8340101,
              52.4596243
            ],
            [
              6.8543076,
              52.4595984
            ],
            [
              6.8542594,
              52.457606
            ],
            [
              6.8540862,
              52.4504411
            ],
            [
              6.8644037,
              52.4509362
            ],
            [
              6.9383513,
              52.4361141
            ],
            [
              6.9471635,
              52.4366151
            ],
            [
              6.9632234,
              52.445121
            ],
            [
              6.968959,
              52.4532629
            ],
            [
              6.977563,
              52.4654766
            ],
            [
              6.9894136,
              52.4684114
            ],
            [
              6.9986513,
              52.45606
            ],
            [
              7.0061432,
              52.4403813
            ],
            [
              7.011528,
              52.4291121
            ],
            [
              7.0157228,
              52.4263628
            ],
            [
              7.0223671,
              52.4220082
            ],
            [
              7.0298922,
              52.4115813
            ],
            [
              7.0358662,
              52.4033037
            ],
            [
              7.0449911,
              52.4016974
            ],
            [
              7.0576842,
              52.399463
            ],
            [
              7.0724381,
              52.3731165
            ],
            [
              7.0718812,
              52.3586607
            ],
            [
              7.0716412,
              52.3524325
            ],
            [
              7.0666615,
              52.347598
            ],
            [
              7.0572318,
              52.3384433
            ],
            [
              7.0479469,
              52.3241844
            ],
            [
              7.0471805,
              52.3170657
            ],
            [
              7.0470623,
              52.3159685
            ],
            [
              7.0460011,
              52.3152173
            ],
            [
              7.0406688,
              52.3114425
            ],
            [
              7.0265979,
              52.2893138
            ],
            [
              7.0284885,
              52.274953
            ],
            [
              7.041999,
              52.2572481
            ],
            [
              7.0656852,
              52.241373
            ],
            [
              7.0600116,
              52.2346872
            ],
            [
              7.0396263,
              52.2279098
            ],
            [
              7.0200774,
              52.2253041
            ],
            [
              7.005097,
              52.2282278
            ],
            [
              6.9903343,
              52.2267074
            ],
            [
              6.9811305,
              52.2206559
            ],
            [
              6.9745324,
              52.2060624
            ],
            [
              6.9489321,
              52.1804439
            ],
            [
              6.9097679,
              52.1764016
            ],
            [
              6.9040043,
              52.1692053
            ],
            [
              6.8895941,
              52.1611435
            ],
            [
              6.881471,
              52.1563453
            ],
            [
              6.8726396,
              52.1311622
            ],
            [
              6.8669754,
              52.1279559
            ],
            [
              6.8554606,
              52.1208183
            ],
            [
              6.8460691,
              52.1193896
            ],
            [
              6.7604648,
              52.1185694
            ],
            [
              6.75691,
              52.0986775
            ],
            [
              6.7504072,
              52.0953121
            ],
            [
              6.7453955,
              52.0927185
            ],
            [
              6.7479066,
              52.0895297
            ],
            [
              6.7502776,
              52.0865188
            ],
            [
              6.749092,
              52.0834099
            ],
            [
              6.734978,
              52.0748681
            ],
            [
              6.7086345,
              52.0715993
            ],
            [
              6.696424,
              52.0700841
            ],
            [
              6.6876838,
              52.0554994
            ],
            [
              6.6878066,
              52.0445197
            ],
            [
              6.6877258,
              52.039899
            ],
            [
              6.7105513,
              52.0396447
            ],
            [
              6.7152305,
              52.0395925
            ],
            [
              6.7508398,
              52.0291498
            ],
            [
              6.8090365,
              51.9992725
            ],
            [
              6.8092564,
              51.9988687
            ],
            [
              6.8113333,
              51.9950552
            ],
            [
              6.8180334,
              51.9943856
            ],
            [
              6.8265742,
              51.9935321
            ],
            [
              6.8321944,
              51.9730227
            ],
            [
              6.8293366,
              51.9656479
            ],
            [
              6.8116349,
              51.9614295
            ],
            [
              6.7995445,
              51.9585483
            ],
            [
              6.7981802,
              51.9515637
            ],
            [
              6.7957871,
              51.9393125
            ],
            [
              6.786924,
              51.928364
            ],
            [
              6.7704437,
              51.9167985
            ],
            [
              6.7548821,
              51.9126665
            ],
            [
              6.7540985,
              51.9124585
            ],
            [
              6.7539707,
              51.9122231
            ],
            [
              6.751663,
              51.9079714
            ],
            [
              6.7438745,
              51.905346
            ],
            [
              6.7210599,
              51.8964889
            ],
            [
              6.7084832,
              51.9053197
            ],
            [
              6.694915,
              51.9148466
            ],
            [
              6.6823815,
              51.9171555
            ],
            [
              6.6686716,
              51.9138281
            ],
            [
              6.6623459,
              51.911593
            ],
            [
              6.6329972,
              51.9012235
            ],
            [
              6.5951155,
              51.8952308
            ],
            [
              6.5850346,
              51.8936361
            ],
            [
              6.5804032,
              51.8916502
            ],
            [
              6.5589614,
              51.8824564
            ],
            [
              6.5533246,
              51.8850599
            ],
            [
              6.5515276,
              51.8858899
            ],
            [
              6.544151,
              51.8841677
            ],
            [
              6.5366356,
              51.8799903
            ],
            [
              6.5279523,
              51.8751638
            ],
            [
              6.5218413,
              51.8740327
            ],
            [
              6.5151786,
              51.8727994
            ],
            [
              6.5024367,
              51.8678003
            ],
            [
              6.5005504,
              51.8654588
            ],
            [
              6.4971623,
              51.8612532
            ],
            [
              6.4725754,
              51.8538083
            ],
            [
              6.4643052,
              51.8551774
            ],
            [
              6.4602591,
              51.8579977
            ],
            [
              6.4503465,
              51.8649073
            ],
            [
              6.4401265,
              51.862174
            ],
            [
              6.4322677,
              51.8600722
            ],
            [
              6.4276165,
              51.8647691
            ],
            [
              6.4273405,
              51.8650477
            ],
            [
              6.4136268,
              51.8699932
            ],
            [
              6.403318,
              51.8698095
            ],
            [
              6.4007302,
              51.8697634
            ],
            [
              6.3969499,
              51.8711305
            ],
            [
              6.3921396,
              51.87287
            ],
            [
              6.38791,
              51.8630164
            ],
            [
              6.3987552,
              51.8576154
            ],
            [
              6.4080742,
              51.8529744
            ],
            [
              6.4055661,
              51.8483232
            ],
            [
              6.4031455,
              51.8438344
            ],
            [
              6.4066935,
              51.8380189
            ],
            [
              6.4069622,
              51.8375784
            ],
            [
              6.4067553,
              51.8374536
            ],
            [
              6.4037673,
              51.835652
            ],
            [
              6.4077795,
              51.8280921
            ],
            [
              6.4007894,
              51.8278739
            ],
            [
              6.3958768,
              51.8302318
            ],
            [
              6.389543,
              51.8332719
            ],
            [
              6.3754392,
              51.8339058
            ],
            [
              6.3659186,
              51.8343337
            ],
            [
              6.3628482,
              51.8396232
            ],
            [
              6.359158,
              51.8459806
            ],
            [
              6.3475781,
              51.8503014
            ],
            [
              6.3267103,
              51.850108
            ],
            [
              6.3068448,
              51.849924
            ],
            [
              6.3045108,
              51.8552278
            ],
            [
              6.298936,
              51.8678955
            ],
            [
              6.2737799,
              51.8743505
            ],
            [
              6.2688633,
              51.8720214
            ],
            [
              6.2613757,
              51.8684745
            ],
            [
              6.2157338,
              51.8680574
            ],
            [
              6.1948942,
              51.8751638
            ],
            [
              6.1830177,
              51.8849359
            ],
            [
              6.1867911,
              51.8868471
            ],
            [
              6.1891789,
              51.8880565
            ],
            [
              6.1899413,
              51.8914075
            ],
            [
              6.167766,
              51.9008047
            ],
            [
              6.1548298,
              51.9044846
            ],
            [
              6.1279135,
              51.8991986
            ],
            [
              6.1181168,
              51.9003796
            ],
            [
              6.1094565,
              51.8939476
            ],
            [
              6.132998,
              51.8865285
            ],
            [
              6.1349993,
              51.8858977
            ],
            [
              6.1392767,
              51.8799683
            ],
            [
              6.1473678,
              51.8687523
            ],
            [
              6.1519779,
              51.8666979
            ],
            [
              6.1634235,
              51.8615975
            ],
            [
              6.1664075,
              51.8408345
            ],
            [
              6.1417156,
              51.8462858
            ],
            [
              6.0970578,
              51.850058
            ],
            [
              6.0795596,
              51.8580528
            ],
            [
              6.0633825,
              51.865444
            ],
            [
              6.0595007,
              51.8584389
            ],
            [
              6.0531177,
              51.8563867
            ],
            [
              6.0533382,
              51.8549205
            ],
            [
              6.0537637,
              51.8520915
            ],
            [
              6.0367693,
              51.8440714
            ],
            [
              6.0261067,
              51.8436558
            ],
            [
              6.0102164,
              51.8354514
            ],
            [
              5.9946295,
              51.8313292
            ],
            [
              5.9862699,
              51.8324257
            ],
            [
              5.9628332,
              51.8354998
            ],
            [
              5.9483469,
              51.8256946
            ],
            [
              5.954068,
              51.817928
            ],
            [
              5.9484872,
              51.8153353
            ],
            [
              5.9486009,
              51.8129894
            ],
            [
              5.9599393,
              51.8068216
            ],
            [
              5.9742856,
              51.7990176
            ],
            [
              5.9746214,
              51.7878452
            ],
            [
              5.984678,
              51.7833131
            ],
            [
              5.9841316,
              51.7749609
            ],
            [
              5.9895407,
              51.7685585
            ],
            [
              5.953192,
              51.7478461
            ],
            [
              5.9531237,
              51.742089
            ],
            [
              5.956318,
              51.7385646
            ],
            [
              5.977455,
              51.7383008
            ],
            [
              5.9937475,
              51.7380974
            ],
            [
              6.0322917,
              51.7238599
            ],
            [
              6.0408972,
              51.7163648
            ],
            [
              6.03128,
              51.7101666
            ],
            [
              6.0275496,
              51.7077624
            ],
            [
              6.0319697,
              51.6761794
            ],
            [
              6.0689465,
              51.6647523
            ],
            [
              6.0950667,
              51.6600464
            ],
            [
              6.1167945,
              51.6561319
            ],
            [
              6.1064403,
              51.6369874
            ],
            [
              6.0997215,
              51.6245646
            ],
            [
              6.0944868,
              51.6209846
            ],
            [
              6.0943433,
              51.6161646
            ],
            [
              6.0927705,
              51.6054348
            ],
            [
              6.1058801,
              51.5993974
            ],
            [
              6.1207611,
              51.5925441
            ],
            [
              6.1276196,
              51.5851149
            ],
            [
              6.1323656,
              51.579974
            ],
            [
              6.149543,
              51.5707116
            ],
            [
              6.1570226,
              51.5666785
            ],
            [
              6.1608076,
              51.5614785
            ],
            [
              6.1770714,
              51.5391349
            ],
            [
              6.1924539,
              51.5309783
            ],
            [
              6.2007421,
              51.5265835
            ],
            [
              6.2113151,
              51.5145313
            ],
            [
              6.2134229,
              51.5078415
            ],
            [
              6.2134646,
              51.5015403
            ],
            [
              6.2135318,
              51.491382
            ],
            [
              6.2176083,
              51.486078
            ],
            [
              6.2192273,
              51.4839715
            ],
            [
              6.2232648,
              51.4729006
            ],
            [
              6.2202619,
              51.4488591
            ],
            [
              6.2174137,
              51.4469816
            ],
            [
              6.2143308,
              51.4449495
            ],
            [
              6.2144639,
              51.4341619
            ],
            [
              6.2144743,
              51.433318
            ],
            [
              6.2130263,
              51.427914
            ],
            [
              6.2058754,
              51.4012267
            ],
            [
              6.2173518,
              51.4003389
            ],
            [
              6.2252307,
              51.3997295
            ],
            [
              6.2219658,
              51.3957825
            ],
            [
              6.2153824,
              51.3878237
            ],
            [
              6.224405,
              51.364979
            ],
            [
              6.2243939,
              51.3596713
            ],
            [
              6.1920918,
              51.3405868
            ],
            [
              6.1918311,
              51.3352524
            ],
            [
              6.174702,
              51.3328112
            ],
            [
              6.170006,
              51.3321419
            ],
            [
              6.1604325,
              51.3206342
            ],
            [
              6.1587251,
              51.3170699
            ],
            [
              6.1540799,
              51.3073729
            ],
            [
              6.1397816,
              51.2949469
            ],
            [
              6.1306502,
              51.2870111
            ],
            [
              6.1248002,
              51.2775924
            ],
            [
              6.124783,
              51.2774309
            ],
            [
              6.124481,
              51.2745849
            ],
            [
              6.1217061,
              51.2726755
            ],
            [
              6.1196415,
              51.271255
            ],
            [
              6.0929898,
              51.2529136
            ],
            [
              6.0902619,
              51.2510665
            ],
            [
              6.088385,
              51.2497954
            ],
            [
              6.0850013,
              51.2473939
            ],
            [
              6.0811676,
              51.2458626
            ],
            [
              6.078998,
              51.244996
            ],
            [
              6.0770762,
              51.2442284
            ],
            [
              6.0726571,
              51.2425876
            ],
            [
              6.0811436,
              51.2302871
            ],
            [
              6.0827743,
              51.227922
            ],
            [
              6.0845465,
              51.2230249
            ],
            [
              6.0781341,
              51.2224514
            ],
            [
              6.0722058,
              51.2219212
            ],
            [
              6.0682752,
              51.2188664
            ],
            [
              6.0735661,
              51.1826923
            ],
            [
              6.0828265,
              51.1720112
            ],
            [
              6.0991166,
              51.1704721
            ],
            [
              6.1071694,
              51.1741505
            ],
            [
              6.1229576,
              51.1813625
            ],
            [
              6.1637234,
              51.1933314
            ],
            [
              6.1769536,
              51.1881733
            ],
            [
              6.1748121,
              51.1845134
            ],
            [
              6.1475241,
              51.174066
            ],
            [
              6.1616938,
              51.164905
            ],
            [
              6.1716851,
              51.1584455
            ],
            [
              6.1634192,
              51.1505927
            ],
            [
              6.1545908,
              51.1481081
            ],
            [
              6.1401185,
              51.1464424
            ],
            [
              6.1269826,
              51.1449305
            ],
            [
              6.120109,
              51.1410843
            ],
            [
              6.1184278,
              51.1401436
            ],
            [
              6.1083383,
              51.1379324
            ],
            [
              6.0924874,
              51.1344586
            ],
            [
              6.0877507,
              51.1296384
            ],
            [
              6.0804464,
              51.1222054
            ],
            [
              6.0721208,
              51.1196423
            ],
            [
              6.0619081,
              51.1164982
            ],
            [
              6.0531134,
              51.107486
            ],
            [
              6.0518784,
              51.1062205
            ],
            [
              6.036585,
              51.0965789
            ],
            [
              6.0247121,
              51.0938946
            ],
            [
              6.0094818,
              51.0904513
            ],
            [
              5.9811944,
              51.0724245
            ],
            [
              5.9805804,
              51.0705903
            ],
            [
              5.9796371,
              51.0677723
            ],
            [
              5.9750864,
              51.0640159
            ],
            [
              5.9708653,
              51.0605315
            ],
            [
              5.9702642,
              51.057179
            ],
            [
              5.9686137,
              51.0479735
            ],
            [
              5.9564873,
              51.0357645
            ],
            [
              5.9385788,
              51.0358687
            ],
            [
              5.9262046,
              51.0487802
            ],
            [
              5.9254734,
              51.0502249
            ],
            [
              5.918462,
              51.064079
            ],
            [
              5.9119088,
              51.0656715
            ],
            [
              5.9048891,
              51.0615122
            ],
            [
              5.8900801,
              51.0527375
            ],
            [
              5.8769768,
              51.0516186
            ],
            [
              5.867367,
              51.050798
            ],
            [
              5.8678753,
              51.046206
            ],
            [
              5.8741136,
              51.0401381
            ],
            [
              5.8772947,
              51.037044
            ],
            [
              5.8770557,
              51.0320597
            ],
            [
              5.8755265,
              51.0278397
            ],
            [
              5.880425,
              51.0167611
            ],
            [
              5.8941604,
              51.0113147
            ],
            [
              5.896577,
              51.0047533
            ],
            [
              5.9016786,
              51.0025506
            ],
            [
              5.9048247,
              51.0011922
            ],
            [
              5.9032344,
              50.9876748
            ],
            [
              5.8996239,
              50.9847652
            ],
            [
              5.8938015,
              50.9800731
            ],
            [
              5.8971978,
              50.9748454
            ],
            [
              5.918462,
              50.9777698
            ],
            [
              5.9309952,
              50.9834537
            ],
            [
              5.9352608,
              50.9853882
            ],
            [
              5.9534997,
              50.9878065
            ],
            [
              5.955399,
              50.986372
            ],
            [
              5.957233,
              50.9849869
            ],
            [
              5.9683062,
              50.9799865
            ],
            [
              5.9803515,
              50.9826178
            ],
            [
              6.0113208,
              50.9826326
            ],
            [
              6.0257443,
              50.9826395
            ],
            [
              6.0161169,
              50.9636684
            ],
            [
              6.0113249,
              50.9607537
            ],
            [
              6.0060872,
              50.9575679
            ],
            [
              6.0109569,
              50.9549986
            ],
            [
              6.0155297,
              50.9525859
            ],
            [
              6.0150871,
              50.9477855
            ],
            [
              6.0156293,
              50.9454294
            ],
            [
              6.0161834,
              50.9430219
            ],
            [
              6.0181114,
              50.9345161
            ],
            [
              6.0428396,
              50.9306195
            ],
            [
              6.0518708,
              50.9291964
            ],
            [
              6.0524444,
              50.9283164
            ],
            [
              6.0565323,
              50.922045
            ],
            [
              6.073561,
              50.9227515
            ],
            [
              6.0808801,
              50.9214979
            ],
            [
              6.0920361,
              50.919587
            ],
            [
              6.0869476,
              50.913135
            ],
            [
              6.0797418,
              50.9054578
            ],
            [
              6.0759391,
              50.8912821
            ],
            [
              6.0852374,
              50.8795713
            ],
            [
              6.0870503,
              50.8708202
            ],
            [
              6.0774892,
              50.8600564
            ],
            [
              6.0735187,
              50.8477296
            ],
            [
              6.0577823,
              50.8509929
            ],
            [
              6.054343,
              50.8565239
            ],
            [
              6.0179849,
              50.8437965
            ],
            [
              6.0173118,
              50.8327689
            ],
            [
              6.0233453,
              50.826236
            ],
            [
              6.0238318,
              50.8182765
            ],
            [
              6.021966,
              50.8128463
            ],
            [
              6.00461,
              50.8020474
            ],
            [
              5.9831929,
              50.8096297
            ],
            [
              5.9767276,
              50.8035364
            ],
            [
              5.9771772,
              50.7968195
            ],
            [
              5.9901332,
              50.7929313
            ],
            [
              6.0024035,
              50.7839383
            ],
            [
              6.0263122,
              50.7740421
            ],
            [
              6.0190813,
              50.7632809
            ],
            [
              6.020999,
              50.7542954
            ],
            [
              6.016666666666667,
              50.75
            ],
            [
              6.02111111,
              50.75416667
            ],
            [
              5.982813467000028,
              50.75315556000004
            ],
            [
              5.975517545000059,
              50.755226709000056
            ],
            [
              5.971311266000043,
              50.75977706700007
            ],
            [
              5.959681167000042,
              50.76197552000008
            ],
            [
              5.936111141000026,
              50.756801891000066
            ],
            [
              5.918461993000051,
              50.75091105300004
            ],
            [
              5.913142078000021,
              50.75527418300004
            ],
            [
              5.901031698000054,
              50.752160581000055
            ],
            [
              5.892072996000024,
              50.75523758400004
            ],
            [
              5.885941317000061,
              50.76936443400007
            ],
            [
              5.862913774000049,
              50.76312286900003
            ],
            [
              5.849429458000031,
              50.75466896200004
            ],
            [
              5.844916845000057,
              50.76538490400003
            ],
            [
              5.830421998000077,
              50.75877718000004
            ],
            [
              5.808849452000061,
              50.75628551400007
            ],
            [
              5.793819054000039,
              50.769184358000075
            ],
            [
              5.784332200000051,
              50.76855900400005
            ],
            [
              5.776582520000034,
              50.78144356900003
            ],
            [
              5.771372547000055,
              50.78301767100004
            ],
            [
              5.765056306000076,
              50.781874378000055
            ],
            [
              5.746210720000022,
              50.76963031100007
            ],
            [
              5.738102995000077,
              50.757548487000065
            ],
            [
              5.730613413000071,
              50.75772861300004
            ],
            [
              5.720391327000073,
              50.76311836900004
            ],
            [
              5.696972476000042,
              50.755634429000054
            ],
            [
              5.682000429000027,
              50.75744643000007
            ],
            [
              5.682367018000036,
              50.76007093800007
            ],
            [
              5.685060999000029,
              50.763576372000045
            ],
            [
              5.686408103000076,
              50.76462548400008
            ],
            [
              5.690336087000048,
              50.76768456100007
            ],
            [
              5.692645998000046,
              50.76991556200005
            ],
            [
              5.695371943000055,
              50.772714034000046
            ],
            [
              5.697649890000037,
              50.775966494000045
            ],
            [
              5.698540392000041,
              50.778671442000075
            ],
            [
              5.698803597000051,
              50.78113307600006
            ],
            [
              5.698585342000058,
              50.78374488800006
            ],
            [
              5.697676860000058,
              50.78704836500003
            ],
            [
              5.694594814000027,
              50.79414395500004
            ],
            [
              5.69397600800005,
              50.79663602800008
            ],
            [
              5.693544491000068,
              50.80011536300003
            ],
            [
              5.693788718000064,
              50.80972401500003
            ],
            [
              5.687622129000033,
              50.81192397800004
            ],
            [
              5.655683399000054,
              50.81971852500004
            ],
            [
              5.655059165000068,
              50.82352668100003
            ],
            [
              5.65485999200007,
              50.824741739000046
            ],
            [
              5.649506083000063,
              50.83154054000005
            ],
            [
              5.64512425700002,
              50.837104915000054
            ],
            [
              5.639799555000025,
              50.84703154600004
            ],
            [
              5.642348810000044,
              50.86382981600008
            ],
            [
              5.644531236000034,
              50.86552073400003
            ],
            [
              5.645963781000034,
              50.86663065400006
            ],
            [
              5.648137919000021,
              50.86831515100005
            ],
            [
              5.645754966000027,
              50.87208110500006
            ],
            [
              5.668625071000065,
              50.880984898000065
            ],
            [
              5.67446807500005,
              50.88124371600003
            ],
            [
              5.679131849000044,
              50.88145029900005
            ],
            [
              5.680642223000063,
              50.884408965000034
            ],
            [
              5.682338654000034,
              50.88773209900006
            ],
            [
              5.68779117400004,
              50.89163836700004
            ],
            [
              5.694290815000045,
              50.89629480800005
            ],
            [
              5.696616650000067,
              50.90269316300004
            ],
            [
              5.699221677000025,
              50.90985957300006
            ],
            [
              5.707244655000068,
              50.91150315200008
            ],
            [
              5.709965837000027,
              50.910501553000074
            ],
            [
              5.715379520000056,
              50.90850891200006
            ],
            [
              5.723732659000063,
              50.910526608000055
            ],
            [
              5.725549551000029,
              50.916257975000065
            ],
            [
              5.728361023000048,
              50.92512673500005
            ],
            [
              5.745539220000069,
              50.943509050000046
            ],
            [
              5.749882454000044,
              50.94646466300003
            ],
            [
              5.757608016000063,
              50.95172198200004
            ],
            [
              5.753896867000037,
              50.958323146000055
            ],
            [
              5.745614197000066,
              50.96089462100008
            ],
            [
              5.738547800000049,
              50.95862581700004
            ],
            [
              5.728954790000046,
              50.955545794000045
            ],
            [
              5.722445042000061,
              50.95790987600003
            ],
            [
              5.72109623800003,
              50.961649856000065
            ],
            [
              5.738007233000076,
              50.97841447600007
            ],
            [
              5.745662737000032,
              50.98127095000007
            ],
            [
              5.748910982000041,
              50.98248295800005
            ],
            [
              5.765072018000069,
              50.99722077800004
            ],
            [
              5.766074106000076,
              51.008594294000034
            ],
            [
              5.773411483000075,
              51.018817596000076
            ],
            [
              5.774233817000038,
              51.025691753000046
            ],
            [
              5.769014308000067,
              51.02766344400004
            ],
            [
              5.761215640000046,
              51.030609422000055
            ],
            [
              5.759419879000063,
              51.03424951000005
            ],
            [
              5.766635476000033,
              51.04460012700008
            ],
            [
              5.770656616000053,
              51.050368365000054
            ],
            [
              5.771481721000043,
              51.05414536300003
            ],
            [
              5.772983756000031,
              51.06102107300006
            ],
            [
              5.798274119000041,
              51.05985338200003
            ],
            [
              5.800084344000027,
              51.06419503500007
            ],
            [
              5.799129207000021,
              51.067526342000065
            ],
            [
              5.797416902000066,
              51.07349848000007
            ],
            [
              5.80002500300003,
              51.07556459600005
            ],
            [
              5.803992298000026,
              51.07870745400004
            ],
            [
              5.800838266000028,
              51.08286225300003
            ],
            [
              5.79728558100004,
              51.08754219700006
            ],
            [
              5.798231026000053,
              51.09233087900003
            ],
            [
              5.806910617000028,
              51.09555689900003
            ],
            [
              5.814866453000036,
              51.09456224200005
            ],
            [
              5.825479508000058,
              51.09323537400007
            ],
            [
              5.833199077000074,
              51.09974892100007
            ],
            [
              5.829243939000037,
              51.10638834400004
            ],
            [
              5.821131642000068,
              51.10817491900008
            ],
            [
              5.809665881000058,
              51.11070002900004
            ],
            [
              5.808913518000054,
              51.115812306000066
            ],
            [
              5.813638341000058,
              51.12090533700007
            ],
            [
              5.824573182000051,
              51.12854260300003
            ],
            [
              5.831767511000066,
              51.130015496000055
            ],
            [
              5.840648873000021,
              51.131833776000065
            ],
            [
              5.845420678000039,
              51.13903632500006
            ],
            [
              5.846288430000072,
              51.14034610700003
            ],
            [
              5.850472762000038,
              51.14255128500008
            ],
            [
              5.854312384000025,
              51.144574798000065
            ],
            [
              5.840504422000038,
              51.15203620200003
            ],
            [
              5.838426249000065,
              51.15315918400006
            ],
            [
              5.838166146000049,
              51.15426108200006
            ],
            [
              5.837530919000073,
              51.15695214800007
            ],
            [
              5.826551128000062,
              51.16672219800006
            ],
            [
              5.821839531000023,
              51.16616417800003
            ],
            [
              5.814864628000066,
              51.16008760500006
            ],
            [
              5.814504298000031,
              51.15977368400007
            ],
            [
              5.813871401000029,
              51.15992862200005
            ],
            [
              5.805021088000046,
              51.16209523800006
            ],
            [
              5.788210063000065,
              51.155821066000044
            ],
            [
              5.778261680000071,
              51.15210815300003
            ],
            [
              5.775879082000074,
              51.15506288600005
            ],
            [
              5.778222468000024,
              51.16167743200003
            ],
            [
              5.778739438000059,
              51.16313665300004
            ],
            [
              5.777408441000034,
              51.16373839100004
            ],
            [
              5.769853978000071,
              51.16715372900006
            ],
            [
              5.774750686000061,
              51.170467304000056
            ],
            [
              5.77545064100002,
              51.17094096000005
            ],
            [
              5.775388295000027,
              51.17876015100006
            ],
            [
              5.745651094000038,
              51.18947197700004
            ],
            [
              5.733198930000071,
              51.18656862800003
            ],
            [
              5.71004967500005,
              51.18117114200004
            ],
            [
              5.688936011000067,
              51.18499722300004
            ],
            [
              5.658263781000073,
              51.18475949200007
            ],
            [
              5.651352744000064,
              51.19253095000005
            ],
            [
              5.651935920000028,
              51.194034110000075
            ],
            [
              5.653097358000025,
              51.19702776500003
            ],
            [
              5.566283615000032,
              51.220836500000075
            ],
            [
              5.560063487000036,
              51.22287434700007
            ],
            [
              5.555609869000023,
              51.24377622900005
            ],
            [
              5.556271699000035,
              51.25711701700004
            ],
            [
              5.556669157000044,
              51.265128735000076
            ],
            [
              5.539176901000076,
              51.27603341000008
            ],
            [
              5.523077389000036,
              51.28606984700008
            ],
            [
              5.520148881000068,
              51.28977637000003
            ],
            [
              5.515765233000025,
              51.29532461900004
            ],
            [
              5.484878348000052,
              51.30005358300008
            ],
            [
              5.478616615000021,
              51.29529678000006
            ],
            [
              5.465571274000069,
              51.28538672500008
            ],
            [
              5.45353766900007,
              51.28360736800005
            ],
            [
              5.443318249000072,
              51.28209626700004
            ],
            [
              5.438905729000055,
              51.27678735400008
            ],
            [
              5.438299550000067,
              51.27605803100005
            ],
            [
              5.436876385000062,
              51.27584146800007
            ],
            [
              5.432269617000031,
              51.27514045400005
            ],
            [
              5.428662604000067,
              51.27201298600005
            ],
            [
              5.417375001000039,
              51.26222604900005
            ],
            [
              5.348088639000025,
              51.27524956900004
            ],
            [
              5.342270392000046,
              51.26624218400008
            ],
            [
              5.336000114000058,
              51.263452037000036
            ],
            [
              5.295439695000027,
              51.261790648000044
            ],
            [
              5.263516742000036,
              51.26660095900007
            ],
            [
              5.237716348000049,
              51.26160036400006
            ],
            [
              5.22682465500003,
              51.269439797000075
            ],
            [
              5.230605467000032,
              51.27903475000005
            ],
            [
              5.241098058000034,
              51.30566287600004
            ],
            [
              5.200244843000064,
              51.32261960500006
            ],
            [
              5.174322278000034,
              51.31447249400003
            ],
            [
              5.162679369000045,
              51.31081328600004
            ],
            [
              5.13446456500003,
              51.31549060100008
            ],
            [
              5.132513399000061,
              51.333728561000044
            ],
            [
              5.131070070000021,
              51.34721966600006
            ],
            [
              5.115002737000054,
              51.36224515200007
            ],
            [
              5.084907839000039,
              51.38358911900008
            ],
            [
              5.071045140000024,
              51.39342085200008
            ],
            [
              5.072981970000058,
              51.39563808500003
            ],
            [
              5.076795196000035,
              51.40000149600007
            ],
            [
              5.084294791000048,
              51.40917536000006
            ],
            [
              5.088430656000071,
              51.41423398500007
            ],
            [
              5.091770912000072,
              51.41807765400006
            ],
            [
              5.093627831000049,
              51.42021458200003
            ],
            [
              5.094868940000026,
              51.42164257100006
            ],
            [
              5.096069095000075,
              51.42302286700004
            ],
            [
              5.102137094000057,
              51.42895604100005
            ],
            [
              5.102720321000049,
              51.43370547000006
            ],
            [
              5.079385100000025,
              51.47035821500003
            ],
            [
              5.06079716000005,
              51.47083785800004
            ],
            [
              5.049744013000065,
              51.47112307300006
            ],
            [
              5.039047006000033,
              51.47861006200003
            ],
            [
              5.039141140000027,
              51.48021323200004
            ],
            [
              5.039456545000064,
              51.485584817000074
            ],
            [
              5.036698250000029,
              51.48693196500005
            ],
            [
              5.022609268000053,
              51.48145804100005
            ],
            [
              5.016353434000052,
              51.47555891500008
            ],
            [
              5.008305393000057,
              51.46631756200003
            ],
            [
              5.009252147000041,
              51.46262640800006
            ],
            [
              5.010374136000053,
              51.45825205400007
            ],
            [
              5.001429502000065,
              51.44294032500005
            ],
            [
              4.990459705000035,
              51.43692422100003
            ],
            [
              4.963669268000046,
              51.42223169400006
            ],
            [
              4.941809612000043,
              51.405967614000076
            ],
            [
              4.927639358000022,
              51.39542462400004
            ],
            [
              4.920862953000039,
              51.39368792300007
            ],
            [
              4.914105526000071,
              51.39502387700003
            ],
            [
              4.916633857000022,
              51.40027115300006
            ],
            [
              4.911621080000032,
              51.404248841000026
            ],
            [
              4.899937438000052,
              51.41351992700004
            ],
            [
              4.883665665000024,
              51.41601139100004
            ],
            [
              4.875732613000025,
              51.41435076000005
            ],
            [
              4.869729301000064,
              51.41309408300003
            ],
            [
              4.867408860000069,
              51.409118973000034
            ],
            [
              4.859726470000055,
              51.41139992800004
            ],
            [
              4.858392450000053,
              51.41300171200004
            ],
            [
              4.854186435000031,
              51.41366510200004
            ],
            [
              4.852512973000046,
              51.41392904700007
            ],
            [
              4.850039369000058,
              51.413533131000065
            ],
            [
              4.846174158000053,
              51.41291447900005
            ],
            [
              4.842900611000061,
              51.413305956000045
            ],
            [
              4.835521135000022,
              51.414188453000065
            ],
            [
              4.815579274000072,
              51.41243651600007
            ],
            [
              4.78789421700003,
              51.41000432300007
            ],
            [
              4.772964503000026,
              51.41545692700004
            ],
            [
              4.769907095000065,
              51.426435954000056
            ],
            [
              4.78548554300005,
              51.431875113000046
            ],
            [
              4.813327615000048,
              51.42600379100003
            ],
            [
              4.828057930000057,
              51.42289746900008
            ],
            [
              4.827026980000028,
              51.43048315200008
            ],
            [
              4.824699800000076,
              51.44760642800003
            ],
            [
              4.833407159000046,
              51.456100449000076
            ],
            [
              4.833697580000035,
              51.45620553300006
            ],
            [
              4.84131426700003,
              51.45896148800006
            ],
            [
              4.837326847000043,
              51.464903064000055
            ],
            [
              4.841390519000072,
              51.48071314600003
            ],
            [
              4.831995491000043,
              51.48192554800005
            ],
            [
              4.822383101000071,
              51.483166
            ],
            [
              4.816372987000022,
              51.49085846200006
            ],
            [
              4.812860336000028,
              51.495354373000055
            ],
            [
              4.785085472000048,
              51.49943929800003
            ],
            [
              4.776398430000029,
              51.504713105000064
            ],
            [
              4.759925819000046,
              51.50246461300003
            ],
            [
              4.750968033000049,
              51.49818987900005
            ],
            [
              4.745704665000062,
              51.48944315600005
            ],
            [
              4.734006367000063,
              51.48559155400005
            ],
            [
              4.715338612000039,
              51.46902993300006
            ],
            [
              4.704386120000038,
              51.46647250500007
            ],
            [
              4.692894157000069,
              51.45249484200008
            ],
            [
              4.667376425000043,
              51.44428039300004
            ],
            [
              4.66954411100005,
              51.426384047000056
            ],
            [
              4.63827499100006,
              51.423126007000064
            ],
            [
              4.584218657000065,
              51.43113511400003
            ],
            [
              4.576126539000029,
              51.43233406000007
            ],
            [
              4.559185132000039,
              51.428426451000064
            ],
            [
              4.535438207000027,
              51.422949119000066
            ],
            [
              4.533912117000057,
              51.430462101000046
            ],
            [
              4.532481221000069,
              51.43750691000008
            ],
            [
              4.531959805000042,
              51.44007255000008
            ],
            [
              4.530044452000027,
              51.44950107300008
            ],
            [
              4.532992648000061,
              51.45340744600003
            ],
            [
              4.534801640000069,
              51.45580505700008
            ],
            [
              4.535604708000051,
              51.45686943100003
            ],
            [
              4.541655939000066,
              51.46488964100007
            ],
            [
              4.548236064000037,
              51.47322858800004
            ],
            [
              4.535604708000051,
              51.48214467100007
            ],
            [
              4.486697532000051,
              51.47736062900003
            ],
            [
              4.476027571000031,
              51.47771624500007
            ],
            [
              4.469626755000036,
              51.474222171000065
            ],
            [
              4.464163995000035,
              51.47124016200007
            ],
            [
              4.457768611000063,
              51.47039838500007
            ],
            [
              4.441115803000059,
              51.468206499000075
            ],
            [
              4.391183077000051,
              51.451370111000074
            ],
            [
              4.385487238000053,
              51.44763726100007
            ],
            [
              4.39113554100004,
              51.44397964400008
            ],
            [
              4.395901040000069,
              51.440893697000035
            ],
            [
              4.397589808000021,
              51.43410273200004
            ],
            [
              4.395133649000059,
              51.42687264800003
            ],
            [
              4.391536957000028,
              51.42478189000008
            ],
            [
              4.384403330000055,
              51.42063511100008
            ],
            [
              4.390423174000034,
              51.409731656000076
            ],
            [
              4.420233172000053,
              51.38400724300004
            ],
            [
              4.430247509000026,
              51.375365413000054
            ],
            [
              4.426335423000069,
              51.37136221600008
            ],
            [
              4.426078025000038,
              51.37109882400006
            ],
            [
              4.42634580400005,
              51.37064386600008
            ],
            [
              4.429957333000061,
              51.36450786300003
            ],
            [
              4.422493448000068,
              51.36453698100007
            ],
            [
              4.419809495000038,
              51.36454745100008
            ],
            [
              4.409600931000057,
              51.36098185000003
            ],
            [
              4.394777548000036,
              51.35580440500007
            ],
            [
              4.368138903000045,
              51.35603364500008
            ],
            [
              4.341665024000065,
              51.358291060000056
            ],
            [
              4.33563947600004,
              51.37115376600008
            ],
            [
              4.332711816000028,
              51.37740342600006
            ],
            [
              4.279565169000023,
              51.376017380000064
            ],
            [
              4.243657894000023,
              51.37473701400006
            ],
            [
              4.234817405000058,
              51.348254205000046
            ],
            [
              4.231869623000023,
              51.34588393100006
            ],
            [
              4.206818699000053,
              51.32574285800007
            ],
            [
              4.165675408000027,
              51.292692266000074
            ],
            [
              4.071155739000062,
              51.25002645300003
            ],
            [
              4.052782335000074,
              51.24274988800005
            ],
            [
              4.041521945000056,
              51.24184735100005
            ],
            [
              4.03602617100006,
              51.24464554700006
            ],
            [
              4.03566457200003,
              51.24482965700008
            ],
            [
              4.034843224000042,
              51.24460022300008
            ],
            [
              4.025755961000073,
              51.242061801000034
            ],
            [
              4.020708565000064,
              51.24405865300008
            ],
            [
              4.017763837000075,
              51.245223648000035
            ],
            [
              4.005676622000067,
              51.24182249000006
            ],
            [
              3.985424752000029,
              51.23292550700006
            ],
            [
              3.97766651400002,
              51.225132114000075
            ],
            [
              3.965860595000038,
              51.22387282400007
            ],
            [
              3.961193197000057,
              51.21936167500007
            ],
            [
              3.958236120000038,
              51.21650359100005
            ],
            [
              3.938451861000033,
              51.21253001300005
            ],
            [
              3.934203816000036,
              51.215640706000045
            ],
            [
              3.929279448000045,
              51.219246646000045
            ],
            [
              3.919854150000049,
              51.21668244500006
            ],
            [
              3.91695308200002,
              51.21399738000008
            ],
            [
              3.917276131000051,
              51.212775141000066
            ],
            [
              3.918488836000051,
              51.20818693200005
            ],
            [
              3.901975177000054,
              51.202536973000065
            ],
            [
              3.886468979000028,
              51.201182449000044
            ],
            [
              3.878935938000041,
              51.207734250000044
            ],
            [
              3.884053271000028,
              51.211260148000065
            ],
            [
              3.891827724000052,
              51.21661682900003
            ],
            [
              3.887735799000041,
              51.222290849000046
            ],
            [
              3.860024803000044,
              51.21237483600004
            ],
            [
              3.85633948800006,
              51.21105609500006
            ],
            [
              3.852327984000055,
              51.21340198000007
            ],
            [
              3.849699929000053,
              51.21179948200006
            ],
            [
              3.84576585700006,
              51.212940434000075
            ],
            [
              3.840716774000043,
              51.21205799200004
            ],
            [
              3.823902059000034,
              51.209119240000064
            ],
            [
              3.807714067000063,
              51.21290353200004
            ],
            [
              3.802131630000076,
              51.21050513600005
            ],
            [
              3.790755489000048,
              51.21438998200006
            ],
            [
              3.789400084000022,
              51.24334730700008
            ],
            [
              3.791830933000028,
              51.25025786000003
            ],
            [
              3.793912900000066,
              51.25617659200003
            ],
            [
              3.775886468000067,
              51.26300603800007
            ],
            [
              3.772735787000045,
              51.26259331300008
            ],
            [
              3.764268971000035,
              51.26148419700007
            ],
            [
              3.758838066000067,
              51.26570666100008
            ],
            [
              3.754386074000024,
              51.26916803200004
            ],
            [
              3.73193307400004,
              51.271733880000056
            ],
            [
              3.693956974000059,
              51.276073653000026
            ],
            [
              3.687064698000029,
              51.280853646000025
            ],
            [
              3.67883192100004,
              51.28100173300004
            ],
            [
              3.665733665000062,
              51.28656378100004
            ],
            [
              3.657452815000056,
              51.290080164000074
            ],
            [
              3.651664491000076,
              51.28971553800005
            ],
            [
              3.639196997000056,
              51.28893016900008
            ],
            [
              3.600222587000076,
              51.301239483000074
            ],
            [
              3.590266238000027,
              51.30438400300005
            ],
            [
              3.583533284000055,
              51.299608671000044
            ],
            [
              3.584029887000042,
              51.294769803000065
            ],
            [
              3.584207792000029,
              51.293036305000044
            ],
            [
              3.581444130000023,
              51.28876033600005
            ],
            [
              3.57532242000002,
              51.290742099000056
            ],
            [
              3.562732222000022,
              51.29481788600003
            ],
            [
              3.554748819000054,
              51.29071114300007
            ],
            [
              3.544255380000038,
              51.290111781000064
            ],
            [
              3.539428852000071,
              51.28651318800007
            ],
            [
              3.536979151000025,
              51.28468672500003
            ],
            [
              3.533666289000053,
              51.285834254000065
            ],
            [
              3.527429738000023,
              51.287994508000054
            ],
            [
              3.518730090000076,
              51.287028054000075
            ],
            [
              3.517325637000056,
              51.284115764000035
            ],
            [
              3.523215571000037,
              51.25774945200004
            ],
            [
              3.525596682000071,
              51.24709040100004
            ],
            [
              3.475020341000061,
              51.24267199900004
            ],
            [
              3.449292196000044,
              51.24176120000004
            ],
            [
              3.428507789000037,
              51.24517478300004
            ],
            [
              3.425374586000032,
              51.250259164000056
            ],
            [
              3.421788374000073,
              51.25607866400003
            ],
            [
              3.416127309000046,
              51.258916819000035
            ],
            [
              3.410889956000062,
              51.25804707800006
            ],
            [
              3.407776840000054,
              51.257530099000064
            ],
            [
              3.39714439200003,
              51.265437621000046
            ],
            [
              3.386959407000063,
              51.273012358000074
            ],
            [
              3.380737262000025,
              51.27425920100006
            ],
            [
              3.376371939000023,
              51.27780883300005
            ],
            [
              3.378352555000049,
              51.27976375900005
            ],
            [
              3.38105095100002,
              51.28242715400006
            ],
            [
              3.379903256000034,
              51.28695724500005
            ],
            [
              3.372899198000027,
              51.29235160500008
            ],
            [
              3.367078405000029,
              51.29683464200008
            ],
            [
              3.370138066000038,
              51.29872505600008
            ],
            [
              3.375965756000028,
              51.30232570000004
            ],
            [
              3.370919009000033,
              51.30651557600004
            ],
            [
              3.364504819000047,
              51.311728137000046
            ],
            [
              3.359694115000025,
              51.31563760800003
            ],
            [
              3.372431525000025,
              51.325868513000046
            ],
            [
              3.384711236000044,
              51.33573178600005
            ],
            [
              3.38299070000005,
              51.34115467100003
            ],
            [
              3.376935784000068,
              51.346742505000066
            ],
            [
              3.374455806000071,
              51.34903117500005
            ],
            [
              3.374312390000057,
              51.35217662400004
            ],
            [
              3.373970230000054,
              51.359681022000075
            ],
            [
              3.36305556,
              51.37305556
            ],
            [
              2,
              51.5
            ],
            [
              5,
              55
            ]
          ]
        ]
      }
    }
  ]
}
